SchemeID	CompanyID	CompanyName	AddressLine1	AddressLine2	AddressLine3	Town	County	PostCode	Country	Phone1	Phone2	Fax	Website	Email1	Email2	Latitude	Longitude	Nationwide	CertificateID	CertificateNumber
2	1126	A & M Energy Solutions Ltd	Homewarm House	Orchard Industrial Estate	Christen Way	Maidstone	Kent	ME15 9YE	England	01622 673973			www.am-energy.com			51.234100	.560900	0		
2	1157	Rockwarm Insulation Ltd	4 Trident Business Park	Holman Way		Nuneaton	Warwickshire	CV11 4PN	England	02476 345554			www.rockwarm.co.uk	info@rockwarm.co.uk		52.516500	-1.457600	0		
2	1243	Dyson Energy Services	Dyson House	Armytage Road		Brighouse	West Yorkshire	HD6 1PT	England	01484 406086			www.dysoninsulations.co.uk	marc.cohen@dysonenergyservices.co.uk		53.699800	-1.770600	0	4476	95/3149
2	1243	Dyson Energy Services	Dyson House	Armytage Road		Brighouse	West Yorkshire	HD6 1PT	England	01484 406086			www.dysoninsulations.co.uk	marc.cohen@dysonenergyservices.co.uk		53.699800	-1.770600	0	4566	96/3228
2	1243	Dyson Energy Services	Dyson House	Armytage Road		Brighouse	West Yorkshire	HD6 1PT	England	01484 406086			www.dysoninsulations.co.uk	marc.cohen@dysonenergyservices.co.uk		53.699800	-1.770600	0	6880	13/4969
2	1248	Rockwool Ltd	Wern Tarw	Rhiwceiliog	Pencoed	Bridgend	Mid Glamorgan	CF35 6NY	Wales	01656 862621			www.rockwool.co.uk	ian.coles@ROCKWOOL.CO.UK		51.545400	-3.499900	0		
2	1249	InstaGroup Ltd	Insta House	Ivanhoe Road	Hogwood Business Park	Wokingham	Berkshire	RG40 4PZ	England	01189 328811			www.instagroup-homes.co.uk	clementine.littlejohn@instagroup.co.uk		51.375000	-.891400	0	3576	89/2294
2	1249	InstaGroup Ltd	Insta House	Ivanhoe Road	Hogwood Business Park	Wokingham	Berkshire	RG40 4PZ	England	01189 328811			www.instagroup-homes.co.uk	clementine.littlejohn@instagroup.co.uk		51.375000	-.891400	0	4476	95/3149
2	1249	InstaGroup Ltd	Insta House	Ivanhoe Road	Hogwood Business Park	Wokingham	Berkshire	RG40 4PZ	England	01189 328811			www.instagroup-homes.co.uk	clementine.littlejohn@instagroup.co.uk		51.375000	-.891400	0	5672	11/4865
2	1249	InstaGroup Ltd	Insta House	Ivanhoe Road	Hogwood Business Park	Wokingham	Berkshire	RG40 4PZ	England	01189 328811			www.instagroup-homes.co.uk	clementine.littlejohn@instagroup.co.uk		51.375000	-.891400	0	8916	13/4989
2	1249	InstaGroup Ltd	Insta House	Ivanhoe Road	Hogwood Business Park	Wokingham	Berkshire	RG40 4PZ	England	01189 328811			www.instagroup-homes.co.uk	clementine.littlejohn@instagroup.co.uk		51.375000	-.891400	0	10388	14/5175
2	1249	InstaGroup Ltd	Insta House	Ivanhoe Road	Hogwood Business Park	Wokingham	Berkshire	RG40 4PZ	England	01189 328811			www.instagroup-homes.co.uk	clementine.littlejohn@instagroup.co.uk		51.375000	-.891400	0	10646	15/5258
2	1249	InstaGroup Ltd	Insta House	Ivanhoe Road	Hogwood Business Park	Wokingham	Berkshire	RG40 4PZ	England	01189 328811			www.instagroup-homes.co.uk	clementine.littlejohn@instagroup.co.uk		51.375000	-.891400	0	10744	16/5303
2	1249	InstaGroup Ltd	Insta House	Ivanhoe Road	Hogwood Business Park	Wokingham	Berkshire	RG40 4PZ	England	01189 328811			www.instagroup-homes.co.uk	mark.montgomery@instagroup.co.uk		51.375000	-.891400	0	3576	89/2294
2	1249	InstaGroup Ltd	Insta House	Ivanhoe Road	Hogwood Business Park	Wokingham	Berkshire	RG40 4PZ	England	01189 328811			www.instagroup-homes.co.uk	mark.montgomery@instagroup.co.uk		51.375000	-.891400	0	4476	95/3149
2	1249	InstaGroup Ltd	Insta House	Ivanhoe Road	Hogwood Business Park	Wokingham	Berkshire	RG40 4PZ	England	01189 328811			www.instagroup-homes.co.uk	mark.montgomery@instagroup.co.uk		51.375000	-.891400	0	5672	11/4865
2	1249	InstaGroup Ltd	Insta House	Ivanhoe Road	Hogwood Business Park	Wokingham	Berkshire	RG40 4PZ	England	01189 328811			www.instagroup-homes.co.uk	mark.montgomery@instagroup.co.uk		51.375000	-.891400	0	8916	13/4989
2	1249	InstaGroup Ltd	Insta House	Ivanhoe Road	Hogwood Business Park	Wokingham	Berkshire	RG40 4PZ	England	01189 328811			www.instagroup-homes.co.uk	mark.montgomery@instagroup.co.uk		51.375000	-.891400	0	10388	14/5175
2	1249	InstaGroup Ltd	Insta House	Ivanhoe Road	Hogwood Business Park	Wokingham	Berkshire	RG40 4PZ	England	01189 328811			www.instagroup-homes.co.uk	mark.montgomery@instagroup.co.uk		51.375000	-.891400	0	10646	15/5258
2	1249	InstaGroup Ltd	Insta House	Ivanhoe Road	Hogwood Business Park	Wokingham	Berkshire	RG40 4PZ	England	01189 328811			www.instagroup-homes.co.uk	mark.montgomery@instagroup.co.uk		51.375000	-.891400	0	10744	16/5303
2	1257	Cosyhome Insulation Ltd	Insulation House	St Mary's Bridge	Town End	Doncaster	South Yorkshire	DN5 9AG	England	01302 325256			www.cosyhome.com	insulate@cosyhome.com		53.529200	-1.144700	0	3308	88/2033
2	1257	Cosyhome Insulation Ltd	Insulation House	St Mary's Bridge	Town End	Doncaster	South Yorkshire	DN5 9AG	England	01302 325256			www.cosyhome.com	insulate@cosyhome.com		53.529200	-1.144700	0	5658	11/4857
2	1296	A & M Energy Solutions Ltd	Environmental House	Sandwash Close	Mill Lane	St Helens	Merseyside	WA11 8LY	England	01744 886111			www.am-energy.com	jason.mansfield@am-energy.com		53.492000	-2.770700	0	600	04/4167
2	1296	A & M Energy Solutions Ltd	Environmental House	Sandwash Close	Mill Lane	St Helens	Merseyside	WA11 8LY	England	01744 886111			www.am-energy.com	jason.mansfield@am-energy.com		53.492000	-2.770700	0	3308	88/2033
2	1296	A & M Energy Solutions Ltd	Environmental House	Sandwash Close	Mill Lane	St Helens	Merseyside	WA11 8LY	England	01744 886111			www.am-energy.com	jason.mansfield@am-energy.com		53.492000	-2.770700	0	4566	96/3228
2	1296	A & M Energy Solutions Ltd	Environmental House	Sandwash Close	Mill Lane	St Helens	Merseyside	WA11 8LY	England	01744 886111			www.am-energy.com	jason.mansfield@am-energy.com		53.492000	-2.770700	0	5829	12/4938
2	1296	A & M Energy Solutions Ltd	Environmental House	Sandwash Close	Mill Lane	St Helens	Merseyside	WA11 8LY	England	01744 886111			www.am-energy.com	jason.mansfield@am-energy.com		53.492000	-2.770700	0	6880	13/4969
2	1378	Polypearl Ltd	Unit 20, Churchill Park	Colwick Industrial Estate		Nottingham	Nottinghamshire	NG4 2HF	England	01159 875787			www.polypearl.co.uk	andrew@polypearl.co.uk		52.956400	-1.082900	0	4566	96/3228
2	1491	PC Dynes (Insulations)	34 Creenagh Road			Dungannon	Co Tyrone	BT71 6HB	Northern Ireland	02887 740145			www.pcdynesinsulations.co.uk	pcdynesins@hotmail.com		54.523800	-6.700800	0	15122	18/5496
2	3062	The Warmer Group Ltd	12 Haviland Road		Ferndown Industrial Estate	Wimborne	Dorset	BH21 7RG	England	01202 897273			www.caringforourworld.co.uk	d.godfrey@thewarmergroup.co.uk		50.810700	-1.914700	0	3576	89/2294
2	3062	The Warmer Group Ltd	12 Haviland Road		Ferndown Industrial Estate	Wimborne	Dorset	BH21 7RG	England	01202 897273			www.caringforourworld.co.uk	d.godfrey@thewarmergroup.co.uk		50.810700	-1.914700	0	5672	11/4865
2	3062	The Warmer Group Ltd	12 Haviland Road		Ferndown Industrial Estate	Wimborne	Dorset	BH21 7RG	England	01202 897273			www.caringforourworld.co.uk	d.godfrey@thewarmergroup.co.uk		50.810700	-1.914700	0	10646	15/5258
2	3220	Panda Insulation Ltd	Palace Lane Cottage	Palace Lane	Beaulieu	Southampton	Hampshire	SO42 7YG	England	02380 292285			www.pandainsulation.co.uk	insulationpanda@yahoo.co.uk		50.899800	-1.514600	0	3598	89/2316
2	3225	Karnheath Ltd	4 Boyd Street	Shieldfield		Newcastle upon Tyne	Tyne and Wear	NE2 1AP	England	01912 615222			www.karneathltd.com	alex@karnheathltd.com		54.976600	-1.596200	0	10643	15/5257
2	3225	Karnheath Ltd	4 Boyd Street	Shieldfield		Newcastle upon Tyne	Tyne and Wear	NE2 1AP	England	01912 615222			www.karneathltd.com	pauline@karnheathltd.com		54.976600	-1.596200	0	10643	15/5257
2	3287	Heat Insulation Ltd	Crowle House	Crowle Street		Hull	East Yorkshire	HU9 1RH	England	01482 588591			www.heat-insulation.co.uk	andy@heat-insulation.co.uk		53.749400	-.305400	0	3251	88/1976
2	3287	Heat Insulation Ltd	Crowle House	Crowle Street		Hull	East Yorkshire	HU9 1RH	England	01482 588591			www.heat-insulation.co.uk	andy@heat-insulation.co.uk		53.749400	-.305400	0	3576	89/2294
2	3287	Heat Insulation Ltd	Crowle House	Crowle Street		Hull	East Yorkshire	HU9 1RH	England	01482 588591			www.heat-insulation.co.uk	andy@heat-insulation.co.uk		53.749400	-.305400	0	3598	89/2316
2	3287	Heat Insulation Ltd	Crowle House	Crowle Street		Hull	East Yorkshire	HU9 1RH	England	01482 588591			www.heat-insulation.co.uk	andy@heat-insulation.co.uk		53.749400	-.305400	0	9929	13/5001
2	3287	Heat Insulation Ltd	Crowle House	Crowle Street		Hull	East Yorkshire	HU9 1RH	England	01482 588591			www.heat-insulation.co.uk	ricky@heat-insulation.co.uk		53.749400	-.305400	0	3251	88/1976
2	3287	Heat Insulation Ltd	Crowle House	Crowle Street		Hull	East Yorkshire	HU9 1RH	England	01482 588591			www.heat-insulation.co.uk	ricky@heat-insulation.co.uk		53.749400	-.305400	0	3576	89/2294
2	3287	Heat Insulation Ltd	Crowle House	Crowle Street		Hull	East Yorkshire	HU9 1RH	England	01482 588591			www.heat-insulation.co.uk	ricky@heat-insulation.co.uk		53.749400	-.305400	0	3598	89/2316
2	3287	Heat Insulation Ltd	Crowle House	Crowle Street		Hull	East Yorkshire	HU9 1RH	England	01482 588591			www.heat-insulation.co.uk	ricky@heat-insulation.co.uk		53.749400	-.305400	0	9929	13/5001
2	3300	Puffin Insulation Limited 	Westwood 146c Upper Grosvenor Road			Tunbridge Wells	Kent	TN1 2ED	England	02084 627227			https://www.puffininsulation.co.uk/us/	info@puffininsulation.co.uk		51.375900	.016700	0	3598	89/2316
2	3300	Puffin Insulation Limited 	Westwood 146c Upper Grosvenor Road			Tunbridge Wells	Kent	TN1 2ED	England	02084 627227			https://www.puffininsulation.co.uk/us/	info@puffininsulation.co.uk		51.375900	.016700	0	4476	95/3149
2	3303	Energycare Insulations Ltd	48B Greendale Business Park	Woodbury Salterton		Exeter	Devon	EX5 1EW	England	01392 363402			www.energycare.co.uk	 cje@energycarehomes.co.uk		50.729300	-3.412400	0	3576	89/2294
2	3303	Energycare Insulations Ltd	48B Greendale Business Park	Woodbury Salterton		Exeter	Devon	EX5 1EW	England	01392 363402			www.energycare.co.uk	 cje@energycarehomes.co.uk		50.729300	-3.412400	0	5586	11/4834
2	3303	Energycare Insulations Ltd	48B Greendale Business Park	Woodbury Salterton		Exeter	Devon	EX5 1EW	England	01392 363402			www.energycare.co.uk	 cje@energycarehomes.co.uk		50.729300	-3.412400	0	10616	15/5244
2	3320	CavityTech Systems Ltd	The Old Calf Sheds	Wilbees Farm		Arlington	East Sussex	BN26 6RU	England	01323 483377			www.cavitytech.co.uk	info@cavitytech.co.uk		50.842400	.199000	0	3576	89/2294
2	3320	CavityTech Systems Ltd	The Old Calf Sheds	Wilbees Farm		Arlington	East Sussex	BN26 6RU	England	01323 483377			www.cavitytech.co.uk	info@cavitytech.co.uk		50.842400	.199000	0	3598	89/2316
2	3320	CavityTech Systems Ltd	The Old Calf Sheds	Wilbees Farm		Arlington	East Sussex	BN26 6RU	England	01323 483377			www.cavitytech.co.uk	info@cavitytech.co.uk		50.842400	.199000	0	5586	11/4834
2	3320	CavityTech Systems Ltd	The Old Calf Sheds	Wilbees Farm		Arlington	East Sussex	BN26 6RU	England	01323 483377			www.cavitytech.co.uk	info@cavitytech.co.uk		50.842400	.199000	0	9929	13/5001
2	3320	CavityTech Systems Ltd	The Old Calf Sheds	Wilbees Farm		Arlington	East Sussex	BN26 6RU	England	01323 483377			www.cavitytech.co.uk	info@cavitytech.co.uk		50.842400	.199000	0	10646	15/5258
2	3390	A & M Energy Solutions Ltd	Unit 2	Spring Road Industrial Estate		Smethwick	West Midlands	B66 1PE	England	01215 531075			www.am-energy.com			52.505400	-1.988700	0	1128	08/4611
2	3390	A & M Energy Solutions Ltd	Unit 2	Spring Road Industrial Estate		Smethwick	West Midlands	B66 1PE	England	01215 531075			www.am-energy.com			52.505400	-1.988700	0	3308	88/2033
2	3409	Interglow Contracts Ltd 	Shepreth Road	Fowlmere		Royston	Hertfordshire	SG8 7TQ	England	01763 208563			www.interglow.co.uk	mwebb@interglow.co.uk		52.099200	.066700	0	3308	88/2033
2	3409	Interglow Contracts Ltd 	Shepreth Road	Fowlmere		Royston	Hertfordshire	SG8 7TQ	England	01763 208563			www.interglow.co.uk	mwebb@interglow.co.uk		52.099200	.066700	0	3576	89/2294
2	3409	Interglow Contracts Ltd 	Shepreth Road	Fowlmere		Royston	Hertfordshire	SG8 7TQ	England	01763 208563			www.interglow.co.uk	mwebb@interglow.co.uk		52.099200	.066700	0	5586	11/4834
2	3409	Interglow Contracts Ltd 	Shepreth Road	Fowlmere		Royston	Hertfordshire	SG8 7TQ	England	01763 208563			www.interglow.co.uk	swebb@interglow.co.uk		52.099200	.066700	0	3308	88/2033
2	3409	Interglow Contracts Ltd 	Shepreth Road	Fowlmere		Royston	Hertfordshire	SG8 7TQ	England	01763 208563			www.interglow.co.uk	swebb@interglow.co.uk		52.099200	.066700	0	3576	89/2294
2	3409	Interglow Contracts Ltd 	Shepreth Road	Fowlmere		Royston	Hertfordshire	SG8 7TQ	England	01763 208563			www.interglow.co.uk	swebb@interglow.co.uk		52.099200	.066700	0	5586	11/4834
2	3453	A & M Energy Solutions Ltd	Unit 33B	Bramble Road	Techno Trading Estate	Swindon	Wiltshire	SN2 8HB	England	01793 528962			www.am-energy.com			51.576900	-1.765200	0	3308	88/2033
2	3453	A & M Energy Solutions Ltd	Unit 33B	Bramble Road	Techno Trading Estate	Swindon	Wiltshire	SN2 8HB	England	01793 528962			www.am-energy.com			51.576900	-1.765200	0	5658	11/4857
2	3453	A & M Energy Solutions Ltd	Unit 33B	Bramble Road	Techno Trading Estate	Swindon	Wiltshire	SN2 8HB	England	01793 528962			www.am-energy.com			51.576900	-1.765200	0	6880	13/4969
2	3462	British Gypsum-Isover Ltd	East Leake			Loughborough	Leicestershire	LE12 6JU	England	01928 712083				david.burton@saint-gobain.com		52.844000	-1.177800	0		
2	3487	Cosy Homes (NI) Ltd	Hillcrest	3 Gambles Road		Poyntzpass	Co Armagh	BT35 6TG	Northern Ireland	02838 318111			www.insulationireland.co.uk	cosyhomesni@btconnect.com		54.264900	-6.371400	0	1191	09/4652
2	3541	A & M Energy Solutions Ltd	Unit 16	Penley Hall Industrial Estate	Penley	Wrexham	Clwyd	LL13 0LQ	Wales				www.am-energy.com			52.954300	-2.872000	0	600	04/4167
2	3541	A & M Energy Solutions Ltd	Unit 16	Penley Hall Industrial Estate	Penley	Wrexham	Clwyd	LL13 0LQ	Wales				www.am-energy.com			52.954300	-2.872000	0	3308	88/2033
2	3549	InBuild Solutions Ltd	Essex House	Josselin Road		Basildon	Essex	SS13 1EL	England	01268 724455			www.inbuild.co.uk	cliffeves@inbuild.co.uk		51.585400	.517200	0	3576	89/2294
2	3549	InBuild Solutions Ltd	Essex House	Josselin Road		Basildon	Essex	SS13 1EL	England	01268 724455			www.inbuild.co.uk	cliffeves@inbuild.co.uk		51.585400	.517200	0	4476	95/3149
2	3549	InBuild Solutions Ltd	Essex House	Josselin Road		Basildon	Essex	SS13 1EL	England	01268 724455			www.inbuild.co.uk	cliffeves@inbuild.co.uk		51.585400	.517200	0	4566	96/3228
2	3549	InBuild Solutions Ltd	Essex House	Josselin Road		Basildon	Essex	SS13 1EL	England	01268 724455			www.inbuild.co.uk	cliffeves@inbuild.co.uk		51.585400	.517200	0	5658	11/4857
2	3549	InBuild Solutions Ltd	Essex House	Josselin Road		Basildon	Essex	SS13 1EL	England	01268 724455			www.inbuild.co.uk	cliffeves@inbuild.co.uk		51.585400	.517200	0	10125	14/5086
2	3549	InBuild Solutions Ltd	Essex House	Josselin Road		Basildon	Essex	SS13 1EL	England	01268 724455			www.inbuild.co.uk	cliffeves@inbuild.co.uk		51.585400	.517200	0	10388	14/5175
2	3549	InBuild Solutions Ltd	Essex House	Josselin Road		Basildon	Essex	SS13 1EL	England	01268 724455			www.inbuild.co.uk	cliffeves@inbuild.co.uk		51.585400	.517200	0	10437	15/5181
2	3549	InBuild Solutions Ltd	Essex House	Josselin Road		Basildon	Essex	SS13 1EL	England	01268 724455			www.inbuild.co.uk	cliffeves@inbuild.co.uk		51.585400	.517200	0	10744	16/5303
2	3591	Anglian Insulations Ltd	Frost Industrial Estate	Bidewell Close	Drayton	Norwich	Norfolk	NR8 6AP	England	01603 864458			www.anglianinsulations.com	info@anglianinsulations.com		52.673500	1.234800	0	3576	89/2294
2	3591	Anglian Insulations Ltd	Frost Industrial Estate	Bidewell Close	Drayton	Norwich	Norfolk	NR8 6AP	England	01603 864458			www.anglianinsulations.com	info@anglianinsulations.com		52.673500	1.234800	0	5672	11/4865
2	3591	Anglian Insulations Ltd	Frost Industrial Estate	Bidewell Close	Drayton	Norwich	Norfolk	NR8 6AP	England	01603 864458			www.anglianinsulations.com	info@anglianinsulations.com		52.673500	1.234800	0	10388	14/5175
2	3623	J & J Crump & Son Ltd	1A Nethermoor Lane	Killamarsh		Sheffield	South Yorkshire	S21 1BZ	England	01142 471098			www.jjcrump.co.uk	chris.allen@jjcrump.co.uk		53.325200	-1.311300	0	3576	89/2294
2	3623	J & J Crump & Son Ltd	1A Nethermoor Lane	Killamarsh		Sheffield	South Yorkshire	S21 1BZ	England	01142 471098			www.jjcrump.co.uk	chris.allen@jjcrump.co.uk		53.325200	-1.311300	0	4476	95/3149
2	3623	J & J Crump & Son Ltd	1A Nethermoor Lane	Killamarsh		Sheffield	South Yorkshire	S21 1BZ	England	01142 471098			www.jjcrump.co.uk	chris.allen@jjcrump.co.uk		53.325200	-1.311300	0	4566	96/3228
2	3623	J & J Crump & Son Ltd	1A Nethermoor Lane	Killamarsh		Sheffield	South Yorkshire	S21 1BZ	England	01142 471098			www.jjcrump.co.uk	chris.allen@jjcrump.co.uk		53.325200	-1.311300	0	5672	11/4865
2	3623	J & J Crump & Son Ltd	1A Nethermoor Lane	Killamarsh		Sheffield	South Yorkshire	S21 1BZ	England	01142 471098			www.jjcrump.co.uk	chris.allen@jjcrump.co.uk		53.325200	-1.311300	0	8916	13/4989
2	3623	J & J Crump & Son Ltd	1A Nethermoor Lane	Killamarsh		Sheffield	South Yorkshire	S21 1BZ	England	01142 471098			www.jjcrump.co.uk	chris.allen@jjcrump.co.uk		53.325200	-1.311300	0	10646	15/5258
2	3633	Multi-Therm Insulations	Unit 12	Monksbridge Trading Estate	Outgang Lane	Sheffield	South Yorkshire	S25 3QZ	England	01909 550850			www.multi-therm.co.uk	info@multi-therm.co.uk		53.375500	-1.226200	0		
2	3677	Knauf Insulation Ltd	PO Box 10	Stafford Road		St Helens	Merseyside	WA10 3NS	England	01744 766600			www.knaufinsulation.co.uk			53.450600	-2.741900	0	3308	88/2033
2	3677	Knauf Insulation Ltd	PO Box 10	Stafford Road		St Helens	Merseyside	WA10 3NS	England	01744 766600			www.knaufinsulation.co.uk			53.450600	-2.741900	0	5658	11/4857
2	3714	Aran Services Ltd	Units 1-6	The Old Station	Lower Green	Bury St Edmunds	Suffolk	IP28 6NL	England	01284 812520			www.aranservices.co.uk			52.265800	.558900	0	600	04/4167
2	3714	Aran Services Ltd	Units 1-6	The Old Station	Lower Green	Bury St Edmunds	Suffolk	IP28 6NL	England	01284 812520			www.aranservices.co.uk			52.265800	.558900	0	3308	88/2033
2	3714	Aran Services Ltd	Units 1-6	The Old Station	Lower Green	Bury St Edmunds	Suffolk	IP28 6NL	England	01284 812520			www.aranservices.co.uk			52.265800	.558900	0	3576	89/2294
2	3714	Aran Services Ltd	Units 1-6	The Old Station	Lower Green	Bury St Edmunds	Suffolk	IP28 6NL	England	01284 812520			www.aranservices.co.uk			52.265800	.558900	0	5586	11/4834
2	3714	Aran Services Ltd	Units 1-6	The Old Station	Lower Green	Bury St Edmunds	Suffolk	IP28 6NL	England	01284 812520			www.aranservices.co.uk			52.265800	.558900	0	5672	11/4865
2	3714	Aran Services Ltd	Units 1-6	The Old Station	Lower Green	Bury St Edmunds	Suffolk	IP28 6NL	England	01284 812520			www.aranservices.co.uk			52.265800	.558900	0	6880	13/4969
2	3714	Aran Services Ltd	Units 1-6	The Old Station	Lower Green	Bury St Edmunds	Suffolk	IP28 6NL	England	01284 812520			www.aranservices.co.uk			52.265800	.558900	0	10402	14/5176
2	3714	Aran Services Ltd	Units 1-6	The Old Station	Lower Green	Bury St Edmunds	Suffolk	IP28 6NL	England	01284 812520			www.aranservices.co.uk			52.265800	.558900	0	10437	15/5181
2	3729	A & M Energy Solutions Ltd	Unit 39	Portmanmoor Road Industrial Estate		Cardiff	Glamorgan	CF24 5HB	Wales	02920 461802			www.am-energy.com			51.476400	-3.148600	0	600	04/4167
2	3729	A & M Energy Solutions Ltd	Unit 39	Portmanmoor Road Industrial Estate		Cardiff	Glamorgan	CF24 5HB	Wales	02920 461802			www.am-energy.com			51.476400	-3.148600	0	3308	88/2033
2	4009	1st Choice Insulations	Units 5-6	Frans Green Industrial Estatee	Sandy Lane	Dereham	Norfolk	NR20 3JG	England	01603 880999			www.insulationsnorfolk.co.uk	marion@1stchoiceinsulations.co.uk		52.682500	1.097400	0	5586	11/4834
2	4035	Dyson Energy Services	Unit 1b Glover Industrial Estate	Spire Road	Washington	Newcastle	Northumberland	NE37 3ES	England	01914 165969			www.dysoninsulations.co.uk	marc.cohen@dysonenergyservices.co.uk		52.494500	-2.018600	0	3308	88/2033
2	4035	Dyson Energy Services	Unit 1b Glover Industrial Estate	Spire Road	Washington	Newcastle	Northumberland	NE37 3ES	England	01914 165969			www.dysoninsulations.co.uk	marc.cohen@dysonenergyservices.co.uk		52.494500	-2.018600	0	3598	89/2316
2	4035	Dyson Energy Services	Unit 1b Glover Industrial Estate	Spire Road	Washington	Newcastle	Northumberland	NE37 3ES	England	01914 165969			www.dysoninsulations.co.uk	marc.cohen@dysonenergyservices.co.uk		52.494500	-2.018600	0	4476	95/3149
2	4050	Springvale EPS Ltd	Dinting Vale Works	Dinting Vale Business Park		Glossop	Derbyshire	SK13 6LG	England	01457 863211			www.springvale.com	swatson@springvale.com		53.449900	-1.979800	0	600	04/4167
2	4051	Warm Front Ltd	Unit 1	Kingston Mill	Manchester Road	Hyde	Cheshire	SK14 2BZ	England	01613 209255			www.warmfrontltd.com	andreww@warmfrontltd.com		53.470000	-2.102700	0	3576	89/2294
2	4051	Warm Front Ltd	Unit 1	Kingston Mill	Manchester Road	Hyde	Cheshire	SK14 2BZ	England	01613 209255			www.warmfrontltd.com	andreww@warmfrontltd.com		53.470000	-2.102700	0	3598	89/2316
2	4051	Warm Front Ltd	Unit 1	Kingston Mill	Manchester Road	Hyde	Cheshire	SK14 2BZ	England	01613 209255			www.warmfrontltd.com	andreww@warmfrontltd.com		53.470000	-2.102700	0	9930	13/5002
2	4051	Warm Front Ltd	Unit 1	Kingston Mill	Manchester Road	Hyde	Cheshire	SK14 2BZ	England	01613 209255			www.warmfrontltd.com	andreww@warmfrontltd.com		53.470000	-2.102700	0	10437	15/5181
2	4051	Warm Front Ltd	Unit 1	Kingston Mill	Manchester Road	Hyde	Cheshire	SK14 2BZ	England	01613 209255			www.warmfrontltd.com	andreww@warmfrontltd.com		53.470000	-2.102700	0	10643	15/5257
2	4051	Warm Front Ltd	Unit 1	Kingston Mill	Manchester Road	Hyde	Cheshire	SK14 2BZ	England	01613 209255			www.warmfrontltd.com	andreww@warmfrontltd.com		53.470000	-2.102700	0	10646	15/5258
2	4051	Warm Front Ltd	Unit 1	Kingston Mill	Manchester Road	Hyde	Cheshire	SK14 2BZ	England	01613 209255			www.warmfrontltd.com	andrewwebb@warmfrontltd.com		53.470000	-2.102700	0	3576	89/2294
2	4051	Warm Front Ltd	Unit 1	Kingston Mill	Manchester Road	Hyde	Cheshire	SK14 2BZ	England	01613 209255			www.warmfrontltd.com	andrewwebb@warmfrontltd.com		53.470000	-2.102700	0	3598	89/2316
2	4051	Warm Front Ltd	Unit 1	Kingston Mill	Manchester Road	Hyde	Cheshire	SK14 2BZ	England	01613 209255			www.warmfrontltd.com	andrewwebb@warmfrontltd.com		53.470000	-2.102700	0	9930	13/5002
2	4051	Warm Front Ltd	Unit 1	Kingston Mill	Manchester Road	Hyde	Cheshire	SK14 2BZ	England	01613 209255			www.warmfrontltd.com	andrewwebb@warmfrontltd.com		53.470000	-2.102700	0	10437	15/5181
2	4051	Warm Front Ltd	Unit 1	Kingston Mill	Manchester Road	Hyde	Cheshire	SK14 2BZ	England	01613 209255			www.warmfrontltd.com	andrewwebb@warmfrontltd.com		53.470000	-2.102700	0	10643	15/5257
2	4051	Warm Front Ltd	Unit 1	Kingston Mill	Manchester Road	Hyde	Cheshire	SK14 2BZ	England	01613 209255			www.warmfrontltd.com	andrewwebb@warmfrontltd.com		53.470000	-2.102700	0	10646	15/5258
2	4052	DS Insulations	2 The Fields	Middleton		Matlock	Derbyshire	DE4 4NH	England	01629 824595			www.dsinsulations.co.uk	ds.insulations@virgin.net		53.099500	-1.586200	0	3576	89/2294
2	4052	DS Insulations	2 The Fields	Middleton		Matlock	Derbyshire	DE4 4NH	England	01629 824595			www.dsinsulations.co.uk	ds.insulations@virgin.net		53.099500	-1.586200	0	8916	13/4989
2	4052	DS Insulations	2 The Fields	Middleton		Matlock	Derbyshire	DE4 4NH	England	01629 824595			www.dsinsulations.co.uk	ds.insulations@virgin.net		53.099500	-1.586200	0	10643	15/5257
2	4058	Saving Energy Ltd	Unit 19	Oban Court		Wickford	Essex	SS11 8YB	England	08009 549689			www.savingenergyuk.co.uk	info@savingenergyuk.co.uk		51.600700	.546400	0	3576	89/2294
2	4058	Saving Energy Ltd	Unit 19	Oban Court		Wickford	Essex	SS11 8YB	England	08009 549689			www.savingenergyuk.co.uk	info@savingenergyuk.co.uk		51.600700	.546400	0	5586	11/4834
2	4058	Saving Energy Ltd	Unit 19	Oban Court		Wickford	Essex	SS11 8YB	England	08009 549689			www.savingenergyuk.co.uk	info@savingenergyuk.co.uk		51.600700	.546400	0	8916	13/4989
2	4058	Saving Energy Ltd	Unit 19	Oban Court		Wickford	Essex	SS11 8YB	England	08009 549689			www.savingenergyuk.co.uk	info@savingenergyuk.co.uk		51.600700	.546400	0	10437	15/5181
2	4064	Foamseal Ltd	Market Square House	Market Square		Petworth	West Sussex	GU28 0AH	England	01798 345400			www.foamseal.co.uk	info@foamseal-insulation.co.uk		50.986000	-.609200	0	9930	13/5002
2	4066	A & M Energy Solutions Ltd	Windle Works	Southampton Road	Cadnam	Southampton	Hampshire	SO40 2NF	England	02380 814813			www.am-energy.com			50.919100	-1.570700	0	3308	88/2033
2	4077	Gabriel Insulation Services Ltd	Unit 10B Solent Trade Park	Solent Road		Havant	Hampshire	PO9 1JH	England	01730 260566			www.gabrielinsulation.co.uk	loftman2@yahoo.com		50.845500	-.992800	0	5586	11/4834
2	4077	Gabriel Insulation Services Ltd	Unit 10B Solent Trade Park	Solent Road		Havant	Hampshire	PO9 1JH	England	01730 260566			www.gabrielinsulation.co.uk	loftman2@yahoo.com		50.845500	-.992800	0	10616	15/5244
2	4079	Polybead Insulation UK Ltd T/A Ecologic Energy	Unit 7, Sovereign Business Centre	Stockingsfield Lane		Enfield	Middlesex	EN3 7JX	England	02088 048151			www.ecologic-energy.co.uk	enquiries@ecologic-energy.co.uk		51.654900	-.026600	0	3576	89/2294
2	4080	AE Insulation Ltd	Unit 9 Greenhill Court	Spring Meadows Business Park		Cardiff	Glamorgan	CF3 2AG	Wales	02920 362442			www.aeinsulation.co.uk	andy@aeinsulation.co.uk		51.503700	-3.116900	0	588	04/4155
2	4080	AE Insulation Ltd	Unit 9 Greenhill Court	Spring Meadows Business Park		Cardiff	Glamorgan	CF3 2AG	Wales	02920 362442			www.aeinsulation.co.uk	andy@aeinsulation.co.uk		51.503700	-3.116900	0	3576	89/2294
2	4080	AE Insulation Ltd	Unit 9 Greenhill Court	Spring Meadows Business Park		Cardiff	Glamorgan	CF3 2AG	Wales	02920 362442			www.aeinsulation.co.uk	andy@aeinsulation.co.uk		51.503700	-3.116900	0	10437	15/5181
2	4081	NorthWest Insulations Ltd	Unit 2	New Cheshire Business Park	Wincham Lane	Northwich	Cheshire	CW9 6GG	England	01606 41217			www.northwestinsulationsltd.co.uk	T.Lawlor@northwestinsulations.co.uk		53.275300	-2.484100	0	600	04/4167
2	4081	NorthWest Insulations Ltd	Unit 2	New Cheshire Business Park	Wincham Lane	Northwich	Cheshire	CW9 6GG	England	01606 41217			www.northwestinsulationsltd.co.uk	T.Lawlor@northwestinsulations.co.uk		53.275300	-2.484100	0	3576	89/2294
2	4088	Titan Insulations Ltd	Unit G, Chantry Industrial Estate	Chantry Lane		Storrington	West Sussex	RH20 4AD	England	01903 740339			www.titaninsulation.co.uk	suzanne@titaninsulation.co.uk; justin@titaninsulation.co.uk		50.911900	-.448600	0		
2	4089	Alba Insulations Ltd	21 Central City Industrial Estate	Red Lane		Coventry	West Midlands	CV6 5RY	England	02476 581553			www.albainsulation.com	info@albainsulations.com		52.419000	-1.489500	0	3576	89/2294
2	4089	Alba Insulations Ltd	21 Central City Industrial Estate	Red Lane		Coventry	West Midlands	CV6 5RY	England	02476 581553			www.albainsulation.com	info@albainsulations.com		52.419000	-1.489500	0	8916	13/4989
2	4089	Alba Insulations Ltd	21 Central City Industrial Estate	Red Lane		Coventry	West Midlands	CV6 5RY	England	02476 581553			www.albainsulation.com	info@albainsulations.com		52.419000	-1.489500	0	10643	15/5257
2	4089	Alba Insulations Ltd	21 Central City Industrial Estate	Red Lane		Coventry	West Midlands	CV6 5RY	England	02476 581553			www.albainsulation.com	info@albainsulations.com		52.419000	-1.489500	0	10646	15/5258
2	4103	Provincial Seals Ltd	Unit 3 Kingsway House	Kingsway	Team Valley Trading Estate	Gateshead	Tyne and Wear	NE11 0HW	England	01661 842221			www.provincialseals.co.uk	george@provincialseals.co.uk		54.937300	-1.898400	0	1128	08/4611
2	4103	Provincial Seals Ltd	Unit 3 Kingsway House	Kingsway	Team Valley Trading Estate	Gateshead	Tyne and Wear	NE11 0HW	England	01661 842221			www.provincialseals.co.uk	george@provincialseals.co.uk		54.937300	-1.898400	0	10643	15/5257
2	4103	Provincial Seals Ltd	Unit 3 Kingsway House	Kingsway	Team Valley Trading Estate	Gateshead	Tyne and Wear	NE11 0HW	England	01661 842221			www.provincialseals.co.uk	max@provincialseals.co.uk		54.937300	-1.898400	0	1128	08/4611
2	4103	Provincial Seals Ltd	Unit 3 Kingsway House	Kingsway	Team Valley Trading Estate	Gateshead	Tyne and Wear	NE11 0HW	England	01661 842221			www.provincialseals.co.uk	max@provincialseals.co.uk		54.937300	-1.898400	0	10643	15/5257
2	4107	J & J Crump & Son Ltd	Units 4 & 5	Hedley Units	Brunel Road	Newton Abbot	Devon	TQ12 4PB	England	01626 362740			www.jjcrump.co.uk	steve@jjcrump.co.uk		50.529100	-3.596200	0	3576	89/2294
2	4107	J & J Crump & Son Ltd	Units 4 & 5	Hedley Units	Brunel Road	Newton Abbot	Devon	TQ12 4PB	England	01626 362740			www.jjcrump.co.uk	steve@jjcrump.co.uk		50.529100	-3.596200	0	5672	11/4865
2	4133	Logical Insulation Solutions Ltd	Wood Street			Grangemouth	Stirlingshire	FK3 8LH	Scotland	01324 477090			www.logicalinsulations.co.uk	enquiries@logicalinsulations.co.uk		56.011200	-3.733500	0	3576	89/2294
2	4133	Logical Insulation Solutions Ltd	Wood Street			Grangemouth	Stirlingshire	FK3 8LH	Scotland	01324 477090			www.logicalinsulations.co.uk	info@logicalinsulations.co.uk		56.011200	-3.733500	0	3576	89/2294
2	4138	Airpacks Ltd	Kilnaleck			Co Cavan	County Cavan		Ireland					noelbrady@kore-icf.com				0		
2	4141	Dyson Energy Services	Unit 24, Saddleback Road	Westgate Industrial Estate		Northampton	Northamptonshire	NN5 5HL	England	01604 685050			www.dysoninsulations.co.uk			52.242000	-.933500	0	3308	88/2033
2	4141	Dyson Energy Services	Unit 24, Saddleback Road	Westgate Industrial Estate		Northampton	Northamptonshire	NN5 5HL	England	01604 685050			www.dysoninsulations.co.uk			52.242000	-.933500	0	3598	89/2316
2	4141	Dyson Energy Services	Unit 24, Saddleback Road	Westgate Industrial Estate		Northampton	Northamptonshire	NN5 5HL	England	01604 685050			www.dysoninsulations.co.uk			52.242000	-.933500	0	4476	95/3149
2	4141	Dyson Energy Services	Unit 24, Saddleback Road	Westgate Industrial Estate		Northampton	Northamptonshire	NN5 5HL	England	01604 685050			www.dysoninsulations.co.uk			52.242000	-.933500	0	10437	15/5181
2	4144	Websters Insulation Ltd	Crowtree Farm	Crowtree Bank	Thorne Levels	Doncaster	South Yorkshire	DN8 5TF	England	01405 812682			www.webstersinsulation.com	info@webstersinsulation.com		53.582000	-.920300	0	4766	97/3426
2	4172	South Coast Insulation Services Ltd	Unit E3, Fort Wallington Industrial Estate	Military Road		Fareham	Hampshire	PO16 8TT	England	01329 822845			www.scisltd.co.uk	john.hole@scisltd.co.uk		50.858200	-1.164900	0	10437	15/5181
2	4172	South Coast Insulation Services Ltd	Unit E3, Fort Wallington Industrial Estate	Military Road		Fareham	Hampshire	PO16 8TT	England	01329 822845			www.scisltd.co.uk	john.hole@scisltd.co.uk		50.858200	-1.164900	0	10646	15/5258
2	4172	South Coast Insulation Services Ltd	Unit E3, Fort Wallington Industrial Estate	Military Road		Fareham	Hampshire	PO16 8TT	England	01329 822845			www.scisltd.co.uk	marc.jones@scisltd.co.uk		50.858200	-1.164900	0	10437	15/5181
2	4172	South Coast Insulation Services Ltd	Unit E3, Fort Wallington Industrial Estate	Military Road		Fareham	Hampshire	PO16 8TT	England	01329 822845			www.scisltd.co.uk	marc.jones@scisltd.co.uk		50.858200	-1.164900	0	10646	15/5258
2	4178	Badger Insulation	31 Cattell Drive			Sutton Coldfield	West Midlands	B75 7LQ	England	01213 111160			www.badger-insulation.com	sales@badger-insulation.com		52.562400	-1.785800	0	3576	89/2294
2	4187	E.ON Energy Installation Services Ltd	Floor 3	Greenwood House	Westwood Business Park	Coventry	West Midlands	CV4 8TT	England	08000 546250			www.eon-uk.com/chn	ciara.taberner@eonenergy.com		52.499100	-2.160100	0	1128	08/4611
2	4187	E.ON Energy Installation Services Ltd	Floor 3	Greenwood House	Westwood Business Park	Coventry	West Midlands	CV4 8TT	England	08000 546250			www.eon-uk.com/chn	ciara.taberner@eonenergy.com		52.499100	-2.160100	0	3308	88/2033
2	4187	E.ON Energy Installation Services Ltd	Floor 3	Greenwood House	Westwood Business Park	Coventry	West Midlands	CV4 8TT	England	08000 546250			www.eon-uk.com/chn	ciara.taberner@eonenergy.com		52.499100	-2.160100	0	3598	89/2316
2	4187	E.ON Energy Installation Services Ltd	Floor 3	Greenwood House	Westwood Business Park	Coventry	West Midlands	CV4 8TT	England	08000 546250			www.eon-uk.com/chn	ciara.taberner@eonenergy.com		52.499100	-2.160100	0	4566	96/3228
2	4187	E.ON Energy Installation Services Ltd	Floor 3	Greenwood House	Westwood Business Park	Coventry	West Midlands	CV4 8TT	England	08000 546250			www.eon-uk.com/chn	ciara.taberner@eonenergy.com		52.499100	-2.160100	0	5586	11/4834
2	4187	E.ON Energy Installation Services Ltd	Floor 3	Greenwood House	Westwood Business Park	Coventry	West Midlands	CV4 8TT	England	08000 546250			www.eon-uk.com/chn	ciara.taberner@eonenergy.com		52.499100	-2.160100	0	10125	14/5086
2	4187	E.ON Energy Installation Services Ltd	Floor 3	Greenwood House	Westwood Business Park	Coventry	West Midlands	CV4 8TT	England	08000 546250			www.eon-uk.com/chn	ciara.taberner@eonenergy.com		52.499100	-2.160100	0	10402	14/5176
2	4187	E.ON Energy Installation Services Ltd	Floor 3	Greenwood House	Westwood Business Park	Coventry	West Midlands	CV4 8TT	England	08000 546250			www.eon-uk.com/chn	ciara.taberner@eonenergy.com		52.499100	-2.160100	0	10437	15/5181
2	4187	E.ON Energy Installation Services Ltd	Floor 3	Greenwood House	Westwood Business Park	Coventry	West Midlands	CV4 8TT	England	08000 546250			www.eon-uk.com/chn	oliver.moore@eoenergy.com 		52.499100	-2.160100	0	1128	08/4611
2	4187	E.ON Energy Installation Services Ltd	Floor 3	Greenwood House	Westwood Business Park	Coventry	West Midlands	CV4 8TT	England	08000 546250			www.eon-uk.com/chn	oliver.moore@eoenergy.com 		52.499100	-2.160100	0	3308	88/2033
2	4187	E.ON Energy Installation Services Ltd	Floor 3	Greenwood House	Westwood Business Park	Coventry	West Midlands	CV4 8TT	England	08000 546250			www.eon-uk.com/chn	oliver.moore@eoenergy.com 		52.499100	-2.160100	0	3598	89/2316
2	4187	E.ON Energy Installation Services Ltd	Floor 3	Greenwood House	Westwood Business Park	Coventry	West Midlands	CV4 8TT	England	08000 546250			www.eon-uk.com/chn	oliver.moore@eoenergy.com 		52.499100	-2.160100	0	4566	96/3228
2	4187	E.ON Energy Installation Services Ltd	Floor 3	Greenwood House	Westwood Business Park	Coventry	West Midlands	CV4 8TT	England	08000 546250			www.eon-uk.com/chn	oliver.moore@eoenergy.com 		52.499100	-2.160100	0	5586	11/4834
2	4187	E.ON Energy Installation Services Ltd	Floor 3	Greenwood House	Westwood Business Park	Coventry	West Midlands	CV4 8TT	England	08000 546250			www.eon-uk.com/chn	oliver.moore@eoenergy.com 		52.499100	-2.160100	0	10125	14/5086
2	4187	E.ON Energy Installation Services Ltd	Floor 3	Greenwood House	Westwood Business Park	Coventry	West Midlands	CV4 8TT	England	08000 546250			www.eon-uk.com/chn	oliver.moore@eoenergy.com 		52.499100	-2.160100	0	10402	14/5176
2	4187	E.ON Energy Installation Services Ltd	Floor 3	Greenwood House	Westwood Business Park	Coventry	West Midlands	CV4 8TT	England	08000 546250			www.eon-uk.com/chn	oliver.moore@eoenergy.com 		52.499100	-2.160100	0	10437	15/5181
2	4192	Ecowarm Energy Ltd	Unit 11 Challenge park	Challenge close		Coventry	West Midlands	CV1 5JG	England	01527 585187			www.ecowarminsulation.co.uk	info@ecowarmenergy.co.uk		52.447900	-1.752900	0	3576	89/2294
2	4192	Ecowarm Energy Ltd	Unit 11 Challenge park	Challenge close		Coventry	West Midlands	CV1 5JG	England	01527 585187			www.ecowarminsulation.co.uk	info@ecowarmenergy.co.uk		52.447900	-1.752900	0	5586	11/4834
2	4192	Ecowarm Energy Ltd	Unit 11 Challenge park	Challenge close		Coventry	West Midlands	CV1 5JG	England	01527 585187			www.ecowarminsulation.co.uk	info@ecowarmenergy.co.uk		52.447900	-1.752900	0	8916	13/4989
2	4192	Ecowarm Energy Ltd	Unit 11 Challenge park	Challenge close		Coventry	West Midlands	CV1 5JG	England	01527 585187			www.ecowarminsulation.co.uk	info@ecowarmenergy.co.uk		52.447900	-1.752900	0	10437	15/5181
2	4192	Ecowarm Energy Ltd	Unit 11 Challenge park	Challenge close		Coventry	West Midlands	CV1 5JG	England	01527 585187			www.ecowarminsulation.co.uk	info@ecowarminsulation.co.uk		52.447900	-1.752900	0	3576	89/2294
2	4192	Ecowarm Energy Ltd	Unit 11 Challenge park	Challenge close		Coventry	West Midlands	CV1 5JG	England	01527 585187			www.ecowarminsulation.co.uk	info@ecowarminsulation.co.uk		52.447900	-1.752900	0	5586	11/4834
2	4192	Ecowarm Energy Ltd	Unit 11 Challenge park	Challenge close		Coventry	West Midlands	CV1 5JG	England	01527 585187			www.ecowarminsulation.co.uk	info@ecowarminsulation.co.uk		52.447900	-1.752900	0	8916	13/4989
2	4192	Ecowarm Energy Ltd	Unit 11 Challenge park	Challenge close		Coventry	West Midlands	CV1 5JG	England	01527 585187			www.ecowarminsulation.co.uk	info@ecowarminsulation.co.uk		52.447900	-1.752900	0	10437	15/5181
2	4192	Ecowarm Energy Ltd	Unit 11 Challenge park	Challenge close		Coventry	West Midlands	CV1 5JG	England	08006 446889			www.ecowarminsulation.co.uk	info@ecowarmenergy.co.uk		52.447900	-1.752900	0	3576	89/2294
2	4192	Ecowarm Energy Ltd	Unit 11 Challenge park	Challenge close		Coventry	West Midlands	CV1 5JG	England	08006 446889			www.ecowarminsulation.co.uk	info@ecowarmenergy.co.uk		52.447900	-1.752900	0	5586	11/4834
2	4192	Ecowarm Energy Ltd	Unit 11 Challenge park	Challenge close		Coventry	West Midlands	CV1 5JG	England	08006 446889			www.ecowarminsulation.co.uk	info@ecowarmenergy.co.uk		52.447900	-1.752900	0	8916	13/4989
2	4192	Ecowarm Energy Ltd	Unit 11 Challenge park	Challenge close		Coventry	West Midlands	CV1 5JG	England	08006 446889			www.ecowarminsulation.co.uk	info@ecowarmenergy.co.uk		52.447900	-1.752900	0	10437	15/5181
2	4192	Ecowarm Energy Ltd	Unit 11 Challenge park	Challenge close		Coventry	West Midlands	CV1 5JG	England	08006 446889			www.ecowarminsulation.co.uk	info@ecowarminsulation.co.uk		52.447900	-1.752900	0	3576	89/2294
2	4192	Ecowarm Energy Ltd	Unit 11 Challenge park	Challenge close		Coventry	West Midlands	CV1 5JG	England	08006 446889			www.ecowarminsulation.co.uk	info@ecowarminsulation.co.uk		52.447900	-1.752900	0	5586	11/4834
2	4192	Ecowarm Energy Ltd	Unit 11 Challenge park	Challenge close		Coventry	West Midlands	CV1 5JG	England	08006 446889			www.ecowarminsulation.co.uk	info@ecowarminsulation.co.uk		52.447900	-1.752900	0	8916	13/4989
2	4192	Ecowarm Energy Ltd	Unit 11 Challenge park	Challenge close		Coventry	West Midlands	CV1 5JG	England	08006 446889			www.ecowarminsulation.co.uk	info@ecowarminsulation.co.uk		52.447900	-1.752900	0	10437	15/5181
2	4197	Shetland Heatwise	Stanley Hill Offices	North Road		Lerwick	Shetland	ZE1 0QW	Scotland	01595 696508			www.shetland-communities.org.uk/subsites/shwise/	shetlandheatwise@hotmail.com		60.162600	-1.162200	0	3308	88/2033
2	4198	Everwarm Group Ltd	3 Inchcorse Place	Whitehill Industrial Estate		Bathgate	West Lothian	EH48 2EE	Scotland	01506 638600			www.everwarmgroup.com	robert.srirling@everwarmgroup.com		55.880400	-3.625700	0		
2	4198	Everwarm Group Ltd	3 Inchcorse Place	Whitehill Industrial Estate		Bathgate	West Lothian	EH48 2EE	Scotland	01506 638600			www.everwarmgroup.com	scott.paton@everwarmgroup.com		55.880400	-3.625700	0		
2	4221	Isothane Ltd	Newhouse Road	Huncoat Business Park		Accrington	Lancashire	BB5 6NT	England	01254 872555				info@isothane.com		53.767100	-2.354800	0	4766	97/3426
2	4223	Energywise Scotland Ltd	Unit 8	Elphinstone Square	Dean Industrial Estate	Livingston	West Lothian	EH54 8RG	Scotland	01506 426918			www.energywisescotland.co.uk			55.899400	-3.582400	0	326	02/3938
2	4223	Energywise Scotland Ltd	Unit 8	Elphinstone Square	Dean Industrial Estate	Livingston	West Lothian	EH54 8RG	Scotland	01506 426918			www.energywisescotland.co.uk			55.899400	-3.582400	0	3308	88/2033
2	4234	Bartons of Duke Street Ltd	64-84 Duke Street			St Helens	Merseyside	WA10 2JW	England					insulation@bartons-heating.co.uk		53.455900	-2.741400	0	5586	11/4834
2	4234	Bartons of Duke Street Ltd	64-84 Duke Street			St Helens	Merseyside	WA10 2JW	England					insulation@bartons-heating.co.uk		53.455900	-2.741400	0	9929	13/5001
2	5337	Cornerstone (East Anglia) Ltd	Unit 5	Fuller Road		Harleston	Norfolk	IP20 9EA	England	01379 853613			www.cornerstonelimited.co.uk	enquiries@cornerstonelimited.co.uk		52.397300	1.304400	0	5586	11/4834
2	8415	Devana Insulation Ltd	34 Mill Road	Over		Cambridge	Cambridgeshire	CB24 5PY	England	01954 201834			www.devanainsulation.co.uk	stephen@devanainsulation.co.uk		52.311600	.022000	0		
2	8497	Miller Pattison Ltd	5 Park Square	Thorncliffe Park	Chapletown	Sheffield	South Yorkshire	S35 2PH	England	01144780111			www.millerpattison.co.uk	info@millerpattison.co.uk		53.472900	-1.475700	0	3308	88/2033
2	8497	Miller Pattison Ltd	5 Park Square	Thorncliffe Park	Chapletown	Sheffield	South Yorkshire	S35 2PH	England	01144780111			www.millerpattison.co.uk	info@millerpattison.co.uk		53.472900	-1.475700	0	5658	11/4857
2	8497	Miller Pattison Ltd	5 Park Square	Thorncliffe Park	Chapletown	Sheffield	South Yorkshire	S35 2PH	England	01144780111			www.millerpattison.co.uk	info@millerpattison.co.uk		53.472900	-1.475700	0	10125	14/5086
2	8497	Miller Pattison Ltd	5 Park Square	Thorncliffe Park	Chapletown	Sheffield	South Yorkshire	S35 2PH	England	01144780111			www.millerpattison.co.uk	info@millerpattison.co.uk		53.472900	-1.475700	0	10402	14/5176
2	8497	Miller Pattison Ltd	5 Park Square	Thorncliffe Park	Chapletown	Sheffield	South Yorkshire	S35 2PH	England	01144780111			www.millerpattison.co.uk	info@millerpattison.co.uk		53.472900	-1.475700	0	16183	18/5538
2	8513	Work Work Ltd	Suite 2	4th Floor	Alperton House	Wembley	Middlesex	HA0 1EH	England	02089 027290			www.workworkltd.com	bjha@workworkltd.com		51.539800	-.301700	0	10125	14/5086
2	8513	Work Work Ltd	Suite 2	4th Floor	Alperton House	Wembley	Middlesex	HA0 1EH	England	02089 027290			www.workworkltd.com	bjha@workworkltd.com		51.539800	-.301700	0	10646	15/5258
2	8610	Apex Green Ltd	Unit A-C, 11-17 Fowler Road	Hainault Business Park		lford	Essex	IG6 3UT	England	0800 505 3236			www.apexgreen.co.uk	info@apexgreen.co.uk		51.591700	-.036300	0	10643	15/5257
2	8614	Evergreen Insulation Services Ltd	Villa Farm	Alburgh Road	Hempnall	Norwich	Norfolk	NR15 2NP	England	01508 499258			www.evergreeninsulationservices.com	enquiries@evergreenltd.org		52.491500	1.311400	0	3576	89/2294
2	8667	Origin (UK) Energy Services	Unit 20	Sawley Park	Nottingham Road	Derby	Derbyshire	DE21 6AS	England	01332 293049			originenergyservices.co.uk	sanjida@originenergyservices.co.uk		52.924800	-1.453500	0	3576	89/2294
2	8667	Origin (UK) Energy Services	Unit 20	Sawley Park	Nottingham Road	Derby	Derbyshire	DE21 6AS	England	01332 293049			originenergyservices.co.uk	sanjida@originenergyservices.co.uk		52.924800	-1.453500	0	5586	11/4834
2	8667	Origin (UK) Energy Services	Unit 20	Sawley Park	Nottingham Road	Derby	Derbyshire	DE21 6AS	England	01332 293049			originenergyservices.co.uk	sanjida@originenergyservices.co.uk		52.924800	-1.453500	0	8916	13/4989
2	8667	Origin (UK) Energy Services	Unit 20	Sawley Park	Nottingham Road	Derby	Derbyshire	DE21 6AS	England	01332 293049			originenergyservices.co.uk	sanjida@originenergyservices.co.uk		52.924800	-1.453500	0	10437	15/5181
2	8667	Origin (UK) Energy Services	Unit 20	Sawley Park	Nottingham Road	Derby	Derbyshire	DE21 6AS	England	01332 293049			originenergyservices.co.uk	sanjida@originenergyservices.co.uk		52.924800	-1.453500	0	10643	15/5257
2	8688	Superglass Insulation Ltd	Thistle Industrial Estate	Kerse Road		Stirling	Stirlingshire	FK7 7QQ	Scotland	01786 451170			www.superglass.co.uk	Bill.Myszor@superglass.co.uk		56.110800	-3.924100	0		
2	8699	Network Energy Ltd	Suite 21 Trinity House	Heather Park Drive		Wembley	Middlesex	HA0 1SU	England	07949 636360			www.networkenergyltd.co.uk	harsher@networkenergyltd.co.uk		51.543000	-.281000	0	3576	89/2294
2	8699	Network Energy Ltd	Suite 21 Trinity House	Heather Park Drive		Wembley	Middlesex	HA0 1SU	England	07949 636360			www.networkenergyltd.co.uk	harsher@networkenergyltd.co.uk		51.543000	-.281000	0	5586	11/4834
2	8699	Network Energy Ltd	Suite 21 Trinity House	Heather Park Drive		Wembley	Middlesex	HA0 1SU	England	07949 636360			www.networkenergyltd.co.uk	harsher@networkenergyltd.co.uk		51.543000	-.281000	0	10125	14/5086
2	8699	Network Energy Ltd	Suite 21 Trinity House	Heather Park Drive		Wembley	Middlesex	HA0 1SU	England	07949 636360			www.networkenergyltd.co.uk	harsher@networkenergyltd.co.uk		51.543000	-.281000	0	10643	15/5257
2	8791	South West Insulation Solutions Ltd	Unit D	Victoria Square	Victoria	Roche	Cornwall 	PL26 8LQ	England	01726 212860			www.southwestinsulationsolutions.co.uk	info@swis-lapolla.com		50.419200	-4.830500	0	5586	11/4834
2	8791	South West Insulation Solutions Ltd	Unit D	Victoria Square	Victoria	Roche	Cornwall 	PL26 8LQ	England	01726 212860			www.southwestinsulationsolutions.co.uk	info@swis-lapolla.com		50.419200	-4.830500	0	10143	14/5095
2	8800	BASF Plc	Alfreton Trading Estate	Wimsey Way	Somercotes	Alfreton	Derbyshire	DE55 4NL	England							53.086100	-1.378300	0	9930	13/5002
2	8810	Ecogee Ltd	15 Muir Road	Brookfield Business Park		Liverpool	Merseyside	L9 7AR	England	01515 487635			www.ecogee.co.uk	brendan@ecogee.co.uk		53.463100	-2.905100	0	5586	11/4834
2	8810	Ecogee Ltd	15 Muir Road	Brookfield Business Park		Liverpool	Merseyside	L9 7AR	England	01515 487635			www.ecogee.co.uk	brendan@ecogee.co.uk		53.463100	-2.905100	0	9929	13/5001
2	8910	Greener Skies UK Ltd	Unit 51 Cannon Way	Claycliffe Road	Barugh Green	Barnsley	South Yorkshire	S75 1JU	England	08001 223119			www.greener-skies.co.uk	info@greener-skies.co.uk		53.568900	-1.525300	0	3576	89/2294
2	8920	Thermabead Ltd	Units 1 & 2 Shipston Close			Worcester	Worcestershire	WR4 9XN	England	01905 342308 			www.thermabead.co.uk	m.elsworth@thermabead.co.uk		52.216300	-2.194000	0	10437	15/5181
2	8957	GHE Solar ltd	21 Kingfisher Court	Hambridge Road		Newbury	Berkshire	RG14 5SJ	England	01635 529090			www.ghesolar.co.uk	matt@ghesolar.co.uk		51.401000	-1.301800	0	10643	15/5257
2	8987	Fibreglo Insulations Ltd	21a Glencryan Road	Carbrain Industrial Estate		Cumbernauld	Lanarkshire	G67 2UH	Scotland	07840 336704				billycopeland@btconnect.com		55.946000	-3.974900	0	10125	14/5086
2	9003	Slate Insulations Ltd	30 Vian Close			Gosport	Hampshire	PO13 0TX	England	08001 455988			www.slatecavitywallinsulations.co.uk	carl.slate@slateinsulations.co.uk		50.830600	-1.176000	0	3598	89/2316
2	9003	Slate Insulations Ltd	30 Vian Close			Gosport	Hampshire	PO13 0TX	England	08001 455988			www.slatecavitywallinsulations.co.uk	carl.slate@slateinsulations.co.uk		50.830600	-1.176000	0	5586	11/4834
2	9016	Shelter 4 Green Deal Ltd	Unit 30	B & S  Business Centre	505 - 507 Saffron Lane	Leicester	Leicestershire	LE2 6JW	England	02071 129030			www.shelter4greendeal.co.uk	admin@shelter4greendeal.co.uk		51.897500	-.523800	0	10643	15/5257
2	9016	Shelter 4 Green Deal Ltd	Unit 30	B & S  Business Centre	505 - 507 Saffron Lane	Leicester	Leicestershire	LE2 6JW	England	02071 129030			www.shelter4greendeal.co.uk	i.desilva@shelter4greendeal.co.uk		51.897500	-.523800	0	10643	15/5257
2	9096	Sustain Energy (UK) Ltd	Unit 4	Octagon Business Centre		Birmingham	West Midlands	B6 4NF	England	08006 122049			www.sustainenergy.org.uk	info@sustainenergy.org.uk		52.493500	-1.890700	0	3576	89/2294
2	9096	Sustain Energy (UK) Ltd	Unit 4	Octagon Business Centre		Birmingham	West Midlands	B6 4NF	England	08006 122049			www.sustainenergy.org.uk	info@sustainenergy.org.uk		52.493500	-1.890700	0	8916	13/4989
2	9096	Sustain Energy (UK) Ltd	Unit 4	Octagon Business Centre		Birmingham	West Midlands	B6 4NF	England	08006 122049			www.sustainenergy.org.uk	info@sustainenergy.org.uk		52.493500	-1.890700	0	9929	13/5001
2	9096	Sustain Energy (UK) Ltd	Unit 4	Octagon Business Centre		Birmingham	West Midlands	B6 4NF	England	08006 122049			www.sustainenergy.org.uk	info@sustainenergy.org.uk		52.493500	-1.890700	0	10437	15/5181
2	9100	Absolute Solar Ltd	Unit 20-21 Wanstead Park	Wanstead Road	Braunstone	Leicester	Leicestershire	LE3 1TR	England	01162 313980			www.absolutesolar.co.uk			52.632100	-1.212000	0	3576	89/2294
2	9100	Absolute Solar Ltd	Unit 20-21 Wanstead Park	Wanstead Road	Braunstone	Leicester	Leicestershire	LE3 1TR	England	01162 313980			www.absolutesolar.co.uk			52.632100	-1.212000	0	5586	11/4834
2	9100	Absolute Solar Ltd	Unit 20-21 Wanstead Park	Wanstead Road	Braunstone	Leicester	Leicestershire	LE3 1TR	England	01162 313980			www.absolutesolar.co.uk			52.632100	-1.212000	0	10388	14/5175
2	9100	Absolute Solar Ltd	Unit 20-21 Wanstead Park	Wanstead Road	Braunstone	Leicester	Leicestershire	LE3 1TR	England	01162 313980			www.absolutesolar.co.uk			52.632100	-1.212000	0	10616	15/5244
2	9100	Absolute Solar Ltd	Unit 20-21 Wanstead Park	Wanstead Road	Braunstone	Leicester	Leicestershire	LE3 1TR	England	01162 313980			www.absolutesolar.co.uk			52.632100	-1.212000	0	10744	16/5303
2	9112	JB Energy Savers Ltd	Units 1-2	Heworth Way	Pelaw Industrial Estate	Gateshead	Tyne and Wear	NE10 0UW	England							54.926000	-1.608700	0	600	04/4167
2	9112	JB Energy Savers Ltd	Units 1-2	Heworth Way	Pelaw Industrial Estate	Gateshead	Tyne and Wear	NE10 0UW	England							54.926000	-1.608700	0	10629	15/5249
2	9112	JB Energy Savers Ltd	Units 1-2	Heworth Way	Pelaw Industrial Estate	Gateshead	Tyne and Wear	NE10 0UW	England							54.926000	-1.608700	0	10697	15/5281
2	9150	Cooney Insulations Ltd/CavExtract UK Ltd	Cooney Insulations Ltd	5 Peel Street	Failsworth	Manchester	Greater Manchester	M35 0UF	England	07886 348308			www.cooneyinsulations.com	enquiries@cooneyinsulation.com		53.504500	-2.173900	0	3598	89/2316
2	9150	Cooney Insulations Ltd/CavExtract UK Ltd	Cooney Insulations Ltd	5 Peel Street	Failsworth	Manchester	Greater Manchester	M35 0UF	England	07886 348308			www.cooneyinsulations.com	enquiries@cooneyinsulation.com		53.504500	-2.173900	0	10643	15/5257
2	9150	Cooney Insulations Ltd/CavExtract UK Ltd	Cooney Insulations Ltd	5 Peel Street	Failsworth	Manchester	Greater Manchester	M35 0UF	England	07886 348308			www.cooneyinsulations.com	enquiries@cooneyinsulations.com		53.504500	-2.173900	0	3598	89/2316
2	9150	Cooney Insulations Ltd/CavExtract UK Ltd	Cooney Insulations Ltd	5 Peel Street	Failsworth	Manchester	Greater Manchester	M35 0UF	England	07886 348308			www.cooneyinsulations.com	enquiries@cooneyinsulations.com		53.504500	-2.173900	0	10643	15/5257
2	9159	Shropshire Green Energy Centre LTD	Shropshire House	Cemertery Road	Dawley Bank	Telford	Shropshire	TF4 2BS	England	01952 505506						52.674300	-2.468200	0	3576	89/2294
2	9159	Shropshire Green Energy Centre LTD	Shropshire House	Cemertery Road	Dawley Bank	Telford	Shropshire	TF4 2BS	England	01952 505506						52.674300	-2.468200	0	4476	95/3149
2	9159	Shropshire Green Energy Centre LTD	Shropshire House	Cemertery Road	Dawley Bank	Telford	Shropshire	TF4 2BS	England	01952 505506						52.674300	-2.468200	0	10646	15/5258
2	9168	Evolve Home Energy Solutions	Wyastone Business Park	Wyastone		Leys	Monmouthshire	NP25 3SR	England	01600 887551				g.randle@evolvehes.co.uk		51.838300	-2.682100	0	10437	15/5181
2	9168	Evolve Home Energy Solutions	Wyastone Business Park	Wyastone		Leys	Monmouthshire	NP25 3SR	England	01600 887551				g.randle@evolvehes.co.uk		51.838300	-2.682100	0	10646	15/5258
2	9168	Evolve Home Energy Solutions	Wyastone Business Park	Wyastone		Leys	Monmouthshire	NP25 3SR	England	01600 887551				j.white@evolvehes.co.uk		51.838300	-2.682100	0	10437	15/5181
2	9168	Evolve Home Energy Solutions	Wyastone Business Park	Wyastone		Leys	Monmouthshire	NP25 3SR	England	01600 887551				j.white@evolvehes.co.uk		51.838300	-2.682100	0	10646	15/5258
2	9170	Union Technical Services Ltd	Unit 14	Block 8	Thornliebank Ind Estate	Glasgow	Lanarkshire	G46 8JH	Scotland	08000 469190				owencoyle@uniontechnical.co.uk		55.827800	-4.286200	0		
2	9178	Brooks Energy Services Ltd	Unit 1c	Roberts Road	Balby	Doncaster	South Yorkshire	DN4 0JT	England	01302 835650				markbrooks123@talktalk.net				0	3598	89/2316
2	9178	Brooks Energy Services Ltd	Unit 1c	Roberts Road	Balby	Doncaster	South Yorkshire	DN4 0JT	England	01302 835650				markbrooks123@talktalk.net				0	10616	15/5244
2	9179	BillsaveUK Limited	Boston House	107 Boston Road		Leicester	Leicestershire	LE4 1AW	England	01162 366523				John.Bacon@billsaveuk.com		53.797200	-1.546800	0	600	04/4167
2	9179	BillsaveUK Limited	Boston House	107 Boston Road		Leicester	Leicestershire	LE4 1AW	England	01162 366523				John.Bacon@billsaveuk.com		53.797200	-1.546800	0	3308	88/2033
2	9179	BillsaveUK Limited	Boston House	107 Boston Road		Leicester	Leicestershire	LE4 1AW	England	01162 366523				John.Bacon@billsaveuk.com		53.797200	-1.546800	0	5658	11/4857
2	9179	BillsaveUK Limited	Boston House	107 Boston Road		Leicester	Leicestershire	LE4 1AW	England	01162 366523				John.Bacon@billsaveuk.com		53.797200	-1.546800	0	6880	13/4969
2	9179	BillsaveUK Limited	Boston House	107 Boston Road		Leicester	Leicestershire	LE4 1AW	England	01162 366523				John.Bacon@billsaveuk.com		53.797200	-1.546800	0	10125	14/5086
2	9179	BillsaveUK Limited	Boston House	107 Boston Road		Leicester	Leicestershire	LE4 1AW	England	01162 366523				John.Bacon@billsaveuk.com		53.797200	-1.546800	0	10437	15/5181
2	9182	Max Energy Limited	1	Boston Road	Gorse Hill	Leicester	Leicestershire	LE4 1AA	England					dave.green@maxenergy.direct		52.664600	-1.174300	0	600	04/4167
2	9182	Max Energy Limited	1	Boston Road	Gorse Hill	Leicester	Leicestershire	LE4 1AA	England					dave.green@maxenergy.direct		52.664600	-1.174300	0	3308	88/2033
2	9182	Max Energy Limited	1	Boston Road	Gorse Hill	Leicester	Leicestershire	LE4 1AA	England					dave.green@maxenergy.direct		52.664600	-1.174300	0	5658	11/4857
2	9182	Max Energy Limited	1	Boston Road	Gorse Hill	Leicester	Leicestershire	LE4 1AA	England					dave.green@maxenergy.direct		52.664600	-1.174300	0	10437	15/5181
2	9185	A & M Energy Solutions Ltd	4 Devonshire Court	Leycroft Road		Leicester	Leicestershire	LE4 1ET	England	01744 887531			www.am-energy.com			52.669000	-1.157800	0	3308	88/2033
2	9185	A & M Energy Solutions Ltd	4 Devonshire Court	Leycroft Road		Leicester	Leicestershire	LE4 1ET	England	01744 887531			www.am-energy.com			52.669000	-1.157800	0	5658	11/4857
2	9187	Baxter Kelly Ltd	Unit 19	Reflex Business Park	Park Road	Willenhall	West Midlands	WV13 1AH	England	01902 601499 			http://www.baxterkelly.co.uk	joekelly@baxterkelly.co.uk		52.796500	-2.117400	0	3576	89/2294
2	9187	Baxter Kelly Ltd	Unit 19	Reflex Business Park	Park Road	Willenhall	West Midlands	WV13 1AH	England	01902 601499 			http://www.baxterkelly.co.uk	joekelly@baxterkelly.co.uk		52.796500	-2.117400	0	5586	11/4834
2	9187	Baxter Kelly Ltd	Unit 19	Reflex Business Park	Park Road	Willenhall	West Midlands	WV13 1AH	England	01902 601499 			http://www.baxterkelly.co.uk	joekelly@baxterkelly.co.uk		52.796500	-2.117400	0	9929	13/5001
2	9192	Avonside Energy Services	Unit Y2B	Blaby Industrial Park	Winchester Avenue, Blaby	Leicester	Leicestershire	LE8 4GZ	England	0116 402 6150			www.avonsidegroupservices.co.uk	chris.loines@avonsidegroup.co.uk		52.578100	-1.168800	0	5658	11/4857
2	9192	Avonside Energy Services	Unit Y2B	Blaby Industrial Park	Winchester Avenue, Blaby	Leicester	Leicestershire	LE8 4GZ	England	0116 402 6150			www.avonsidegroupservices.co.uk	chris.loines@avonsidegroup.co.uk		52.578100	-1.168800	0	10125	14/5086
2	9192	Avonside Energy Services	Unit Y2B	Blaby Industrial Park	Winchester Avenue, Blaby	Leicester	Leicestershire	LE8 4GZ	England	0116 402 6150			www.avonsidegroupservices.co.uk	chris.loines@avonsidegroup.co.uk		52.578100	-1.168800	0	10616	15/5244
2	9194	H+S Insulation Ltd	Unit 8	Oban Court	Hurricane Way	Wickford	Essex	SS11 8YB	England	01268 562468				rob@handsinsulation.co.uk		51.600700	.546400	0	600	04/4167
2	9194	H+S Insulation Ltd	Unit 8	Oban Court	Hurricane Way	Wickford	Essex	SS11 8YB	England	01268 562468				rob@handsinsulation.co.uk		51.600700	.546400	0	5658	11/4857
2	9196	Low Carbon Exchange Ltd	Unit 10	King Place		Willand	Devon	EX15 3FA	England	02031 111362			www.lowcarbonexchange.com	mark.reed@lowcarbonexchange.com		50.861700	-3.379600	0	10437	15/5181
2	9197	Extract North East	3a chipchase court	Seaham grange industrial estate	Seaham	County Durham	Tyne and Wear	SR7 0PP	England	0191 5214333			www.extract-north-east.co.uk			54.926000	-1.608700	0	10437	15/5181
2	9203	A & M Energy Solutions Ltd	Unit 2 Phoenix Court			Garforth	West Yorkshire	LS25 2GY	England	01744 886111			www.am-energy.com			53.799800	-1.374700	0	3308	88/2033
2	9205	Orion Energy Solutions Ltd	5 Grange Business Park	Fulbourn		Cambridge	Cambridgeshire	CB21 5HR	England	01223 500000						52.168700	.212300	0	3576	89/2294
2	9205	Orion Energy Solutions Ltd	5 Grange Business Park	Fulbourn		Cambridge	Cambridgeshire	CB21 5HR	England	01223 500000						52.168700	.212300	0	4566	96/3228
2	9205	Orion Energy Solutions Ltd	5 Grange Business Park	Fulbourn		Cambridge	Cambridgeshire	CB21 5HR	England	01223 500000						52.168700	.212300	0	10125	14/5086
2	9214	Mersey Eco Grants Ltd 	Cotton Court	Church Street		Preston	Lancashire	PR1 3BY	England	08455 980256				vicki@merseyecogrant.co.uk				0	10125	14/5086
2	9215	Osborne Energy Ltd	Suit 2, Hanover House	Marine Court		St Leonards-on-Sea	East Sussex	TN38 0DX	England	01424 436793			www.osborneenergy.co.uk					0	3576	89/2294
2	9219	Broadoak Properties Ltd	Broad Oak Lane	Green Head	Kingsley Moor	Stoke on Trent	Staffordshire	ST10 2EL	England	01782 550371			www.broadoakproperties.com					0	10437	15/5181
2	9225	Thames Valley Insulation Ltd	Albion House	Albion Close		Slough	Berkshire	SL2 5DT	England	01753 315225				info@thamesvalleyinsulation.co.uk				0	3576	89/2294
2	9225	Thames Valley Insulation Ltd	Albion House	Albion Close		Slough	Berkshire	SL2 5DT	England	01753 315225				info@thamesvalleyinsulation.co.uk				0	5586	11/4834
2	9225	Thames Valley Insulation Ltd	Albion House	Albion Close		Slough	Berkshire	SL2 5DT	England	01753 315225				info@thamesvalleyinsulation.co.uk				0	8916	13/4989
2	9225	Thames Valley Insulation Ltd	Albion House	Albion Close		Slough	Berkshire	SL2 5DT	England	07944 481437				info@thamesvalleyinsulation.co.uk				0	3576	89/2294
2	9225	Thames Valley Insulation Ltd	Albion House	Albion Close		Slough	Berkshire	SL2 5DT	England	07944 481437				info@thamesvalleyinsulation.co.uk				0	5586	11/4834
2	9225	Thames Valley Insulation Ltd	Albion House	Albion Close		Slough	Berkshire	SL2 5DT	England	07944 481437				info@thamesvalleyinsulation.co.uk				0	8916	13/4989
2	9226	Enviro-Therm Insulation Ltd	Unit 7 Braintree Enterprise Centre	46 - 48 Springwood Drive		Braintree	Essex	CM7 2YN	England					tom@enviro-therm.co.uk				0	5586	11/4834
2	9226	Enviro-Therm Insulation Ltd	Unit 7 Braintree Enterprise Centre	46 - 48 Springwood Drive		Braintree	Essex	CM7 2YN	England					tom@enviro-therm.co.uk				0	10437	15/5181
2	9226	Enviro-Therm Insulation Ltd	Unit 7 Braintree Enterprise Centre	46 - 48 Springwood Drive		Braintree	Essex	CM7 2YN	England					tom@enviro-therm.co.uk				0	10616	15/5244
2	9230	Smart Energy Insulation NW Ltd 	134 Money Matters	Liverpool Road		Widnes	Merseyside	WA8 7JP	England	07706 576834								0		
2	9232	Thermal Homes Ltd 	Meadow Self Storage			Manchester	Greater Manchester	M35 0JJ	England				www.thermalhomes.co.uk	waseem@thermalhomes.co.uk				0		
2	9236	Skilled Force Limited	9 Ashwood	Ringley Meadows	Stoneclough	Radcliffe	Greater Manchester	M26 1GR	England	07974 241502				steve@skilledforceltd.co.uk				0	5586	11/4834
2	9236	Skilled Force Limited	9 Ashwood	Ringley Meadows	Stoneclough	Radcliffe	Greater Manchester	M26 1GR	England	07974 241502				steve@skilledforceltd.co.uk				0	8916	13/4989
2	9236	Skilled Force Limited	9 Ashwood	Ringley Meadows	Stoneclough	Radcliffe	Greater Manchester	M26 1GR	England	07974 241502				steve@skilledforceltd.co.uk				0	9929	13/5001
2	9244	Manchester Independent Surveying Agency 	Unit OA14	Safestore Reddish		Stockport	Greater Manchester	SK5 7BW	England	01616 671401 			www.eco2u.co.uk					0		
2	9250	D K Hughes Plumbing & Heating Ltd	12 Castleton Avenue	Stretford		Manchester	Greater Manchester	M32 9RR	England	01617468000				dean@dkhughes.co.uk				0		
2	9253	DCI Trading Limited 	14A Kilroot Business Park			Carrickfergus	Co Antrim	BT38 7PR	England	02893 368005			www.dcienergy.com					0		
2	9255	Green Energy Savings Ltd	Unit 11, Hud Hey Industrial Estate	Hud Hey Road	Haslingden	Rossendale	Lancashire	BB4 5JH	England	07955 595858 				paul@ges.org.uk				0		
2	9257	A & M Energy Solutions Ltd	Unit 2	Grafton Place	Dukes Park Industrial Estate	Chelmsford	Essex	CM2 6TG	England	01744 887531			www.am-energy.com					0	3308	88/2033
2	9258	MariGold Insulation UK Ltd	15a Station Road			Harrow	London	HA1 2UF	England	02030 062573				marigoldinsulation@gmail.com				0	3576	89/2294
2	9258	MariGold Insulation UK Ltd	15a Station Road			Harrow	London	HA1 2UF	England	02030 062573				marigoldinsulation@gmail.com				0	8916	13/4989
2	9260	Pacifica Home Services Limited	Venter House	Rainton Bridge Business Park		Houghton Le Spring	County Durham	DH4 7TZ	England	07590 356347			www.0800repairgas.co.uk	brian.ireland@0800repair.com				0	5586	11/4834
2	9263	WHNE Energy Solutions LTD	Axis Building	Main Gate	Kingsway North	Newcastle Upon Tyne	Tyne and Wear	NE11 0NQ	England									0	8916	13/4989
2	9263	WHNE Energy Solutions LTD	Axis Building	Main Gate	Kingsway North	Newcastle Upon Tyne	Tyne and Wear	NE11 0NQ	England									0	10437	15/5181
2	9264	Green County Ltd	76 High Road	Ilford		Essex	Essex	IG1 1DL	England	07494 368800				info@greencounty.co.uk				0		
2	9272	Infinity Property Management Ltd	Unit 15 Groundfloor	Wharfside	Rosemont Road	Wembley	Middlesex	HA0 4PE	England	02036384030								0	8916	13/4989
2	9272	Infinity Property Management Ltd	Unit 15 Groundfloor	Wharfside	Rosemont Road	Wembley	Middlesex	HA0 4PE	England	02036384030								0	10437	15/5181
2	9276	UK ENERGY SAVINGS EXPERTS LTD	334 Ranglet Road			Preston	Lancashire	PR5 8AR	England	07732 584475 			www.ukenergysavingexperts.com	deano@ukenergysavingexperts.com				0		
2	9283	Orbital Energy Ltd	54 - 56 Ormskirk Street			St Helens	Merseyside	WA10 2TF	England				orbitalenergy.co.uk	compliance@orbitalenergy.co.uk				0	6880	13/4969
2	9283	Orbital Energy Ltd	54 - 56 Ormskirk Street			St Helens	Merseyside	WA10 2TF	England				orbitalenergy.co.uk	compliance@orbitalenergy.co.uk				0	10643	15/5257
2	9284	Staywarm Energy (North) Limited	Suite 1 Prospect Business Centre	Grangefield Industrial Estate	Richardshaw Road	Pudsey	Yorkshire 	LS28 6LF	England	07540 781293			staywarm.com	info@staywarmenergy.com				0	4766	97/3426
2	9284	Staywarm Energy (North) Limited	Suite 1 Prospect Business Centre	Grangefield Industrial Estate	Richardshaw Road	Pudsey	Yorkshire 	LS28 6LF	England	08001 383869  			staywarm.com	info@staywarmenergy.com				0	4766	97/3426
2	9287	Golden Globe Merchant LTD	160 London Road			Barking	London	IG11 8BB	England	07817 231733 			www.goldenglobeltd.com					0	10643	15/5257
2	9288	Advanced ECO LTD	The old Granary	Weather Cock Hill	Bury	st.edmunds	Suffolk	PE29 5RG	England	08006 891564 			www.advancedecoltd.com	ben@advancedecoltd.com				0		
2	9290	Kershaw Mechanical Services Limited	Edward Leonard House	Pembroke Avenue		Waterbeach	Cambridgeshire	CB25 9QR	England				www.kershawmechincal.co.uk					0	3598	89/2316
2	9292	Berks Insulation Limited 	Albion House	Albion Close		Slough	Berkshire	SL2 5DT	England	01753 315225				info@berksinsulation.com				0		
2	9297	Property Insulation & Validation Services Limited	Wayside	Kidderminster Road		Bewdley	Worcestershire	DY12 1LN	England	01384 422022				insulate@itsltd.org				0	10616	15/5244
2	9299	Commercial Improvements Limited	71 Crossbow Road			Chigwell	London	IG7 4EY	England	079461 10602 				insulation@improvemental.co.uk				0	10643	15/5257
3	953	Hamilton Building Contractors Ltd	Unit 56 Commerce Way	Challenge Way		Bradford	West Yorkshire	BD4 8NW	England	01274 666166			www.hamiltonfirst.co.uk	dchapman@hamiltonfirst.co.uk		53.782800	-1.716600	0		
3	1157	Rockwarm Insulation Ltd	4 Trident Business Park	Holman Way		Nuneaton	Warwickshire	CV11 4PN	England	02476 345554			www.rockwarm.co.uk	info@rockwarm.co.uk		52.516500	-1.457600	0		
3	1188	CTS Projects Ltd	Milltown East Industrial Estate	Upper Dromore Road		Warrenpoint	County Down	BT34 3PN	Northern Ireland				www.ctsprojects.net	Judith.findlater@ctsprojects.net		54.112900	-6.261200	0		
3	1188	CTS Projects Ltd	Milltown East Industrial Estate	Upper Dromore Road		Warrenpoint	County Down	BT34 3PN	Northern Ireland				www.ctsprojects.net	sales@ctsprojects.net		54.112900	-6.261200	0		
3	1243	Dyson Energy Services	Dyson House	Armytage Road		Brighouse	West Yorkshire	HD6 1PT	England	01484 406086			www.dysoninsulations.co.uk	marc.cohen@dysonenergyservices.co.uk		53.699800	-1.770600	0		
3	1249	InstaGroup Ltd	Insta House	Ivanhoe Road	Hogwood Business Park	Wokingham	Berkshire	RG40 4PZ	England	01189 328811			www.instagroup-homes.co.uk	clementine.littlejohn@instagroup.co.uk		51.375000	-.891400	0		
3	1249	InstaGroup Ltd	Insta House	Ivanhoe Road	Hogwood Business Park	Wokingham	Berkshire	RG40 4PZ	England	01189 328811			www.instagroup-homes.co.uk	mark.montgomery@instagroup.co.uk		51.375000	-.891400	0		
3	1257	Cosyhome Insulation Ltd	Insulation House	St Mary's Bridge	Town End	Doncaster	South Yorkshire	DN5 9AG	England	01302 325256			www.cosyhome.com	insulate@cosyhome.com		53.529200	-1.144700	0		
3	1378	Polypearl Ltd	Unit 20, Churchill Park	Colwick Industrial Estate		Nottingham	Nottinghamshire	NG4 2HF	England	01159 875787			www.polypearl.co.uk	andrew@polypearl.co.uk		52.956400	-1.082900	0		
3	1491	PC Dynes (Insulations)	34 Creenagh Road			Dungannon	Co Tyrone	BT71 6HB	Northern Ireland	02887 740145			www.pcdynesinsulations.co.uk	pcdynesins@hotmail.com		54.523800	-6.700800	0		
3	3062	The Warmer Group Ltd	12 Haviland Road		Ferndown Industrial Estate	Wimborne	Dorset	BH21 7RG	England	01202 897273			www.caringforourworld.co.uk	d.godfrey@thewarmergroup.co.uk		50.810700	-1.914700	0		
3	3220	Panda Insulation Ltd	Palace Lane Cottage	Palace Lane	Beaulieu	Southampton	Hampshire	SO42 7YG	England	02380 292285			www.pandainsulation.co.uk	insulationpanda@yahoo.co.uk		50.899800	-1.514600	0		
3	3287	Heat Insulation Ltd	Crowle House	Crowle Street		Hull	East Yorkshire	HU9 1RH	England	01482 588591			www.heat-insulation.co.uk	andy@heat-insulation.co.uk		53.749400	-.305400	0		
3	3287	Heat Insulation Ltd	Crowle House	Crowle Street		Hull	East Yorkshire	HU9 1RH	England	01482 588591			www.heat-insulation.co.uk	ricky@heat-insulation.co.uk		53.749400	-.305400	0		
3	3320	CavityTech Systems Ltd	The Old Calf Sheds	Wilbees Farm		Arlington	East Sussex	BN26 6RU	England	01323 483377			www.cavitytech.co.uk	info@cavitytech.co.uk		50.842400	.199000	0		
3	3409	Interglow Contracts Ltd 	Shepreth Road	Fowlmere		Royston	Hertfordshire	SG8 7TQ	England	01763 208563			www.interglow.co.uk	mwebb@interglow.co.uk		52.099200	.066700	0		
3	3409	Interglow Contracts Ltd 	Shepreth Road	Fowlmere		Royston	Hertfordshire	SG8 7TQ	England	01763 208563			www.interglow.co.uk	swebb@interglow.co.uk		52.099200	.066700	0		
3	3714	Aran Services Ltd	Units 1-6	The Old Station	Lower Green	Bury St Edmunds	Suffolk	IP28 6NL	England	01284 812520			www.aranservices.co.uk			52.265800	.558900	0		
3	4009	1st Choice Insulations	Units 5-6	Frans Green Industrial Estatee	Sandy Lane	Dereham	Norfolk	NR20 3JG	England	01603 880999			www.insulationsnorfolk.co.uk	marion@1stchoiceinsulations.co.uk		52.682500	1.097400	0		
3	4016	EnergyCare Group Ltd	12 Kenneth Way	Wilstead Industrial Park		Wilstead	Bedfordshire	MK45 3PD	England	01234 381007			www.energycareukltd.co.uk			52.056600	-.386500	0		
3	4035	Dyson Energy Services	Unit 1b Glover Industrial Estate	Spire Road	Washington	Newcastle	Northumberland	NE37 3ES	England	01914 165969			www.dysoninsulations.co.uk	marc.cohen@dysonenergyservices.co.uk		52.494500	-2.018600	0		
3	4051	Warm Front Ltd	Unit 1	Kingston Mill	Manchester Road	Hyde	Cheshire	SK14 2BZ	England	01613 209255			www.warmfrontltd.com	andreww@warmfrontltd.com		53.470000	-2.102700	0		
3	4051	Warm Front Ltd	Unit 1	Kingston Mill	Manchester Road	Hyde	Cheshire	SK14 2BZ	England	01613 209255			www.warmfrontltd.com	andrewwebb@warmfrontltd.com		53.470000	-2.102700	0		
3	4058	Saving Energy Ltd	Unit 19	Oban Court		Wickford	Essex	SS11 8YB	England	08009 549689			www.savingenergyuk.co.uk	info@savingenergyuk.co.uk		51.600700	.546400	0		
3	4077	Gabriel Insulation Services Ltd	Unit 10B Solent Trade Park	Solent Road		Havant	Hampshire	PO9 1JH	England	01730 260566			www.gabrielinsulation.co.uk	loftman2@yahoo.com		50.845500	-.992800	0		
3	4079	Polybead Insulation UK Ltd T/A Ecologic Energy	Unit 7, Sovereign Business Centre	Stockingsfield Lane		Enfield	Middlesex	EN3 7JX	England	02088 048151			www.ecologic-energy.co.uk	enquiries@ecologic-energy.co.uk		51.654900	-.026600	0		
3	4081	NorthWest Insulations Ltd	Unit 2	New Cheshire Business Park	Wincham Lane	Northwich	Cheshire	CW9 6GG	England	01606 41217			www.northwestinsulationsltd.co.uk	T.Lawlor@northwestinsulations.co.uk		53.275300	-2.484100	0		
3	4088	Titan Insulations Ltd	Unit G, Chantry Industrial Estate	Chantry Lane		Storrington	West Sussex	RH20 4AD	England	01903 740339			www.titaninsulation.co.uk	suzanne@titaninsulation.co.uk; justin@titaninsulation.co.uk		50.911900	-.448600	0		
3	4089	Alba Insulations Ltd	21 Central City Industrial Estate	Red Lane		Coventry	West Midlands	CV6 5RY	England	02476 581553			www.albainsulation.com	info@albainsulations.com		52.419000	-1.489500	0		
3	4133	Logical Insulation Solutions Ltd	Wood Street			Grangemouth	Stirlingshire	FK3 8LH	Scotland	01324 477090			www.logicalinsulations.co.uk	enquiries@logicalinsulations.co.uk		56.011200	-3.733500	0		
3	4133	Logical Insulation Solutions Ltd	Wood Street			Grangemouth	Stirlingshire	FK3 8LH	Scotland	01324 477090			www.logicalinsulations.co.uk	info@logicalinsulations.co.uk		56.011200	-3.733500	0		
3	4141	Dyson Energy Services	Unit 24, Saddleback Road	Westgate Industrial Estate		Northampton	Northamptonshire	NN5 5HL	England	01604 685050			www.dysoninsulations.co.uk			52.242000	-.933500	0		
3	4172	South Coast Insulation Services Ltd	Unit E3, Fort Wallington Industrial Estate	Military Road		Fareham	Hampshire	PO16 8TT	England	01329 822845			www.scisltd.co.uk	john.hole@scisltd.co.uk		50.858200	-1.164900	0		
3	4172	South Coast Insulation Services Ltd	Unit E3, Fort Wallington Industrial Estate	Military Road		Fareham	Hampshire	PO16 8TT	England	01329 822845			www.scisltd.co.uk	marc.jones@scisltd.co.uk		50.858200	-1.164900	0		
3	4187	E.ON Energy Installation Services Ltd	Floor 3	Greenwood House	Westwood Business Park	Coventry	West Midlands	CV4 8TT	England	08000 546250			www.eon-uk.com/chn	ciara.taberner@eonenergy.com		52.499100	-2.160100	0		
3	4187	E.ON Energy Installation Services Ltd	Floor 3	Greenwood House	Westwood Business Park	Coventry	West Midlands	CV4 8TT	England	08000 546250			www.eon-uk.com/chn	oliver.moore@eoenergy.com 		52.499100	-2.160100	0		
3	4192	Ecowarm Energy Ltd	Unit 11 Challenge park	Challenge close		Coventry	West Midlands	CV1 5JG	England	01527 585187			www.ecowarminsulation.co.uk	info@ecowarmenergy.co.uk		52.447900	-1.752900	0		
3	4192	Ecowarm Energy Ltd	Unit 11 Challenge park	Challenge close		Coventry	West Midlands	CV1 5JG	England	01527 585187			www.ecowarminsulation.co.uk	info@ecowarminsulation.co.uk		52.447900	-1.752900	0		
3	4192	Ecowarm Energy Ltd	Unit 11 Challenge park	Challenge close		Coventry	West Midlands	CV1 5JG	England	08006 446889			www.ecowarminsulation.co.uk	info@ecowarmenergy.co.uk		52.447900	-1.752900	0		
3	4192	Ecowarm Energy Ltd	Unit 11 Challenge park	Challenge close		Coventry	West Midlands	CV1 5JG	England	08006 446889			www.ecowarminsulation.co.uk	info@ecowarminsulation.co.uk		52.447900	-1.752900	0		
3	4197	Shetland Heatwise	Stanley Hill Offices	North Road		Lerwick	Shetland	ZE1 0QW	Scotland	01595 696508			www.shetland-communities.org.uk/subsites/shwise/	shetlandheatwise@hotmail.com		60.162600	-1.162200	0		
3	4198	Everwarm Group Ltd	3 Inchcorse Place	Whitehill Industrial Estate		Bathgate	West Lothian	EH48 2EE	Scotland	01506 638600			www.everwarmgroup.com	robert.srirling@everwarmgroup.com		55.880400	-3.625700	0		
3	4198	Everwarm Group Ltd	3 Inchcorse Place	Whitehill Industrial Estate		Bathgate	West Lothian	EH48 2EE	Scotland	01506 638600			www.everwarmgroup.com	scott.paton@everwarmgroup.com		55.880400	-3.625700	0		
3	4223	Energywise Scotland Ltd	Unit 8	Elphinstone Square	Dean Industrial Estate	Livingston	West Lothian	EH54 8RG	Scotland	01506 426918			www.energywisescotland.co.uk			55.899400	-3.582400	0		
3	4238	FSG Property Services Ltd	Unit 4b, Avant Business Centre	First Avenue	Denbigh West	Milton Keynes	Bedfordshire	MK1 1DL	England	01908 639371			www.fsgpropertyservices.co.uk	sales@fsgps.co.uk		52.003800	-.734100	0		
3	4250	Pioneer Wall Cladding & Building Insulation Ltd	10 Oak Lodge Close	Hersham		Walton on Thames	Surrey	KT12 5JQ	England	01932 221209			www.pioneerinsulation.co.uk	office@pioneerinsulation.co.uk		51.365900	-.403600	0		
3	5279	Westdale Services Ltd	Doncaster Road		Askern	Doncaster	South Yorkshire	DN6 9JD	England	01302 700700			www.westdaleservices.co.uk	coleen@westdaleservices.co.uk		53.600900	-1.159100	0		
3	5337	Cornerstone (East Anglia) Ltd	Unit 5	Fuller Road		Harleston	Norfolk	IP20 9EA	England	01379 853613			www.cornerstonelimited.co.uk	enquiries@cornerstonelimited.co.uk		52.397300	1.304400	0		
3	8497	Miller Pattison Ltd	5 Park Square	Thorncliffe Park	Chapletown	Sheffield	South Yorkshire	S35 2PH	England	01144780111			www.millerpattison.co.uk	info@millerpattison.co.uk		53.472900	-1.475700	0		
3	8515	Ailsa Building Contractors Ltd	251 Dundyvan Road			Coatbridge	Lanarkshire	ML5 4AU	Scotland	01236 422615			www.ailsabuilders.co.uk	george@ailsabuilders.co.uk		55.853900	-4.021500	0		
3	8610	Apex Green Ltd	Unit A-C, 11-17 Fowler Road	Hainault Business Park		lford	Essex	IG6 3UT	England	0800 505 3236			www.apexgreen.co.uk	info@apexgreen.co.uk		51.591700	-.036300	0		
3	8667	Origin (UK) Energy Services	Unit 20	Sawley Park	Nottingham Road	Derby	Derbyshire	DE21 6AS	England	01332 293049			originenergyservices.co.uk	sanjida@originenergyservices.co.uk		52.924800	-1.453500	0		
3	8699	Network Energy Ltd	Suite 21 Trinity House	Heather Park Drive		Wembley	Middlesex	HA0 1SU	England	07949 636360			www.networkenergyltd.co.uk	harsher@networkenergyltd.co.uk		51.543000	-.281000	0		
3	8700	Tighean Innse Gall	13-15 Francis Street			Stornoway	Isle Of Lewis	HS1 2NB	Scotland	01851 706121			www.tigheaninnsegall.org	info@tighean.co.uk  		58.208400	-6.389100	0		
3	8721	Jefferies Contractors Ltd	Unit 5A	Cambrian Industrial Estate	Coed Cae Lane	Pontyclun	Mid Glamorgan	CF72 9EW	Wales	01443 858710			www.jefferiesltd.co.uk	dean.broughton@jefferiesltd.co.uk		51.527900	-3.399400	0		
3	8721	Jefferies Contractors Ltd	Unit 5A	Cambrian Industrial Estate	Coed Cae Lane	Pontyclun	Mid Glamorgan	CF72 9EW	Wales	01443 858710			www.jefferiesltd.co.uk	enquiries@jefferiesltd.co.uk		51.527900	-3.399400	0		
3	8778	Insulated Render Systems (Scotland) Ltd	74 Glencraig Street			Airdrie	Lanarkshire	ML6 9AS	Scotland	01236 754500				irsscotland.richie@gmail.com		55.861300	-3.997400	0		
3	8810	Ecogee Ltd	15 Muir Road	Brookfield Business Park		Liverpool	Merseyside	L9 7AR	England	01515 487635			www.ecogee.co.uk	brendan@ecogee.co.uk		53.463100	-2.905100	0		
3	8910	Greener Skies UK Ltd	Unit 51 Cannon Way	Claycliffe Road	Barugh Green	Barnsley	South Yorkshire	S75 1JU	England	08001 223119			www.greener-skies.co.uk	info@greener-skies.co.uk		53.568900	-1.525300	0		
3	8920	Thermabead Ltd	Units 1 & 2 Shipston Close			Worcester	Worcestershire	WR4 9XN	England	01905 342308 			www.thermabead.co.uk	m.elsworth@thermabead.co.uk		52.216300	-2.194000	0		
3	8981	RJM Insulation Limited	Suite 209 Uxbridge House	464-466 Uxbridge Rd		Hayes	Middlesex	UB4 0SD	England	02087 561329			www.rjmenergy.co.uk	ruwantha@rjmenergy.co.uk		51.536400	-.314900	0		
3	8981	RJM Insulation Limited	Suite 209 Uxbridge House	464-466 Uxbridge Rd		Hayes	Middlesex	UB4 0SD	England	07413 562928			www.rjmenergy.co.uk	ruwantha@rjmenergy.co.uk		51.536400	-.314900	0		
3	8987	Fibreglo Insulations Ltd	21a Glencryan Road	Carbrain Industrial Estate		Cumbernauld	Lanarkshire	G67 2UH	Scotland	07840 336704				billycopeland@btconnect.com		55.946000	-3.974900	0		
3	9003	Slate Insulations Ltd	30 Vian Close			Gosport	Hampshire	PO13 0TX	England	08001 455988			www.slatecavitywallinsulations.co.uk	carl.slate@slateinsulations.co.uk		50.830600	-1.176000	0		
3	9016	Shelter 4 Green Deal Ltd	Unit 30	B & S  Business Centre	505 - 507 Saffron Lane	Leicester	Leicestershire	LE2 6JW	England	02071 129030			www.shelter4greendeal.co.uk	admin@shelter4greendeal.co.uk		51.897500	-.523800	0		
3	9016	Shelter 4 Green Deal Ltd	Unit 30	B & S  Business Centre	505 - 507 Saffron Lane	Leicester	Leicestershire	LE2 6JW	England	02071 129030			www.shelter4greendeal.co.uk	i.desilva@shelter4greendeal.co.uk		51.897500	-.523800	0		
3	9039	Mario Insulation Ltd	2 Rushbury Close			Bilston	West Midlands	WV14 0UH	England	07831 551117			www.marioinsulation.com	mil.fasades@gmail.com		52.562400	-2.090800	0		
3	9100	Absolute Solar Ltd	Unit 20-21 Wanstead Park	Wanstead Road	Braunstone	Leicester	Leicestershire	LE3 1TR	England	01162 313980			www.absolutesolar.co.uk			52.632100	-1.212000	0		
3	9103	Insulation Solutions Scotland Ltd	Unit 7	Eastfield Farm Road Industrial Estate		Peniculk	Midlothian	EH26 8EZ	Scotland	01968 678870				gmdonaldson@hotmail.com		55.836600	-3.217400	0		
3	9112	JB Energy Savers Ltd	Units 1-2	Heworth Way	Pelaw Industrial Estate	Gateshead	Tyne and Wear	NE10 0UW	England							54.926000	-1.608700	0		
3	9117	RB Allan + Sons ltd	Unit 4 Roman Ridge Industrial Estate			Sheffield	South Yorkshire	S9 1GB	England	01142 402529			www.rballan.co.uk	enquiries@rballan.com		53.444300	-1.456100	0		
3	9150	Cooney Insulations Ltd/CavExtract UK Ltd	Cooney Insulations Ltd	5 Peel Street	Failsworth	Manchester	Greater Manchester	M35 0UF	England	07886 348308			www.cooneyinsulations.com	enquiries@cooneyinsulation.com		53.504500	-2.173900	0		
3	9150	Cooney Insulations Ltd/CavExtract UK Ltd	Cooney Insulations Ltd	5 Peel Street	Failsworth	Manchester	Greater Manchester	M35 0UF	England	07886 348308			www.cooneyinsulations.com	enquiries@cooneyinsulations.com		53.504500	-2.173900	0		
3	9159	Shropshire Green Energy Centre LTD	Shropshire House	Cemertery Road	Dawley Bank	Telford	Shropshire	TF4 2BS	England	01952 505506						52.674300	-2.468200	0		
3	9170	Union Technical Services Ltd	Unit 14	Block 8	Thornliebank Ind Estate	Glasgow	Lanarkshire	G46 8JH	Scotland	08000 469190				owencoyle@uniontechnical.co.uk		55.827800	-4.286200	0		
3	9182	Max Energy Limited	1	Boston Road	Gorse Hill	Leicester	Leicestershire	LE4 1AA	England					dave.green@maxenergy.direct		52.664600	-1.174300	0		
3	9187	Baxter Kelly Ltd	Unit 19	Reflex Business Park	Park Road	Willenhall	West Midlands	WV13 1AH	England	01902 601499 			http://www.baxterkelly.co.uk	joekelly@baxterkelly.co.uk		52.796500	-2.117400	0		
3	9204	G&M Supply & Maintenance Limited	148	Ivymead		Londonderry	Londonderry	BT47 3WX	England					gmsupply@hotmail.com		54.976200	-7.290400	0		
3	9205	Orion Energy Solutions Ltd	5 Grange Business Park	Fulbourn		Cambridge	Cambridgeshire	CB21 5HR	England	01223 500000						52.168700	.212300	0		
3	9258	MariGold Insulation UK Ltd	15a Station Road			Harrow	London	HA1 2UF	England	02030 062573				marigoldinsulation@gmail.com				0		
3	9288	Advanced ECO LTD	The old Granary	Weather Cock Hill	Bury	st.edmunds	Suffolk	PE29 5RG	England	08006 891564 			www.advancedecoltd.com	ben@advancedecoltd.com				0		
3	9289	KLN Insulation Services Limited	8 Stockwith Close			Middlesbrough	North Yorkshire	TS3 0RG	England	01642 271272			www.klninsulation.co.uk					0		
3	9299	Commercial Improvements Limited	71 Crossbow Road			Chigwell	London	IG7 4EY	England	079461 10602 				insulation@improvemental.co.uk				0		
4	3513	Colas	Wallage Lane	Rowfant		Crawley	West Sussex	RH10 4NF	England	01342 711000				john.richardson@colas.co.uk		51.114900	-.108000	0	4899	98/H001
4	3524	Markon	Antonine House	6-10 Dunnswood Road	Wardpark South	Cumbernauld	City of Glasgow	G67 3EN	Scotland	01236 875134			www.markon.co.uk	enquiries@markon.co.uk		55.969700	-3.958100	0	137	00/H043
4	3524	Markon	Antonine House	6-10 Dunnswood Road	Wardpark South	Cumbernauld	City of Glasgow	G67 3EN	Scotland	01236 875134			www.markon.co.uk	enquiries@markon.co.uk		55.969700	-3.958100	0	626	04/H088
4	3570	L & R Roadlines Ltd	Albert House	6 Cloister Way		Ellesmere Port	Cheshire	CH65 4EL	England	01519 336293			www.lrroadlines.co.uk	info@lrroadlines.co.uk		53.279500	-2.880700	0	626	04/H088
4	3570	L & R Roadlines Ltd	Albert House	6 Cloister Way		Ellesmere Port	Cheshire	CH65 4EL	England	01519 336293			www.lrroadlines.co.uk	info@lrroadlines.co.uk		53.279500	-2.880700	0	10140	14/H212
4	3570	L & R Roadlines Ltd	Albert House	6 Cloister Way		Ellesmere Port	Cheshire	CH65 4EL	England	01519 336293			www.lrroadlines.co.uk	info@lrroadlines.co.uk		53.279500	-2.880700	0	11900	16/H256
4	3590	Trustseal Ltd	10 Southfield Lane Industrial Estate	Southfield Lane	Whitwell	Worksop	Nottinghamshire	S80 3LH	England	01909 722662			www.trustseal.co.uk	info@trustseal.co.uk		53.276614	-1.201454	0	133	00/H039
4	3590	Trustseal Ltd	10 Southfield Lane Industrial Estate	Southfield Lane	Whitwell	Worksop	Nottinghamshire	S80 3LH	England	01909 722662			www.trustseal.co.uk	info@trustseal.co.uk		53.276614	-1.201454	0	252	01/H058
4	3590	Trustseal Ltd	10 Southfield Lane Industrial Estate	Southfield Lane	Whitwell	Worksop	Nottinghamshire	S80 3LH	England	01909 722662			www.trustseal.co.uk	info@trustseal.co.uk		53.276614	-1.201454	0	628	04/H090
4	3649	Quality Marking Services Ltd	3 Fairfax Road	Heathfield Industrial Estate		Newton Abbot	Devon	TQ12 6UD	England	01626 836777			www.qmarkings.co.uk	info@qmarkings.co.uk		50.574600	-3.658000	0	10565	15/H233
4	3674	Neighbourhood Services	Durham County Council	St Johns Road	Meadowfield	Durham	County Durham	DH7 8XQ	England				www.durham.gov.uk	keith.cowton@durham.gov.uk		54.749800	-1.611000	0	5677	11/H177
4	3674	Neighbourhood Services	Durham County Council	St Johns Road	Meadowfield	Durham	County Durham	DH7 8XQ	England				www.durham.gov.uk	keith.cowton@durham.gov.uk		54.749800	-1.611000	0	6869	12/H196
4	3711	Jointline Ltd	Spartan Road	Low Moor		Bradford	West Yorkshire	BD12 0RY	England	01274 736504			www.jointline-group.co.uk	gareth@jointline-group.co.uk		53.748000	-1.763900	0	626	04/H088
4	3711	Jointline Ltd	Spartan Road	Low Moor		Bradford	West Yorkshire	BD12 0RY	England	01274 736504			www.jointline-group.co.uk	gareth@jointline-group.co.uk		53.748000	-1.763900	0	10140	14/H212
4	3735	Wilson & Scott (Highways) Ltd	Colindale Road	Poyle Industrial Estate	Colnbrook	Slough	Berkshire	SL3 0HQ	England	01753 671600			www.wilsonandscott.co.uk	sales@wilsonandscott.co.uk		51.476600	-.514900	0	137	00/H043
4	3735	Wilson & Scott (Highways) Ltd	Colindale Road	Poyle Industrial Estate	Colnbrook	Slough	Berkshire	SL3 0HQ	England	01753 671600			www.wilsonandscott.co.uk	sales@wilsonandscott.co.uk		51.476600	-.514900	0	628	04/H090
4	3735	Wilson & Scott (Highways) Ltd	Colindale Road	Poyle Industrial Estate	Colnbrook	Slough	Berkshire	SL3 0HQ	England	01753 671600			www.wilsonandscott.co.uk	sales@wilsonandscott.co.uk		51.476600	-.514900	0	769	05/H115
4	3736	Glendining Highways Ltd	Patch Park Farm	Ongar Road	Abridge	Romford	Essex	RM4 1AA	England	01708 688616			www.glendininghighways.com	p.glendining@glendininghighways.com		51.651600	.144500	0	137	00/H043
4	3736	Glendining Highways Ltd	Patch Park Farm	Ongar Road	Abridge	Romford	Essex	RM4 1AA	England	01708 688616			www.glendininghighways.com	p.glendining@glendininghighways.com		51.651600	.144500	0	626	04/H088
4	3736	Glendining Highways Ltd	Patch Park Farm	Ongar Road	Abridge	Romford	Essex	RM4 1AA	England	01708 688616			www.glendininghighways.com	p.glendining@glendininghighways.com		51.651600	.144500	0	769	05/H115
4	3736	Glendining Highways Ltd	Patch Park Farm	Ongar Road	Abridge	Romford	Essex	RM4 1AA	England	01708 688616			www.glendininghighways.com	p.glendining@glendininghighways.com		51.651600	.144500	0	4899	98/H001
4	3736	Glendining Highways Ltd	Patch Park Farm	Ongar Road	Abridge	Romford	Essex	RM4 1AA	England	01708 688616			www.glendininghighways.com	p.glendining@glendininghighways.com		51.651600	.144500	0	11900	16/H256
4	3748	Northstone (NI) Ltd	Materials Division	50 Craigadoo Road	 Moorfields	Ballymena	Co Antrim	BT42 4RB	Northern Ireland	02825 898151			www.northstone-ni.com	lkelly@northstone-ni.com		54.837800	-6.180500	0	137	00/H043
4	3748	Northstone (NI) Ltd	Materials Division	50 Craigadoo Road	 Moorfields	Ballymena	Co Antrim	BT42 4RB	Northern Ireland	02825 898151			www.northstone-ni.com	lkelly@northstone-ni.com		54.837800	-6.180500	0	626	04/H088
4	3751	Glamorgan White Lining Ltd	Seawall Road	Tremorfa		Cardiff	Glamorgan	CF24 5TH	Wales	02920 487888			www.glamorganwhitelining.co.uk	john@glamorganwhitelining.co.uk		51.481600	-3.140300	0	137	00/H043
4	3751	Glamorgan White Lining Ltd	Seawall Road	Tremorfa		Cardiff	Glamorgan	CF24 5TH	Wales	02920 487888			www.glamorganwhitelining.co.uk	john@glamorganwhitelining.co.uk		51.481600	-3.140300	0	626	04/H088
4	3754	Kelly Bros (Road Markings) Ltd	13-15 Station Road	Yate		Bristol	City of Bristol County	BS37 5HT	England	01454 312675			www.kelly-bros.com	brendan@kelly-bros.com		51.541600	-2.431000	0	129	00/H035
4	3754	Kelly Bros (Road Markings) Ltd	13-15 Station Road	Yate		Bristol	City of Bristol County	BS37 5HT	England	01454 312675			www.kelly-bros.com	brendan@kelly-bros.com		51.541600	-2.431000	0	252	01/H058
4	3754	Kelly Bros (Road Markings) Ltd	13-15 Station Road	Yate		Bristol	City of Bristol County	BS37 5HT	England	01454 312675			www.kelly-bros.com	brendan@kelly-bros.com		51.541600	-2.431000	0	626	04/H088
4	3754	Kelly Bros (Road Markings) Ltd	13-15 Station Road	Yate		Bristol	City of Bristol County	BS37 5HT	England	01454 312675			www.kelly-bros.com	brendan@kelly-bros.com		51.541600	-2.431000	0	628	04/H090
4	3758	Whitemountain Quarries Ltd	11 Sheepwalk Road			Lisburn	Co Antrim	BT28 3RD	Northern Ireland	02870 352131			www.whitemountain.co.uk	liam.cunningham@whitemountain.co.uk		54.548400	-6.087100	0	626	04/H088
4	5000	Shannon Roadmarkings Ltd	9A Groganstown			Dunmurry	Co Antrim	BT17 0NR	Northern Ireland	02890 629937				sean@shannonroadmarkings.com		54.563100	-6.054800	0	5839	12/H193
4	5001	Central Traffic Management Ltd	101 Bandeath Industrial Estate		Throsk	Stirling	Stirlingshire	FK7 7NP	Scotland	01786 812465			www.centraltm.com	enquiries@ctm-group.co.uk		56.103100	-3.846100	0	626	04/H088
4	5003	Hi Way Services Ltd	Unit 32 Thomas Way	3a Lakesviews	International Business Park	Canterbury	Kent	CT3 4JZ	England	01227 714380			www.hi-way.co.uk	admin@hi-way.co.uk		51.316100	1.173700	0	626	04/H088
4	5003	Hi Way Services Ltd	Unit 32 Thomas Way	3a Lakesviews	International Business Park	Canterbury	Kent	CT3 4JZ	England	01227 714380			www.hi-way.co.uk	admin@hi-way.co.uk		51.316100	1.173700	0	628	04/H090
4	5003	Hi Way Services Ltd	Unit 32 Thomas Way	3a Lakesviews	International Business Park	Canterbury	Kent	CT3 4JZ	England	01227 714380			www.hi-way.co.uk	admin@hi-way.co.uk		51.316100	1.173700	0	10140	14/H212
4	5004	Nolan Roadmarking Ltd	2 Cae Brombil	Margam		Port Talbot	Neath Port Talbot	SA13 2AJ	Wales	01639 887862				nolanroadmarking@btconnect.com		51.574000	-3.752300	0	137	00/H043
4	5006	Roadmark Ltd	The White House Garage	Main Road	Minsterworth	Gloucester	Gloucestershire	GL2 8JX	England	01452 750795				nick@roadmark.co.uk		51.837700	-2.357200	0	137	00/H043
4	5010	Roadtechs Europe Ltd	Units 1 & 2 Bridge Connection	Ferry Lane		Rainham	Essex	RM13 9YH	England	01708 863390			www.roadtechs.net	info@roadtechs.net		51.508700	.179900	0	640	04/H102
4	5010	Roadtechs Europe Ltd	Units 1 & 2 Bridge Connection	Ferry Lane		Rainham	Essex	RM13 9YH	England	01708 863390			www.roadtechs.net	info@roadtechs.net		51.508700	.179900	0	5355	10/H158
4	5010	Roadtechs Europe Ltd	Units 1 & 2 Bridge Connection	Ferry Lane		Rainham	Essex	RM13 9YH	England	01708 863390			www.roadtechs.net	info@roadtechs.net		51.508700	.179900	0	10565	15/H233
4	5011	SAS Lining Services Ltd	 9 Queensbury Way	Swanland		Hull	East Yorkshire	HU14 3QE	England	01482 633860						53.738800	-.495200	0	626	04/H088
4	5012	Tim Doody	Park Road			Haithwhistle	Northumberland	NE49 9LD	England	01434 320660				 gwen@timdoody.co.uk		54.968900	-2.466000	0	626	04/H088
4	5013	Riggott & Co Ltd	Unit X	Lodge Lane Industrial Estate	Tuxford	Newark	Nottinghamshire	NG22 0NL	England	01777 872525			www.riggott.co.uk	darren@riggott.co.uk		53.226100	-.883100	0	137	00/H043
4	5015	John A Bates (Contractors) Ltd	Chance House	Sandwell Business Park	Crystal Drive	Smethwick	West Midlands	B66 1RD	England	01215 583823			www.jabates.co.uk	pdgreen@jabates.co.uk		52.503800	-1.993300	0	626	04/H088
4	5018	Bellstan Ltd	19 Grovelands Road	Spencers Wood		Reading	Berkshire	RG7 1DP	England	01189 888078			www.bellstan.co.uk	julian@bellstan.co.uk; gary@bellstan.co.uk		51.395400	-.966000	0	626	04/H088
4	5020	HMS Decorative Surfacing Ltd	Unit 1 Evergreen Field Farm	Pincet Lane		North Kilworth	Leicestershire	LE17 6NE	England	01858 881111				sales@hmslimited.co.uk		52.455300	-1.090600	0	129	00/H035
4	5020	HMS Decorative Surfacing Ltd	Unit 1 Evergreen Field Farm	Pincet Lane		North Kilworth	Leicestershire	LE17 6NE	England	01858 881111				sales@hmslimited.co.uk		52.455300	-1.090600	0	626	04/H088
4	5021	FM Conway Ltd	Vestry Road			Sevenoaks	Kent	TN14 5EL	England	02086 368822			www.fmconway.co.uk			51.442000	.177000	0	769	05/H115
4	5022	WJ South West Limited	Tremayne House	Westpark	Chelston	Wellington	Somerset	TA21 9AD	England	01823 289950			www.wjroadmarkings.com	Catherine.Caple@wj.uk; andy.smith@wj.uk		50.980800	-3.207600	0	626	04/H088
4	5022	WJ South West Limited	Tremayne House	Westpark	Chelston	Wellington	Somerset	TA21 9AD	England	01823 289950			www.wjroadmarkings.com	Catherine.Caple@wj.uk; andy.smith@wj.uk		50.980800	-3.207600	0	628	04/H090
4	5024	Roman Road Systems Ltd	Unit 3 Eckington Business Park	Rotherside Road	Eckington	Sheffield	South Yorkshire	S21 4HL	England	07817 385623			www.romanroadsystems.com	paul@romanroadsystems.com		53.313000	-1.344400	0	137	00/H043
4	5024	Roman Road Systems Ltd	Unit 3 Eckington Business Park	Rotherside Road	Eckington	Sheffield	South Yorkshire	S21 4HL	England	07817 385623			www.romanroadsystems.com	paul@romanroadsystems.com		53.313000	-1.344400	0	769	05/H115
4	5027	Phoenix Specialist Solutions Ltd	Block 9A, Unit C	South Avenue	Blantyre Industrial Estate	Blantyre	City of Glasgow	G72 0XB	Scotland	01236 737600				dclark@phoenixs.co.uk; SCumming@phoenixss.co.uk		55.781803	-4.088565	0	5355	10/H158
4	8578	Roadsafe Corporate Group	Railsafe House	Whiteley Road		Blaydon on Tyne	Northumberland	NE21 5NJ	England				www.rscg.co.uk			54.967500	-1.703600	0	137	00/H043
4	8944	LMS Highways Ltd	Unit 4 International House	Battle Road	Heathfield	Newton Abbot	Devon	TQ12 6RY	England							50.571500	-3.655000	0	628	04/H090
4	8976	Premier Road Markings Ltd	Unit 10C	Tudhoe Industrial Estate		Tudhoe	County Durham	DL16 6TL	England				www.premier-roadmarkings.co.uk			54.716200	-1.585600	0	137	00/H043
4	8976	Premier Road Markings Ltd	Unit 10C	Tudhoe Industrial Estate		Tudhoe	County Durham	DL16 6TL	England				www.premier-roadmarkings.co.uk			54.716200	-1.585600	0	5839	12/H193
4	9113	WJ North Ltd	Unit 2	Ainleys Industrial Estate	Ainley Bottom	Elland	West Yorkshire	HX5 9JP	England				www.wjroadmarkings.com			53.679100	-1.832500	0	137	00/H043
4	9113	WJ North Ltd	Unit 2	Ainleys Industrial Estate	Ainley Bottom	Elland	West Yorkshire	HX5 9JP	England				www.wjroadmarkings.com			53.679100	-1.832500	0	626	04/H088
4	9113	WJ North Ltd	Unit 2	Ainleys Industrial Estate	Ainley Bottom	Elland	West Yorkshire	HX5 9JP	England				www.wjroadmarkings.com			53.679100	-1.832500	0	628	04/H090
4	9114	WJ South Limited	Brook Farm	Drayton Road	Newton Longville	Milton Keynes	Buckinghamshire	MK17 0BH	England				www.wj.uk			51.971200	-.768800	0	626	04/H088
4	9114	WJ South Limited	Brook Farm	Drayton Road	Newton Longville	Milton Keynes	Buckinghamshire	MK17 0BH	England				www.wj.uk			51.971200	-.768800	0	628	04/H090
4	9114	WJ South Limited	Brook Farm	Drayton Road	Newton Longville	Milton Keynes	Buckinghamshire	MK17 0BH	England				www.wj.uk			51.971200	-.768800	0	769	05/H115
4	9114	WJ South Limited	Brook Farm	Drayton Road	Newton Longville	Milton Keynes	Buckinghamshire	MK17 0BH	England				www.wj.uk			51.971200	-.768800	0	10565	15/H233
4	9114	WJ South Limited	Brook Farm	Drayton Road	Newton Longville	Milton Keynes	Buckinghamshire	MK17 0BH	England				www.wj.uk			51.971200	-.768800	0	11900	16/H256
4	9135	Gordon Graham Roadmarkings Ltd	The Garage	Gilsland		Brampton	Cumbria	CA8 7BT	England				www.ggrm.co.uk			54.991100	-2.575900	0	5839	12/H193
4	9175	Rhodes & Sons Construction Ltd	Unit D, Drury Lane	Chadderton		Oldham	Lancashire	OL9 8EU	England				www.rhodesandsons.co.uk	david.rhodes@rhodesandsons.co.uk		53.524900	-2.146900	0	137	00/H043
4	9240	A1 Streamline Roadmarkings Ltd	Unit 7, Thompson Road	Whitehills Business Park	Whitehills	Blackpool	Lancashire	FY4 5LW	England				N/A					0	137	00/H043
4	9247	WJ North (Scotland)	Unit 1	Vikings Works	Brownsburn in Estate	Airdrie	Lanarkshire	ML6 9SE	Scotland				www.wj.uk					0	626	04/H088
4	9268	EC Surfacing Ltd	Europa Way			Brigg	Yorkshire 	DN20 8UN	England				WWW.ECSURFACING.CO.UK					0	369	02/H066
4	9294	Northumberland County Council	Northumberland County Council Highways	Tyne Mills Depot	Tyne Mills Ind. Estate	Hexham	Northumberland	NE46 1XL	England				www.northumberland.gov.uk					0	628	04/H090
4	9302	Mainline Road Marking	Unit 5 Moor Park Industrial Estate	Orton Place		Glasgow	Lanarkshire	G51 2HF	England				www.mainlineroadmarking.co.uk					0	5839	12/H193
6	1157	Rockwarm Insulation Ltd	4 Trident Business Park	Holman Way		Nuneaton	Warwickshire	CV11 4PN	England	02476 345554			www.rockwarm.co.uk	info@rockwarm.co.uk		52.516500	-1.457600	0		
6	4079	Polybead Insulation UK Ltd T/A Ecologic Energy	Unit 7, Sovereign Business Centre	Stockingsfield Lane		Enfield	Middlesex	EN3 7JX	England	02088 048151			www.ecologic-energy.co.uk	enquiries@ecologic-energy.co.uk		51.654900	-.026600	0		
6	4197	Shetland Heatwise	Stanley Hill Offices	North Road		Lerwick	Shetland	ZE1 0QW	Scotland	01595 696508			www.shetland-communities.org.uk/subsites/shwise/	shetlandheatwise@hotmail.com		60.162600	-1.162200	0		
6	4198	Everwarm Group Ltd	3 Inchcorse Place	Whitehill Industrial Estate		Bathgate	West Lothian	EH48 2EE	Scotland	01506 638600			www.everwarmgroup.com	robert.srirling@everwarmgroup.com		55.880400	-3.625700	0		
6	4198	Everwarm Group Ltd	3 Inchcorse Place	Whitehill Industrial Estate		Bathgate	West Lothian	EH48 2EE	Scotland	01506 638600			www.everwarmgroup.com	scott.paton@everwarmgroup.com		55.880400	-3.625700	0		
6	5337	Cornerstone (East Anglia) Ltd	Unit 5	Fuller Road		Harleston	Norfolk	IP20 9EA	England	01379 853613			www.cornerstonelimited.co.uk	enquiries@cornerstonelimited.co.uk		52.397300	1.304400	0		
6	8497	Miller Pattison Ltd	5 Park Square	Thorncliffe Park	Chapletown	Sheffield	South Yorkshire	S35 2PH	England	01144780111			www.millerpattison.co.uk	info@millerpattison.co.uk		53.472900	-1.475700	0		
6	8700	Tighean Innse Gall	13-15 Francis Street			Stornoway	Isle Of Lewis	HS1 2NB	Scotland	01851 706121			www.tigheaninnsegall.org	info@tighean.co.uk  		58.208400	-6.389100	0		
6	8981	RJM Insulation Limited	Suite 209 Uxbridge House	464-466 Uxbridge Rd		Hayes	Middlesex	UB4 0SD	England	02087 561329			www.rjmenergy.co.uk	ruwantha@rjmenergy.co.uk		51.536400	-.314900	0		
6	8981	RJM Insulation Limited	Suite 209 Uxbridge House	464-466 Uxbridge Rd		Hayes	Middlesex	UB4 0SD	England	07413 562928			www.rjmenergy.co.uk	ruwantha@rjmenergy.co.uk		51.536400	-.314900	0		
6	9170	Union Technical Services Ltd	Unit 14	Block 8	Thornliebank Ind Estate	Glasgow	Lanarkshire	G46 8JH	Scotland	08000 469190				owencoyle@uniontechnical.co.uk		55.827800	-4.286200	0		
6	9258	MariGold Insulation UK Ltd	15a Station Road			Harrow	London	HA1 2UF	England	02030 062573				marigoldinsulation@gmail.com				0		
7	953	Hamilton Building Contractors Ltd	Unit 56 Commerce Way	Challenge Way		Bradford	West Yorkshire	BD4 8NW	England	01274 666166			www.hamiltonfirst.co.uk	dchapman@hamiltonfirst.co.uk		53.782800	-1.716600	0		
7	1249	InstaGroup Ltd	Insta House	Ivanhoe Road	Hogwood Business Park	Wokingham	Berkshire	RG40 4PZ	England	01189 328811			www.instagroup-homes.co.uk	clementine.littlejohn@instagroup.co.uk		51.375000	-.891400	0		
7	1249	InstaGroup Ltd	Insta House	Ivanhoe Road	Hogwood Business Park	Wokingham	Berkshire	RG40 4PZ	England	01189 328811			www.instagroup-homes.co.uk	mark.montgomery@instagroup.co.uk		51.375000	-.891400	0		
7	3287	Heat Insulation Ltd	Crowle House	Crowle Street		Hull	East Yorkshire	HU9 1RH	England	01482 588591			www.heat-insulation.co.uk	andy@heat-insulation.co.uk		53.749400	-.305400	0		
7	3287	Heat Insulation Ltd	Crowle House	Crowle Street		Hull	East Yorkshire	HU9 1RH	England	01482 588591			www.heat-insulation.co.uk	ricky@heat-insulation.co.uk		53.749400	-.305400	0		
7	3714	Aran Services Ltd	Units 1-6	The Old Station	Lower Green	Bury St Edmunds	Suffolk	IP28 6NL	England	01284 812520			www.aranservices.co.uk			52.265800	.558900	0		
7	4035	Dyson Energy Services	Unit 1b Glover Industrial Estate	Spire Road	Washington	Newcastle	Northumberland	NE37 3ES	England	01914 165969			www.dysoninsulations.co.uk	marc.cohen@dysonenergyservices.co.uk		52.494500	-2.018600	0		
7	4079	Polybead Insulation UK Ltd T/A Ecologic Energy	Unit 7, Sovereign Business Centre	Stockingsfield Lane		Enfield	Middlesex	EN3 7JX	England	02088 048151			www.ecologic-energy.co.uk	enquiries@ecologic-energy.co.uk		51.654900	-.026600	0		
7	4141	Dyson Energy Services	Unit 24, Saddleback Road	Westgate Industrial Estate		Northampton	Northamptonshire	NN5 5HL	England	01604 685050			www.dysoninsulations.co.uk			52.242000	-.933500	0		
7	4197	Shetland Heatwise	Stanley Hill Offices	North Road		Lerwick	Shetland	ZE1 0QW	Scotland	01595 696508			www.shetland-communities.org.uk/subsites/shwise/	shetlandheatwise@hotmail.com		60.162600	-1.162200	0		
7	4198	Everwarm Group Ltd	3 Inchcorse Place	Whitehill Industrial Estate		Bathgate	West Lothian	EH48 2EE	Scotland	01506 638600			www.everwarmgroup.com	robert.srirling@everwarmgroup.com		55.880400	-3.625700	0		
7	4198	Everwarm Group Ltd	3 Inchcorse Place	Whitehill Industrial Estate		Bathgate	West Lothian	EH48 2EE	Scotland	01506 638600			www.everwarmgroup.com	scott.paton@everwarmgroup.com		55.880400	-3.625700	0		
7	5279	Westdale Services Ltd	Doncaster Road		Askern	Doncaster	South Yorkshire	DN6 9JD	England	01302 700700			www.westdaleservices.co.uk	coleen@westdaleservices.co.uk		53.600900	-1.159100	0		
7	8700	Tighean Innse Gall	13-15 Francis Street			Stornoway	Isle Of Lewis	HS1 2NB	Scotland	01851 706121			www.tigheaninnsegall.org	info@tighean.co.uk  		58.208400	-6.389100	0		
7	8778	Insulated Render Systems (Scotland) Ltd	74 Glencraig Street			Airdrie	Lanarkshire	ML6 9AS	Scotland	01236 754500				irsscotland.richie@gmail.com		55.861300	-3.997400	0		
8	4058	Saving Energy Ltd	Unit 19	Oban Court		Wickford	Essex	SS11 8YB	England	08009 549689			www.savingenergyuk.co.uk	info@savingenergyuk.co.uk		51.600700	.546400	0		
8	4079	Polybead Insulation UK Ltd T/A Ecologic Energy	Unit 7, Sovereign Business Centre	Stockingsfield Lane		Enfield	Middlesex	EN3 7JX	England	02088 048151			www.ecologic-energy.co.uk	enquiries@ecologic-energy.co.uk		51.654900	-.026600	0		
8	8691	Rateavon Ltd	11 Eagles Wood Business Park	Woodlands Lane	Bradley Stoke	Bristol	Avon	BS32 4EU	England	01179 820033			www.rateavon.co.uk	info@rateavon.co.uk		51.546800	-2.556600	0		
8	8700	Tighean Innse Gall	13-15 Francis Street			Stornoway	Isle Of Lewis	HS1 2NB	Scotland	01851 706121			www.tigheaninnsegall.org	info@tighean.co.uk  		58.208400	-6.389100	0		
8	9117	RB Allan + Sons ltd	Unit 4 Roman Ridge Industrial Estate			Sheffield	South Yorkshire	S9 1GB	England	01142 402529			www.rballan.co.uk	enquiries@rballan.com		53.444300	-1.456100	0		
8	9270	Highview Roofing & Externals Ltd	12 Brunel Rd			Benfleet	Essex	SS7 4PS	England				www.highviewltd.co.uk					0		
9	953	Hamilton Building Contractors Ltd	Unit 56 Commerce Way	Challenge Way		Bradford	West Yorkshire	BD4 8NW	England	01274 666166			www.hamiltonfirst.co.uk	dchapman@hamiltonfirst.co.uk		53.782800	-1.716600	0		
9	1249	InstaGroup Ltd	Insta House	Ivanhoe Road	Hogwood Business Park	Wokingham	Berkshire	RG40 4PZ	England	01189 328811			www.instagroup-homes.co.uk	clementine.littlejohn@instagroup.co.uk		51.375000	-.891400	0		
9	1249	InstaGroup Ltd	Insta House	Ivanhoe Road	Hogwood Business Park	Wokingham	Berkshire	RG40 4PZ	England	01189 328811			www.instagroup-homes.co.uk	mark.montgomery@instagroup.co.uk		51.375000	-.891400	0		
9	3714	Aran Services Ltd	Units 1-6	The Old Station	Lower Green	Bury St Edmunds	Suffolk	IP28 6NL	England	01284 812520			www.aranservices.co.uk			52.265800	.558900	0		
9	4198	Everwarm Group Ltd	3 Inchcorse Place	Whitehill Industrial Estate		Bathgate	West Lothian	EH48 2EE	Scotland	01506 638600			www.everwarmgroup.com	robert.srirling@everwarmgroup.com		55.880400	-3.625700	0		
9	4198	Everwarm Group Ltd	3 Inchcorse Place	Whitehill Industrial Estate		Bathgate	West Lothian	EH48 2EE	Scotland	01506 638600			www.everwarmgroup.com	scott.paton@everwarmgroup.com		55.880400	-3.625700	0		
9	5334	Sustainable Building Services (UK) Ltd	2b, Maple Court	Maple View	White Moss Business Park	Skelmersdale	Lancashire	WN8 9TW	England	03452 571165			www.sustainablebuildinguk.com	enquiries@sustainablebuildinguk.com		53.537500	-2.792700	0		
9	8579	Andrew Shepherd Construction Ltd	Restenneth House	Old Brechin Road		Forfar	Angus	DD8 3DX	Scotland	01307 474510			www.shepherdgroup.co.uk	dshepherd@shepherdgroup.co.uk		56.651900	-2.868800	0		
10	1243	Dyson Energy Services	Dyson House	Armytage Road		Brighouse	West Yorkshire	HD6 1PT	England	01484 406086			www.dysoninsulations.co.uk	marc.cohen@dysonenergyservices.co.uk		53.699800	-1.770600	0		
10	3714	Aran Services Ltd	Units 1-6	The Old Station	Lower Green	Bury St Edmunds	Suffolk	IP28 6NL	England	01284 812520			www.aranservices.co.uk			52.265800	.558900	0		
10	4064	Foamseal Ltd	Market Square House	Market Square		Petworth	West Sussex	GU28 0AH	England	01798 345400			www.foamseal.co.uk	info@foamseal-insulation.co.uk		50.986000	-.609200	0	5379	10/4777
10	4197	Shetland Heatwise	Stanley Hill Offices	North Road		Lerwick	Shetland	ZE1 0QW	Scotland	01595 696508			www.shetland-communities.org.uk/subsites/shwise/	shetlandheatwise@hotmail.com		60.162600	-1.162200	0		
10	4198	Everwarm Group Ltd	3 Inchcorse Place	Whitehill Industrial Estate		Bathgate	West Lothian	EH48 2EE	Scotland	01506 638600			www.everwarmgroup.com	robert.srirling@everwarmgroup.com		55.880400	-3.625700	0		
10	4198	Everwarm Group Ltd	3 Inchcorse Place	Whitehill Industrial Estate		Bathgate	West Lothian	EH48 2EE	Scotland	01506 638600			www.everwarmgroup.com	scott.paton@everwarmgroup.com		55.880400	-3.625700	0		
10	8700	Tighean Innse Gall	13-15 Francis Street			Stornoway	Isle Of Lewis	HS1 2NB	Scotland	01851 706121			www.tigheaninnsegall.org	info@tighean.co.uk  		58.208400	-6.389100	0		
10	8791	South West Insulation Solutions Ltd	Unit D	Victoria Square	Victoria	Roche	Cornwall 	PL26 8LQ	England	01726 212860			www.southwestinsulationsolutions.co.uk	info@swis-lapolla.com		50.419200	-4.830500	0		
10	9100	Absolute Solar Ltd	Unit 20-21 Wanstead Park	Wanstead Road	Braunstone	Leicester	Leicestershire	LE3 1TR	England	01162 313980			www.absolutesolar.co.uk			52.632100	-1.212000	0		
10	9117	RB Allan + Sons ltd	Unit 4 Roman Ridge Industrial Estate			Sheffield	South Yorkshire	S9 1GB	England	01142 402529			www.rballan.co.uk	enquiries@rballan.com		53.444300	-1.456100	0		
10	9182	Max Energy Limited	1	Boston Road	Gorse Hill	Leicester	Leicestershire	LE4 1AA	England					dave.green@maxenergy.direct		52.664600	-1.174300	0		
10	9207	Home Logic Uk Ltd	First Floor Anglo City House	2 - 6 Shirley Road		Southampton	Hampshire	SO15 3EU	England	02381 247045 			www.homelogic.co.uk	leah@homelogic.co.uk		50.942400	-1.426400	0		
10	9269	Evergreen Power UK LTD 	35 capital business centre			Croydon	Surrey	CR2 0BS	England	08006 891894 			www.evergreenpoweruk.com	martin.johnson@evergreenpoweruk.com				0		
10	9280	Warmer Home Insulation Limited	Unit 12	Branksome Business Park	Bourne Valley Road	Poole	Dorset	BH12 1DW	England	07790 019926			www.warmerhomeinsulation.com	ian@warmerhomesinsulation.com				0		
11	953	Hamilton Building Contractors Ltd	Unit 56 Commerce Way	Challenge Way		Bradford	West Yorkshire	BD4 8NW	England	01274 666166			www.hamiltonfirst.co.uk	dchapman@hamiltonfirst.co.uk		53.782800	-1.716600	0	5475	10/4798
11	1243	Dyson Energy Services	Dyson House	Armytage Road		Brighouse	West Yorkshire	HD6 1PT	England	01484 406086			www.dysoninsulations.co.uk	marc.cohen@dysonenergyservices.co.uk		53.699800	-1.770600	0		
11	1249	InstaGroup Ltd	Insta House	Ivanhoe Road	Hogwood Business Park	Wokingham	Berkshire	RG40 4PZ	England	01189 328811			www.instagroup-homes.co.uk	clementine.littlejohn@instagroup.co.uk		51.375000	-.891400	0	6850	12/4950
11	1249	InstaGroup Ltd	Insta House	Ivanhoe Road	Hogwood Business Park	Wokingham	Berkshire	RG40 4PZ	England	01189 328811			www.instagroup-homes.co.uk	mark.montgomery@instagroup.co.uk		51.375000	-.891400	0	6850	12/4950
11	3714	Aran Services Ltd	Units 1-6	The Old Station	Lower Green	Bury St Edmunds	Suffolk	IP28 6NL	England	01284 812520			www.aranservices.co.uk			52.265800	.558900	0	9967	13/5016
11	4058	Saving Energy Ltd	Unit 19	Oban Court		Wickford	Essex	SS11 8YB	England	08009 549689			www.savingenergyuk.co.uk	info@savingenergyuk.co.uk		51.600700	.546400	0	6850	12/4950
11	4079	Polybead Insulation UK Ltd T/A Ecologic Energy	Unit 7, Sovereign Business Centre	Stockingsfield Lane		Enfield	Middlesex	EN3 7JX	England	02088 048151			www.ecologic-energy.co.uk	enquiries@ecologic-energy.co.uk		51.654900	-.026600	0	6850	12/4950
11	4197	Shetland Heatwise	Stanley Hill Offices	North Road		Lerwick	Shetland	ZE1 0QW	Scotland	01595 696508			www.shetland-communities.org.uk/subsites/shwise/	shetlandheatwise@hotmail.com		60.162600	-1.162200	0	563	04/4130
11	4198	Everwarm Group Ltd	3 Inchcorse Place	Whitehill Industrial Estate		Bathgate	West Lothian	EH48 2EE	Scotland	01506 638600			www.everwarmgroup.com	robert.srirling@everwarmgroup.com		55.880400	-3.625700	0	4524	95/3197
11	4198	Everwarm Group Ltd	3 Inchcorse Place	Whitehill Industrial Estate		Bathgate	West Lothian	EH48 2EE	Scotland	01506 638600			www.everwarmgroup.com	robert.srirling@everwarmgroup.com		55.880400	-3.625700	0	10231	14/5134
11	4198	Everwarm Group Ltd	3 Inchcorse Place	Whitehill Industrial Estate		Bathgate	West Lothian	EH48 2EE	Scotland	01506 638600			www.everwarmgroup.com	robert.srirling@everwarmgroup.com		55.880400	-3.625700	0	10736	16/5299
11	4198	Everwarm Group Ltd	3 Inchcorse Place	Whitehill Industrial Estate		Bathgate	West Lothian	EH48 2EE	Scotland	01506 638600			www.everwarmgroup.com	scott.paton@everwarmgroup.com		55.880400	-3.625700	0	4524	95/3197
11	4198	Everwarm Group Ltd	3 Inchcorse Place	Whitehill Industrial Estate		Bathgate	West Lothian	EH48 2EE	Scotland	01506 638600			www.everwarmgroup.com	scott.paton@everwarmgroup.com		55.880400	-3.625700	0	10231	14/5134
11	4198	Everwarm Group Ltd	3 Inchcorse Place	Whitehill Industrial Estate		Bathgate	West Lothian	EH48 2EE	Scotland	01506 638600			www.everwarmgroup.com	scott.paton@everwarmgroup.com		55.880400	-3.625700	0	10736	16/5299
11	4250	Pioneer Wall Cladding & Building Insulation Ltd	10 Oak Lodge Close	Hersham		Walton on Thames	Surrey	KT12 5JQ	England	01932 221209			www.pioneerinsulation.co.uk	office@pioneerinsulation.co.uk		51.365900	-.403600	0	5475	10/4798
11	5334	Sustainable Building Services (UK) Ltd	2b, Maple Court	Maple View	White Moss Business Park	Skelmersdale	Lancashire	WN8 9TW	England	03452 571165			www.sustainablebuildinguk.com	enquiries@sustainablebuildinguk.com		53.537500	-2.792700	0	5632	11/4849
11	5337	Cornerstone (East Anglia) Ltd	Unit 5	Fuller Road		Harleston	Norfolk	IP20 9EA	England	01379 853613			www.cornerstonelimited.co.uk	enquiries@cornerstonelimited.co.uk		52.397300	1.304400	0	9967	13/5016
11	8392	Rend-Tech North East Ltd 	Bracken House	Salters Lane		Sedgefield	County Durham	TS21 3EE	England	01429 883088			www.rend-tech.co.uk	paul@rend-tech.co.uk		54.661900	-1.448500	0		
11	8579	Andrew Shepherd Construction Ltd	Restenneth House	Old Brechin Road		Forfar	Angus	DD8 3DX	Scotland	01307 474510			www.shepherdgroup.co.uk	dshepherd@shepherdgroup.co.uk		56.651900	-2.868800	0	5475	10/4798
11	8696	City Technical Services (UK) Ltd	Unit 1, Block 16	Clydesmill Place	Clydesmill Industrial Estate	Glasgow	City of Glasgow	G32 8RF	Scotland	01416 465094			www.city-holdings.co.uk	gordon.gilmour@citytechnical.co.uk		55.830300	-4.166100	0	5632	11/4849
11	8700	Tighean Innse Gall	13-15 Francis Street			Stornoway	Isle Of Lewis	HS1 2NB	Scotland	01851 706121			www.tigheaninnsegall.org	info@tighean.co.uk  		58.208400	-6.389100	0	948	07/4444
11	9170	Union Technical Services Ltd	Unit 14	Block 8	Thornliebank Ind Estate	Glasgow	Lanarkshire	G46 8JH	Scotland	08000 469190				owencoyle@uniontechnical.co.uk		55.827800	-4.286200	0	16136	18/5506
11	9182	Max Energy Limited	1	Boston Road	Gorse Hill	Leicester	Leicestershire	LE4 1AA	England					dave.green@maxenergy.direct		52.664600	-1.174300	0	9967	13/5016
11	9210	Thomas Niamh Contracting Ltd	Offices 21 & 23, RCM Business Centres	Sandbeds Trading Estate	Dewsbury Road	Ossett	North Yorkshire	WF5 9ND	England	01924 562251 			www.thomasniamh.com					0	10464	15/5193
12	953	Hamilton Building Contractors Ltd	Unit 56 Commerce Way	Challenge Way		Bradford	West Yorkshire	BD4 8NW	England	01274 666166			www.hamiltonfirst.co.uk	dchapman@hamiltonfirst.co.uk		53.782800	-1.716600	0	469	03/4058
12	953	Hamilton Building Contractors Ltd	Unit 56 Commerce Way	Challenge Way		Bradford	West Yorkshire	BD4 8NW	England	01274 666166			www.hamiltonfirst.co.uk	dchapman@hamiltonfirst.co.uk		53.782800	-1.716600	0	1165	09/4625
12	953	Hamilton Building Contractors Ltd	Unit 56 Commerce Way	Challenge Way		Bradford	West Yorkshire	BD4 8NW	England	01274 666166			www.hamiltonfirst.co.uk	dchapman@hamiltonfirst.co.uk		53.782800	-1.716600	0	1209	09/4670
12	953	Hamilton Building Contractors Ltd	Unit 56 Commerce Way	Challenge Way		Bradford	West Yorkshire	BD4 8NW	England	01274 666166			www.hamiltonfirst.co.uk	dchapman@hamiltonfirst.co.uk		53.782800	-1.716600	0	4576	96/3238
12	953	Hamilton Building Contractors Ltd	Unit 56 Commerce Way	Challenge Way		Bradford	West Yorkshire	BD4 8NW	England	01274 666166			www.hamiltonfirst.co.uk	dchapman@hamiltonfirst.co.uk		53.782800	-1.716600	0	4585	96/3247
12	953	Hamilton Building Contractors Ltd	Unit 56 Commerce Way	Challenge Way		Bradford	West Yorkshire	BD4 8NW	England	01274 666166			www.hamiltonfirst.co.uk	dchapman@hamiltonfirst.co.uk		53.782800	-1.716600	0	5794	12/4918
12	953	Hamilton Building Contractors Ltd	Unit 56 Commerce Way	Challenge Way		Bradford	West Yorkshire	BD4 8NW	England	01274 666166			www.hamiltonfirst.co.uk	dchapman@hamiltonfirst.co.uk		53.782800	-1.716600	0	10171	14/5107
12	953	Hamilton Building Contractors Ltd	Unit 56 Commerce Way	Challenge Way		Bradford	West Yorkshire	BD4 8NW	England	01274 666166			www.hamiltonfirst.co.uk	dchapman@hamiltonfirst.co.uk		53.782800	-1.716600	0	10264	14/5137
12	1157	Rockwarm Insulation Ltd	4 Trident Business Park	Holman Way		Nuneaton	Warwickshire	CV11 4PN	England	02476 345554			www.rockwarm.co.uk	info@rockwarm.co.uk		52.516500	-1.457600	0	670	05/4206
12	1157	Rockwarm Insulation Ltd	4 Trident Business Park	Holman Way		Nuneaton	Warwickshire	CV11 4PN	England	02476 345554			www.rockwarm.co.uk	info@rockwarm.co.uk		52.516500	-1.457600	0	1165	09/4625
12	1157	Rockwarm Insulation Ltd	4 Trident Business Park	Holman Way		Nuneaton	Warwickshire	CV11 4PN	England	02476 345554			www.rockwarm.co.uk	info@rockwarm.co.uk		52.516500	-1.457600	0	4227	93/2914
12	1157	Rockwarm Insulation Ltd	4 Trident Business Park	Holman Way		Nuneaton	Warwickshire	CV11 4PN	England	02476 345554			www.rockwarm.co.uk	info@rockwarm.co.uk		52.516500	-1.457600	0	10078	13/5065
12	1157	Rockwarm Insulation Ltd	4 Trident Business Park	Holman Way		Nuneaton	Warwickshire	CV11 4PN	England	02476 345554			www.rockwarm.co.uk	info@rockwarm.co.uk		52.516500	-1.457600	0	15122	158/12
12	1243	Dyson Energy Services	Dyson House	Armytage Road		Brighouse	West Yorkshire	HD6 1PT	England	01484 406086			www.dysoninsulations.co.uk	marc.cohen@dysonenergyservices.co.uk		53.699800	-1.770600	0		
12	1249	InstaGroup Ltd	Insta House	Ivanhoe Road	Hogwood Business Park	Wokingham	Berkshire	RG40 4PZ	England	01189 328811			www.instagroup-homes.co.uk	clementine.littlejohn@instagroup.co.uk		51.375000	-.891400	0	5841	12/4944
12	1249	InstaGroup Ltd	Insta House	Ivanhoe Road	Hogwood Business Park	Wokingham	Berkshire	RG40 4PZ	England	01189 328811			www.instagroup-homes.co.uk	mark.montgomery@instagroup.co.uk		51.375000	-.891400	0	5841	12/4944
12	3287	Heat Insulation Ltd	Crowle House	Crowle Street		Hull	East Yorkshire	HU9 1RH	England	01482 588591			www.heat-insulation.co.uk	andy@heat-insulation.co.uk		53.749400	-.305400	0		
12	3287	Heat Insulation Ltd	Crowle House	Crowle Street		Hull	East Yorkshire	HU9 1RH	England	01482 588591			www.heat-insulation.co.uk	ricky@heat-insulation.co.uk		53.749400	-.305400	0		
12	3409	Interglow Contracts Ltd 	Shepreth Road	Fowlmere		Royston	Hertfordshire	SG8 7TQ	England	01763 208563			www.interglow.co.uk	mwebb@interglow.co.uk		52.099200	.066700	0	3988	91/2691
12	3409	Interglow Contracts Ltd 	Shepreth Road	Fowlmere		Royston	Hertfordshire	SG8 7TQ	England	01763 208563			www.interglow.co.uk	swebb@interglow.co.uk		52.099200	.066700	0	3988	91/2691
12	3714	Aran Services Ltd	Units 1-6	The Old Station	Lower Green	Bury St Edmunds	Suffolk	IP28 6NL	England	01284 812520			www.aranservices.co.uk			52.265800	.558900	0	114	00/3766
12	3714	Aran Services Ltd	Units 1-6	The Old Station	Lower Green	Bury St Edmunds	Suffolk	IP28 6NL	England	01284 812520			www.aranservices.co.uk			52.265800	.558900	0	670	05/4206
12	3714	Aran Services Ltd	Units 1-6	The Old Station	Lower Green	Bury St Edmunds	Suffolk	IP28 6NL	England	01284 812520			www.aranservices.co.uk			52.265800	.558900	0	3988	91/2691
12	3714	Aran Services Ltd	Units 1-6	The Old Station	Lower Green	Bury St Edmunds	Suffolk	IP28 6NL	England	01284 812520			www.aranservices.co.uk			52.265800	.558900	0	4227	93/2914
12	3714	Aran Services Ltd	Units 1-6	The Old Station	Lower Green	Bury St Edmunds	Suffolk	IP28 6NL	England	01284 812520			www.aranservices.co.uk			52.265800	.558900	0	4459	95/3132
12	3714	Aran Services Ltd	Units 1-6	The Old Station	Lower Green	Bury St Edmunds	Suffolk	IP28 6NL	England	01284 812520			www.aranservices.co.uk			52.265800	.558900	0	4750	97/3410
12	3714	Aran Services Ltd	Units 1-6	The Old Station	Lower Green	Bury St Edmunds	Suffolk	IP28 6NL	England	01284 812520			www.aranservices.co.uk			52.265800	.558900	0	5602	11/4838
12	3714	Aran Services Ltd	Units 1-6	The Old Station	Lower Green	Bury St Edmunds	Suffolk	IP28 6NL	England	01284 812520			www.aranservices.co.uk			52.265800	.558900	0	10078	13/5065
12	3714	Aran Services Ltd	Units 1-6	The Old Station	Lower Green	Bury St Edmunds	Suffolk	IP28 6NL	England	01284 812520			www.aranservices.co.uk			52.265800	.558900	0	15122	158/12
12	4051	Warm Front Ltd	Unit 1	Kingston Mill	Manchester Road	Hyde	Cheshire	SK14 2BZ	England	01613 209255			www.warmfrontltd.com	andreww@warmfrontltd.com		53.470000	-2.102700	0	469	03/4058
12	4051	Warm Front Ltd	Unit 1	Kingston Mill	Manchester Road	Hyde	Cheshire	SK14 2BZ	England	01613 209255			www.warmfrontltd.com	andrewwebb@warmfrontltd.com		53.470000	-2.102700	0	469	03/4058
12	4058	Saving Energy Ltd	Unit 19	Oban Court		Wickford	Essex	SS11 8YB	England	08009 549689			www.savingenergyuk.co.uk	info@savingenergyuk.co.uk		51.600700	.546400	0	5841	12/4944
12	4064	Foamseal Ltd	Market Square House	Market Square		Petworth	West Sussex	GU28 0AH	England	01798 345400			www.foamseal.co.uk	info@foamseal-insulation.co.uk		50.986000	-.609200	0	114	00/3766
12	4064	Foamseal Ltd	Market Square House	Market Square		Petworth	West Sussex	GU28 0AH	England	01798 345400			www.foamseal.co.uk	info@foamseal-insulation.co.uk		50.986000	-.609200	0	469	03/4058
12	4064	Foamseal Ltd	Market Square House	Market Square		Petworth	West Sussex	GU28 0AH	England	01798 345400			www.foamseal.co.uk	info@foamseal-insulation.co.uk		50.986000	-.609200	0	4227	93/2914
12	4079	Polybead Insulation UK Ltd T/A Ecologic Energy	Unit 7, Sovereign Business Centre	Stockingsfield Lane		Enfield	Middlesex	EN3 7JX	England	02088 048151			www.ecologic-energy.co.uk	enquiries@ecologic-energy.co.uk		51.654900	-.026600	0	5841	12/4944
12	4081	NorthWest Insulations Ltd	Unit 2	New Cheshire Business Park	Wincham Lane	Northwich	Cheshire	CW9 6GG	England	01606 41217			www.northwestinsulationsltd.co.uk	T.Lawlor@northwestinsulations.co.uk		53.275300	-2.484100	0	469	03/4058
12	4081	NorthWest Insulations Ltd	Unit 2	New Cheshire Business Park	Wincham Lane	Northwich	Cheshire	CW9 6GG	England	01606 41217			www.northwestinsulationsltd.co.uk	T.Lawlor@northwestinsulations.co.uk		53.275300	-2.484100	0	1165	09/4625
12	4089	Alba Insulations Ltd	21 Central City Industrial Estate	Red Lane		Coventry	West Midlands	CV6 5RY	England	02476 581553			www.albainsulation.com	info@albainsulations.com		52.419000	-1.489500	0	5841	12/4944
12	4187	E.ON Energy Installation Services Ltd	Floor 3	Greenwood House	Westwood Business Park	Coventry	West Midlands	CV4 8TT	England	08000 546250			www.eon-uk.com/chn	ciara.taberner@eonenergy.com		52.499100	-2.160100	0	469	03/4058
12	4187	E.ON Energy Installation Services Ltd	Floor 3	Greenwood House	Westwood Business Park	Coventry	West Midlands	CV4 8TT	England	08000 546250			www.eon-uk.com/chn	ciara.taberner@eonenergy.com		52.499100	-2.160100	0	1165	09/4625
12	4187	E.ON Energy Installation Services Ltd	Floor 3	Greenwood House	Westwood Business Park	Coventry	West Midlands	CV4 8TT	England	08000 546250			www.eon-uk.com/chn	oliver.moore@eoenergy.com 		52.499100	-2.160100	0	469	03/4058
12	4187	E.ON Energy Installation Services Ltd	Floor 3	Greenwood House	Westwood Business Park	Coventry	West Midlands	CV4 8TT	England	08000 546250			www.eon-uk.com/chn	oliver.moore@eoenergy.com 		52.499100	-2.160100	0	1165	09/4625
12	4198	Everwarm Group Ltd	3 Inchcorse Place	Whitehill Industrial Estate		Bathgate	West Lothian	EH48 2EE	Scotland	01506 638600			www.everwarmgroup.com	robert.srirling@everwarmgroup.com		55.880400	-3.625700	0	469	03/4058
12	4198	Everwarm Group Ltd	3 Inchcorse Place	Whitehill Industrial Estate		Bathgate	West Lothian	EH48 2EE	Scotland	01506 638600			www.everwarmgroup.com	robert.srirling@everwarmgroup.com		55.880400	-3.625700	0	4227	93/2914
12	4198	Everwarm Group Ltd	3 Inchcorse Place	Whitehill Industrial Estate		Bathgate	West Lothian	EH48 2EE	Scotland	01506 638600			www.everwarmgroup.com	scott.paton@everwarmgroup.com		55.880400	-3.625700	0	469	03/4058
12	4198	Everwarm Group Ltd	3 Inchcorse Place	Whitehill Industrial Estate		Bathgate	West Lothian	EH48 2EE	Scotland	01506 638600			www.everwarmgroup.com	scott.paton@everwarmgroup.com		55.880400	-3.625700	0	4227	93/2914
12	4218	BlueBuild Energy Ltd	Unit 1  BlueBuild Business Park	210 Quarry Heights		Newtownards	County Down	BT23 7SZ	Northern Ireland	02891 468222			www.bluebuildenergy.com	info@bluebuildenergy.com		54.601400	-5.693300	0	10783	16/5319
12	4223	Energywise Scotland Ltd	Unit 8	Elphinstone Square	Dean Industrial Estate	Livingston	West Lothian	EH54 8RG	Scotland	01506 426918			www.energywisescotland.co.uk			55.899400	-3.582400	0	15122	158/12
12	4230	Viridian Energy Solutions Ltd	Unit 2B, Sandy Lane Farm	Sandy Lane	Great Chart	Ashford	Kent	TN26 1JN	England	01233 820868			www.viridianenergysolutions.co.uk	info@viridianenergysolutions.co.uk		51.135000	.801800	0	5841	12/4944
12	4250	Pioneer Wall Cladding & Building Insulation Ltd	10 Oak Lodge Close	Hersham		Walton on Thames	Surrey	KT12 5JQ	England	01932 221209			www.pioneerinsulation.co.uk	office@pioneerinsulation.co.uk		51.365900	-.403600	0	114	00/3766
12	4250	Pioneer Wall Cladding & Building Insulation Ltd	10 Oak Lodge Close	Hersham		Walton on Thames	Surrey	KT12 5JQ	England	01932 221209			www.pioneerinsulation.co.uk	office@pioneerinsulation.co.uk		51.365900	-.403600	0	1165	09/4625
12	4250	Pioneer Wall Cladding & Building Insulation Ltd	10 Oak Lodge Close	Hersham		Walton on Thames	Surrey	KT12 5JQ	England	01932 221209			www.pioneerinsulation.co.uk	office@pioneerinsulation.co.uk		51.365900	-.403600	0	3988	91/2691
12	4250	Pioneer Wall Cladding & Building Insulation Ltd	10 Oak Lodge Close	Hersham		Walton on Thames	Surrey	KT12 5JQ	England	01932 221209			www.pioneerinsulation.co.uk	office@pioneerinsulation.co.uk		51.365900	-.403600	0	4893	98/3548
12	4250	Pioneer Wall Cladding & Building Insulation Ltd	10 Oak Lodge Close	Hersham		Walton on Thames	Surrey	KT12 5JQ	England	01932 221209			www.pioneerinsulation.co.uk	office@pioneerinsulation.co.uk		51.365900	-.403600	0	6855	12/4953
12	4250	Pioneer Wall Cladding & Building Insulation Ltd	10 Oak Lodge Close	Hersham		Walton on Thames	Surrey	KT12 5JQ	England	01932 221209			www.pioneerinsulation.co.uk	office@pioneerinsulation.co.uk		51.365900	-.403600	0	6857	12/4955
12	4250	Pioneer Wall Cladding & Building Insulation Ltd	10 Oak Lodge Close	Hersham		Walton on Thames	Surrey	KT12 5JQ	England	01932 221209			www.pioneerinsulation.co.uk	office@pioneerinsulation.co.uk		51.365900	-.403600	0	9927	13/4999
12	4250	Pioneer Wall Cladding & Building Insulation Ltd	10 Oak Lodge Close	Hersham		Walton on Thames	Surrey	KT12 5JQ	England	01932 221209			www.pioneerinsulation.co.uk	office@pioneerinsulation.co.uk		51.365900	-.403600	0	9928	13/5000
12	4250	Pioneer Wall Cladding & Building Insulation Ltd	10 Oak Lodge Close	Hersham		Walton on Thames	Surrey	KT12 5JQ	England	01932 221209			www.pioneerinsulation.co.uk	office@pioneerinsulation.co.uk		51.365900	-.403600	0	9954	13/5009
12	4250	Pioneer Wall Cladding & Building Insulation Ltd	10 Oak Lodge Close	Hersham		Walton on Thames	Surrey	KT12 5JQ	England	01932 221209			www.pioneerinsulation.co.uk	office@pioneerinsulation.co.uk		51.365900	-.403600	0	9959	13/5011
12	4250	Pioneer Wall Cladding & Building Insulation Ltd	10 Oak Lodge Close	Hersham		Walton on Thames	Surrey	KT12 5JQ	England	01932 221209			www.pioneerinsulation.co.uk	office@pioneerinsulation.co.uk		51.365900	-.403600	0	10190	14/5120
12	4250	Pioneer Wall Cladding & Building Insulation Ltd	10 Oak Lodge Close	Hersham		Walton on Thames	Surrey	KT12 5JQ	England	01932 221209			www.pioneerinsulation.co.uk	office@pioneerinsulation.co.uk		51.365900	-.403600	0	10264	14/5137
12	4250	Pioneer Wall Cladding & Building Insulation Ltd	10 Oak Lodge Close	Hersham		Walton on Thames	Surrey	KT12 5JQ	England	01932 221209			www.pioneerinsulation.co.uk	office@pioneerinsulation.co.uk		51.365900	-.403600	0	10461	15/5192
12	4256	Gaffney and Guinan Contractors Ltd 	Unit 7 Alpha Busness Park			Coventry	West Midlands	CV2 1EQ	England	0247 6449066			www.gaffneyandguinan.co.uk	info@ggcltd.co.uk		52.414300	-1.479500	0	469	03/4058
12	4256	Gaffney and Guinan Contractors Ltd 	Unit 7 Alpha Busness Park			Coventry	West Midlands	CV2 1EQ	England	0247 6449066			www.gaffneyandguinan.co.uk	info@ggcltd.co.uk		52.414300	-1.479500	0	1165	09/4625
12	4256	Gaffney and Guinan Contractors Ltd 	Unit 7 Alpha Busness Park			Coventry	West Midlands	CV2 1EQ	England	0247 6449066			www.gaffneyandguinan.co.uk	info@ggcltd.co.uk		52.414300	-1.479500	0	5794	12/4918
12	4258	Lawtech Group Ltd	Medwayyyy	Neptune Close	Medway City Estate	Rochester	Kent	ME2 4LT	England	01634 290500			www.lawtechltd.co.uk	reception@lawtechltd.co.uk		51.393900	.517800	0	469	03/4058
12	4258	Lawtech Group Ltd	Medwayyyy	Neptune Close	Medway City Estate	Rochester	Kent	ME2 4LT	England	01634 290500			www.lawtechltd.co.uk	reception@lawtechltd.co.uk		51.393900	.517800	0	670	05/4206
12	4258	Lawtech Group Ltd	Medwayyyy	Neptune Close	Medway City Estate	Rochester	Kent	ME2 4LT	England	01634 290500			www.lawtechltd.co.uk	reception@lawtechltd.co.uk		51.393900	.517800	0	1165	09/4625
12	4258	Lawtech Group Ltd	Medwayyyy	Neptune Close	Medway City Estate	Rochester	Kent	ME2 4LT	England	01634 290500			www.lawtechltd.co.uk	reception@lawtechltd.co.uk		51.393900	.517800	0	4576	96/3238
12	4258	Lawtech Group Ltd	Medwayyyy	Neptune Close	Medway City Estate	Rochester	Kent	ME2 4LT	England	01634 290500			www.lawtechltd.co.uk	reception@lawtechltd.co.uk		51.393900	.517800	0	4585	96/3247
12	4258	Lawtech Group Ltd	Medwayyyy	Neptune Close	Medway City Estate	Rochester	Kent	ME2 4LT	England	01634 290500			www.lawtechltd.co.uk	reception@lawtechltd.co.uk		51.393900	.517800	0	5832	12/4939
12	4258	Lawtech Group Ltd	Medwayyyy	Neptune Close	Medway City Estate	Rochester	Kent	ME2 4LT	England	01634 290500			www.lawtechltd.co.uk	reception@lawtechltd.co.uk		51.393900	.517800	0	10078	13/5065
12	4258	Lawtech Group Ltd	Medwayyyy	Neptune Close	Medway City Estate	Rochester	Kent	ME2 4LT	England	01634 290500			www.lawtechltd.co.uk	reception@lawtechltd.co.uk		51.393900	.517800	0	10264	14/5137
12	4258	Lawtech Group Ltd	Medwayyyy	Neptune Close	Medway City Estate	Rochester	Kent	ME2 4LT	England	01634 290500			www.lawtechltd.co.uk	reception@lawtechltd.co.uk		51.393900	.517800	0	10461	15/5192
12	4258	Lawtech Group Ltd	Medwayyyy	Neptune Close	Medway City Estate	Rochester	Kent	ME2 4LT	England	01634 290500			www.lawtechltd.co.uk	reception@lawtechltd.co.uk		51.393900	.517800	0	10464	15/5193
12	4258	Lawtech Group Ltd	Medwayyyy	Neptune Close	Medway City Estate	Rochester	Kent	ME2 4LT	England	01634 290500			www.lawtechltd.co.uk	reception@lawtechltd.co.uk		51.393900	.517800	0	10504	15/5207
12	4258	Lawtech Group Ltd	Medwayyyy	Neptune Close	Medway City Estate	Rochester	Kent	ME2 4LT	England	01634 290500			www.lawtechltd.co.uk	reception@lawtechltd.co.uk		51.393900	.517800	0	10534	15/5211
12	4258	Lawtech Group Ltd	Medwayyyy	Neptune Close	Medway City Estate	Rochester	Kent	ME2 4LT	England	01634 290500			www.lawtechltd.co.uk	reception@lawtechltd.co.uk		51.393900	.517800	0	10783	16/5319
12	4258	Lawtech Group Ltd	Medwayyyy	Neptune Close	Medway City Estate	Rochester	Kent	ME2 4LT	England	01634 290500			www.lawtechltd.co.uk	reception@lawtechltd.co.uk		51.393900	.517800	0	10818	16/5336
12	5275	RJ Dean Plasterers Ltd	Unit 7 West Road	Beta Terrace	Ransomes Europark	Ipswich	Suffolk	IP3 9SX	England	01473 290000			www.rjdeanplasterers.com	info@rjdeanplasterers.com		52.033100	1.209200	0	3988	91/2691
12	5279	Westdale Services Ltd	Doncaster Road		Askern	Doncaster	South Yorkshire	DN6 9JD	England	01302 700700			www.westdaleservices.co.uk	coleen@westdaleservices.co.uk		53.600900	-1.159100	0	433	03/4022
12	5279	Westdale Services Ltd	Doncaster Road		Askern	Doncaster	South Yorkshire	DN6 9JD	England	01302 700700			www.westdaleservices.co.uk	coleen@westdaleservices.co.uk		53.600900	-1.159100	0	469	03/4058
12	5279	Westdale Services Ltd	Doncaster Road		Askern	Doncaster	South Yorkshire	DN6 9JD	England	01302 700700			www.westdaleservices.co.uk	coleen@westdaleservices.co.uk		53.600900	-1.159100	0	4227	93/2914
12	5279	Westdale Services Ltd	Doncaster Road		Askern	Doncaster	South Yorkshire	DN6 9JD	England	01302 700700			www.westdaleservices.co.uk	coleen@westdaleservices.co.uk		53.600900	-1.159100	0	4581	96/3243
12	5279	Westdale Services Ltd	Doncaster Road		Askern	Doncaster	South Yorkshire	DN6 9JD	England	01302 700700			www.westdaleservices.co.uk	coleen@westdaleservices.co.uk		53.600900	-1.159100	0	10078	13/5065
12	5279	Westdale Services Ltd	Doncaster Road		Askern	Doncaster	South Yorkshire	DN6 9JD	England	01302 700700			www.westdaleservices.co.uk	coleen@westdaleservices.co.uk		53.600900	-1.159100	0	10461	15/5192
12	5279	Westdale Services Ltd	Doncaster Road		Askern	Doncaster	South Yorkshire	DN6 9JD	England	01302 700700			www.westdaleservices.co.uk	coleen@westdaleservices.co.uk		53.600900	-1.159100	0	10464	15/5193
12	5289	AC Whyte & Co Ltd.	6 Bowerwalls Place	Crossmill Business Park		Barrhead	East Renfrewshire	G78 1BF	Scotland	0141 8819519			www.acwhyte.co.uk	aidan.moore@acwhyte.co.uk		55.807600	-4.378000	0	433	03/4022
12	5289	AC Whyte & Co Ltd.	6 Bowerwalls Place	Crossmill Business Park		Barrhead	East Renfrewshire	G78 1BF	Scotland	0141 8819519			www.acwhyte.co.uk	aidan.moore@acwhyte.co.uk		55.807600	-4.378000	0	3988	91/2691
12	5289	AC Whyte & Co Ltd.	6 Bowerwalls Place	Crossmill Business Park		Barrhead	East Renfrewshire	G78 1BF	Scotland	0141 8819519			www.acwhyte.co.uk	aidan.moore@acwhyte.co.uk		55.807600	-4.378000	0	4227	93/2914
12	5289	AC Whyte & Co Ltd.	6 Bowerwalls Place	Crossmill Business Park		Barrhead	East Renfrewshire	G78 1BF	Scotland	0141 8819519			www.acwhyte.co.uk	aidan.moore@acwhyte.co.uk		55.807600	-4.378000	0	4581	96/3243
12	5318	Sykes Specialist Contracting Ltd 	216-218 Rothbury Terrace	Heaton	Newcastle upon Tyne	Tyne and Wear	Tyne and Wear	NE6 5DE	England	0191 4236200			www.sykessc.com	chris@sykessc.com		54.952700	-1.565000	0	114	00/3766
12	5318	Sykes Specialist Contracting Ltd 	216-218 Rothbury Terrace	Heaton	Newcastle upon Tyne	Tyne and Wear	Tyne and Wear	NE6 5DE	England	0191 4236200			www.sykessc.com	chris@sykessc.com		54.952700	-1.565000	0	469	03/4058
12	5318	Sykes Specialist Contracting Ltd 	216-218 Rothbury Terrace	Heaton	Newcastle upon Tyne	Tyne and Wear	Tyne and Wear	NE6 5DE	England	0191 4236200			www.sykessc.com	chris@sykessc.com		54.952700	-1.565000	0	4227	93/2914
12	5318	Sykes Specialist Contracting Ltd 	216-218 Rothbury Terrace	Heaton	Newcastle upon Tyne	Tyne and Wear	Tyne and Wear	NE6 5DE	England	0191 4236200			www.sykessc.com	chris@sykessc.com		54.952700	-1.565000	0	4459	95/3132
12	5318	Sykes Specialist Contracting Ltd 	216-218 Rothbury Terrace	Heaton	Newcastle upon Tyne	Tyne and Wear	Tyne and Wear	NE6 5DE	England	0191 4236200			www.sykessc.com	chris@sykessc.com		54.952700	-1.565000	0	4576	96/3238
12	5318	Sykes Specialist Contracting Ltd 	216-218 Rothbury Terrace	Heaton	Newcastle upon Tyne	Tyne and Wear	Tyne and Wear	NE6 5DE	England	0191 4236200			www.sykessc.com	chris@sykessc.com		54.952700	-1.565000	0	4750	97/3410
12	5318	Sykes Specialist Contracting Ltd 	216-218 Rothbury Terrace	Heaton	Newcastle upon Tyne	Tyne and Wear	Tyne and Wear	NE6 5DE	England	0191 4236200			www.sykessc.com	chris@sykessc.com		54.952700	-1.565000	0	10171	14/5107
12	5318	Sykes Specialist Contracting Ltd 	216-218 Rothbury Terrace	Heaton	Newcastle upon Tyne	Tyne and Wear	Tyne and Wear	NE6 5DE	England	0191 4236200			www.sykessc.com	chris@sykessc.com		54.952700	-1.565000	0	15122	158/12
12	5333	Celtic Rendering Systems Ltd 	Bannerbrook Stores	Copperworks Road		Llanelli	Carmarthenshire	SA15 2NE	Wales	01554 780062			www.celticrenderingsystems.co.uk	enquiries@celticrenderingsystems.co.uk		51.686800	-4.229800	0	114	00/3766
12	5333	Celtic Rendering Systems Ltd 	Bannerbrook Stores	Copperworks Road		Llanelli	Carmarthenshire	SA15 2NE	Wales	01554 780062			www.celticrenderingsystems.co.uk	enquiries@celticrenderingsystems.co.uk		51.686800	-4.229800	0	469	03/4058
12	5333	Celtic Rendering Systems Ltd 	Bannerbrook Stores	Copperworks Road		Llanelli	Carmarthenshire	SA15 2NE	Wales	01554 780062			www.celticrenderingsystems.co.uk	enquiries@celticrenderingsystems.co.uk		51.686800	-4.229800	0	1165	09/4625
12	5333	Celtic Rendering Systems Ltd 	Bannerbrook Stores	Copperworks Road		Llanelli	Carmarthenshire	SA15 2NE	Wales	01554 780062			www.celticrenderingsystems.co.uk	enquiries@celticrenderingsystems.co.uk		51.686800	-4.229800	0	10078	13/5065
12	5333	Celtic Rendering Systems Ltd 	Bannerbrook Stores	Copperworks Road		Llanelli	Carmarthenshire	SA15 2NE	Wales	01554 780062			www.celticrenderingsystems.co.uk	enquiries@celticrenderingsystems.co.uk		51.686800	-4.229800	0	10504	15/5207
12	5334	Sustainable Building Services (UK) Ltd	2b, Maple Court	Maple View	White Moss Business Park	Skelmersdale	Lancashire	WN8 9TW	England	03452 571165			www.sustainablebuildinguk.com	enquiries@sustainablebuildinguk.com		53.537500	-2.792700	0	469	03/4058
12	5334	Sustainable Building Services (UK) Ltd	2b, Maple Court	Maple View	White Moss Business Park	Skelmersdale	Lancashire	WN8 9TW	England	03452 571165			www.sustainablebuildinguk.com	enquiries@sustainablebuildinguk.com		53.537500	-2.792700	0	3988	91/2691
12	5334	Sustainable Building Services (UK) Ltd	2b, Maple Court	Maple View	White Moss Business Park	Skelmersdale	Lancashire	WN8 9TW	England	03452 571165			www.sustainablebuildinguk.com	enquiries@sustainablebuildinguk.com		53.537500	-2.792700	0	15122	158/12
12	5337	Cornerstone (East Anglia) Ltd	Unit 5	Fuller Road		Harleston	Norfolk	IP20 9EA	England	01379 853613			www.cornerstonelimited.co.uk	enquiries@cornerstonelimited.co.uk		52.397300	1.304400	0	3988	91/2691
12	5337	Cornerstone (East Anglia) Ltd	Unit 5	Fuller Road		Harleston	Norfolk	IP20 9EA	England	01379 853613			www.cornerstonelimited.co.uk	enquiries@cornerstonelimited.co.uk		52.397300	1.304400	0	7895	13/4977
12	5337	Cornerstone (East Anglia) Ltd	Unit 5	Fuller Road		Harleston	Norfolk	IP20 9EA	England	01379 853613			www.cornerstonelimited.co.uk	enquiries@cornerstonelimited.co.uk		52.397300	1.304400	0	9966	13/5015
12	5337	Cornerstone (East Anglia) Ltd	Unit 5	Fuller Road		Harleston	Norfolk	IP20 9EA	England	01379 853613			www.cornerstonelimited.co.uk	enquiries@cornerstonelimited.co.uk		52.397300	1.304400	0	10078	13/5065
12	5343	Thomas CMS (Holdings) Ltd 	Fairleap House	Brecon Road	Hirwaun	Aberdare	Mid Glamorgan	CF44 9NS	Wales	01685 870505			www.tcs-Limited.co.uk	mark@tcs-limited.co.uk		51.736700	-3.508000	0	433	03/4022
12	5343	Thomas CMS (Holdings) Ltd 	Fairleap House	Brecon Road	Hirwaun	Aberdare	Mid Glamorgan	CF44 9NS	Wales	01685 870505			www.tcs-Limited.co.uk	mark@tcs-limited.co.uk		51.736700	-3.508000	0	10078	13/5065
12	5365	Aspiration Group Holdings Ltd T/A Aspiration Energy	Aspiration Energy	Suite T	Diss Business Park, Hopper Way	Diss, Sandy Lane	Norfolk	IP22 4GT	England	01379 658959			www.aspirationenergy.co.uk	achrystal@aspirationenergy.co.uk		52.374200	1.127900	0	1209	09/4670
12	5365	Aspiration Group Holdings Ltd T/A Aspiration Energy	Aspiration Energy	Suite T	Diss Business Park, Hopper Way	Diss, Sandy Lane	Norfolk	IP22 4GT	England	01379 658959			www.aspirationenergy.co.uk	achrystal@aspirationenergy.co.uk		52.374200	1.127900	0	3988	91/2691
12	5365	Aspiration Group Holdings Ltd T/A Aspiration Energy	Aspiration Energy	Suite T	Diss Business Park, Hopper Way	Diss, Sandy Lane	Norfolk	IP22 4GT	England	01379 658959			www.aspirationenergy.co.uk	achrystal@aspirationenergy.co.uk		52.374200	1.127900	0	4459	95/3132
12	5365	Aspiration Group Holdings Ltd T/A Aspiration Energy	Aspiration Energy	Suite T	Diss Business Park, Hopper Way	Diss, Sandy Lane	Norfolk	IP22 4GT	England	01379 658959			www.aspirationenergy.co.uk	achrystal@aspirationenergy.co.uk		52.374200	1.127900	0	5794	12/4918
12	5365	Aspiration Group Holdings Ltd T/A Aspiration Energy	Aspiration Energy	Suite T	Diss Business Park, Hopper Way	Diss, Sandy Lane	Norfolk	IP22 4GT	England	01379 658959			www.aspirationenergy.co.uk	achrystal@aspirationenergy.co.uk		52.374200	1.127900	0	10078	13/5065
12	5365	Aspiration Group Holdings Ltd T/A Aspiration Energy	Aspiration Energy	Suite T	Diss Business Park, Hopper Way	Diss, Sandy Lane	Norfolk	IP22 4GT	England	01379 658959			www.aspirationenergy.co.uk	achrystal@aspirationenergy.co.uk		52.374200	1.127900	0	10173	14/5108
12	5365	Aspiration Group Holdings Ltd T/A Aspiration Energy	Aspiration Energy	Suite T	Diss Business Park, Hopper Way	Diss, Sandy Lane	Norfolk	IP22 4GT	England	01379 658959			www.aspirationenergy.co.uk	achrystal@aspirationenergy.co.uk		52.374200	1.127900	0	10504	15/5207
12	5365	Aspiration Group Holdings Ltd T/A Aspiration Energy	Aspiration Energy	Suite T	Diss Business Park, Hopper Way	Diss, Sandy Lane	Norfolk	IP22 4GT	England	01379 658959			www.aspirationenergy.co.uk	jchrystal@aspirationenergy.co.uk 		52.374200	1.127900	0	1209	09/4670
12	5365	Aspiration Group Holdings Ltd T/A Aspiration Energy	Aspiration Energy	Suite T	Diss Business Park, Hopper Way	Diss, Sandy Lane	Norfolk	IP22 4GT	England	01379 658959			www.aspirationenergy.co.uk	jchrystal@aspirationenergy.co.uk 		52.374200	1.127900	0	3988	91/2691
12	5365	Aspiration Group Holdings Ltd T/A Aspiration Energy	Aspiration Energy	Suite T	Diss Business Park, Hopper Way	Diss, Sandy Lane	Norfolk	IP22 4GT	England	01379 658959			www.aspirationenergy.co.uk	jchrystal@aspirationenergy.co.uk 		52.374200	1.127900	0	4459	95/3132
12	5365	Aspiration Group Holdings Ltd T/A Aspiration Energy	Aspiration Energy	Suite T	Diss Business Park, Hopper Way	Diss, Sandy Lane	Norfolk	IP22 4GT	England	01379 658959			www.aspirationenergy.co.uk	jchrystal@aspirationenergy.co.uk 		52.374200	1.127900	0	5794	12/4918
12	5365	Aspiration Group Holdings Ltd T/A Aspiration Energy	Aspiration Energy	Suite T	Diss Business Park, Hopper Way	Diss, Sandy Lane	Norfolk	IP22 4GT	England	01379 658959			www.aspirationenergy.co.uk	jchrystal@aspirationenergy.co.uk 		52.374200	1.127900	0	10078	13/5065
12	5365	Aspiration Group Holdings Ltd T/A Aspiration Energy	Aspiration Energy	Suite T	Diss Business Park, Hopper Way	Diss, Sandy Lane	Norfolk	IP22 4GT	England	01379 658959			www.aspirationenergy.co.uk	jchrystal@aspirationenergy.co.uk 		52.374200	1.127900	0	10173	14/5108
12	5365	Aspiration Group Holdings Ltd T/A Aspiration Energy	Aspiration Energy	Suite T	Diss Business Park, Hopper Way	Diss, Sandy Lane	Norfolk	IP22 4GT	England	01379 658959			www.aspirationenergy.co.uk	jchrystal@aspirationenergy.co.uk 		52.374200	1.127900	0	10504	15/5207
12	7378	Gibson Specialist Technical Services 	Atlantic House	Charnwood Park		Bridgend	Glamorgan	CF31 3PL	Wales	01656 767373				clare@gibson-sts.com		51.492500	-3.550800	0	10504	15/5207
12	8392	Rend-Tech North East Ltd 	Bracken House	Salters Lane		Sedgefield	County Durham	TS21 3EE	England	01429 883088			www.rend-tech.co.uk	paul@rend-tech.co.uk		54.661900	-1.448500	0	469	03/4058
12	8515	Ailsa Building Contractors Ltd	251 Dundyvan Road			Coatbridge	Lanarkshire	ML5 4AU	Scotland	01236 422615			www.ailsabuilders.co.uk	george@ailsabuilders.co.uk		55.853900	-4.021500	0	4227	93/2914
12	8524	SJ Donnelly Ltd	Park Farm	48-50 London Road	Stretton on Dunsmore	Rugby	Warwickshire	CV23 9JJ	England	01788 812757			www.sjdonnellyltd.co.uk	sam@sjdonnellyltd.co.uk		52.347900	-1.350400	0	1165	09/4625
12	8524	SJ Donnelly Ltd	Park Farm	48-50 London Road	Stretton on Dunsmore	Rugby	Warwickshire	CV23 9JJ	England	01788 812757			www.sjdonnellyltd.co.uk	sam@sjdonnellyltd.co.uk		52.347900	-1.350400	0	4585	96/3247
12	8524	SJ Donnelly Ltd	Park Farm	48-50 London Road	Stretton on Dunsmore	Rugby	Warwickshire	CV23 9JJ	England	01788 812757			www.sjdonnellyltd.co.uk	sam@sjdonnellyltd.co.uk		52.347900	-1.350400	0	5794	12/4918
12	8524	SJ Donnelly Ltd	Park Farm	48-50 London Road	Stretton on Dunsmore	Rugby	Warwickshire	CV23 9JJ	England	01788 812757			www.sjdonnellyltd.co.uk	sam@sjdonnellyltd.co.uk		52.347900	-1.350400	0	10154	14/5101
12	8539	WHS Contractors Limited 	Unit 17 Avon Business Park	Lodge Causeway	Fishponds	Bristol	Avon	BS16 3JP	England	01179 657971			www.whsexterior.co.uk	sharon.hood@whscontractors.co.uk		51.474900	-2.533000	0	1165	09/4625
12	8539	WHS Contractors Limited 	Unit 17 Avon Business Park	Lodge Causeway	Fishponds	Bristol	Avon	BS16 3JP	England	01179 657971			www.whsexterior.co.uk	sharon.hood@whscontractors.co.uk		51.474900	-2.533000	0	5140	10/4725
12	8579	Andrew Shepherd Construction Ltd	Restenneth House	Old Brechin Road		Forfar	Angus	DD8 3DX	Scotland	01307 474510			www.shepherdgroup.co.uk	dshepherd@shepherdgroup.co.uk		56.651900	-2.868800	0	114	00/3766
12	8579	Andrew Shepherd Construction Ltd	Restenneth House	Old Brechin Road		Forfar	Angus	DD8 3DX	Scotland	01307 474510			www.shepherdgroup.co.uk	dshepherd@shepherdgroup.co.uk		56.651900	-2.868800	0	469	03/4058
12	8579	Andrew Shepherd Construction Ltd	Restenneth House	Old Brechin Road		Forfar	Angus	DD8 3DX	Scotland	01307 474510			www.shepherdgroup.co.uk	dshepherd@shepherdgroup.co.uk		56.651900	-2.868800	0	1165	09/4625
12	8579	Andrew Shepherd Construction Ltd	Restenneth House	Old Brechin Road		Forfar	Angus	DD8 3DX	Scotland	01307 474510			www.shepherdgroup.co.uk	dshepherd@shepherdgroup.co.uk		56.651900	-2.868800	0	4227	93/2914
12	8579	Andrew Shepherd Construction Ltd	Restenneth House	Old Brechin Road		Forfar	Angus	DD8 3DX	Scotland	01307 474510			www.shepherdgroup.co.uk	dshepherd@shepherdgroup.co.uk		56.651900	-2.868800	0	4492	95/3165
12	8579	Andrew Shepherd Construction Ltd	Restenneth House	Old Brechin Road		Forfar	Angus	DD8 3DX	Scotland	01307 474510			www.shepherdgroup.co.uk	dshepherd@shepherdgroup.co.uk		56.651900	-2.868800	0	4581	96/3243
12	8579	Andrew Shepherd Construction Ltd	Restenneth House	Old Brechin Road		Forfar	Angus	DD8 3DX	Scotland	01307 474510			www.shepherdgroup.co.uk	dshepherd@shepherdgroup.co.uk		56.651900	-2.868800	0	6888	13/4973
12	8579	Andrew Shepherd Construction Ltd	Restenneth House	Old Brechin Road		Forfar	Angus	DD8 3DX	Scotland	01307 474510			www.shepherdgroup.co.uk	dshepherd@shepherdgroup.co.uk		56.651900	-2.868800	0	10264	14/5137
12	8610	Apex Green Ltd	Unit A-C, 11-17 Fowler Road	Hainault Business Park		lford	Essex	IG6 3UT	England	0800 505 3236			www.apexgreen.co.uk	info@apexgreen.co.uk		51.591700	-.036300	0	3988	91/2691
12	8651	Primars Coatings Services Ltd	1 Meridian Drive	Lolwoth		Cambridge	Cambridgeshire	CB23 8HP	England	02031 742038			www.primars.co.uk	julian@primars.co.uk		51.670000	-.397100	0	1209	09/4670
12	8651	Primars Coatings Services Ltd	1 Meridian Drive	Lolwoth		Cambridge	Cambridgeshire	CB23 8HP	England	02031 742038			www.primars.co.uk	julian@primars.co.uk		51.670000	-.397100	0	4227	93/2914
12	8667	Origin (UK) Energy Services	Unit 20	Sawley Park	Nottingham Road	Derby	Derbyshire	DE21 6AS	England	01332 293049			originenergyservices.co.uk	sanjida@originenergyservices.co.uk		52.924800	-1.453500	0	5841	12/4944
12	8691	Rateavon Ltd	11 Eagles Wood Business Park	Woodlands Lane	Bradley Stoke	Bristol	Avon	BS32 4EU	England	01179 820033			www.rateavon.co.uk	info@rateavon.co.uk		51.546800	-2.556600	0	114	00/3766
12	8691	Rateavon Ltd	11 Eagles Wood Business Park	Woodlands Lane	Bradley Stoke	Bristol	Avon	BS32 4EU	England	01179 820033			www.rateavon.co.uk	info@rateavon.co.uk		51.546800	-2.556600	0	4227	93/2914
12	8691	Rateavon Ltd	11 Eagles Wood Business Park	Woodlands Lane	Bradley Stoke	Bristol	Avon	BS32 4EU	England	01179 820033			www.rateavon.co.uk	info@rateavon.co.uk		51.546800	-2.556600	0	4576	96/3238
12	8691	Rateavon Ltd	11 Eagles Wood Business Park	Woodlands Lane	Bradley Stoke	Bristol	Avon	BS32 4EU	England	01179 820033			www.rateavon.co.uk	info@rateavon.co.uk		51.546800	-2.556600	0	4585	96/3247
12	8691	Rateavon Ltd	11 Eagles Wood Business Park	Woodlands Lane	Bradley Stoke	Bristol	Avon	BS32 4EU	England	01179 820033			www.rateavon.co.uk	info@rateavon.co.uk		51.546800	-2.556600	0	5832	12/4939
12	8691	Rateavon Ltd	11 Eagles Wood Business Park	Woodlands Lane	Bradley Stoke	Bristol	Avon	BS32 4EU	England	01179 820033			www.rateavon.co.uk	info@rateavon.co.uk		51.546800	-2.556600	0	6855	12/4953
12	8691	Rateavon Ltd	11 Eagles Wood Business Park	Woodlands Lane	Bradley Stoke	Bristol	Avon	BS32 4EU	England	01179 820033			www.rateavon.co.uk	info@rateavon.co.uk		51.546800	-2.556600	0	6857	12/4955
12	8691	Rateavon Ltd	11 Eagles Wood Business Park	Woodlands Lane	Bradley Stoke	Bristol	Avon	BS32 4EU	England	01179 820033			www.rateavon.co.uk	info@rateavon.co.uk		51.546800	-2.556600	0	9927	13/4999
12	8691	Rateavon Ltd	11 Eagles Wood Business Park	Woodlands Lane	Bradley Stoke	Bristol	Avon	BS32 4EU	England	01179 820033			www.rateavon.co.uk	info@rateavon.co.uk		51.546800	-2.556600	0	10078	13/5065
12	8716	Kelvik Ltd 	Oxford House	Sixth Avenue		Doncaster	South Yorkshire	DN9 3GG	England	01302 726775				carl.dodd@morgandodd.co.uk		53.486600	-1.015600	0	670	05/4206
12	8716	Kelvik Ltd 	Oxford House	Sixth Avenue		Doncaster	South Yorkshire	DN9 3GG	England	01302 726775				carl.dodd@morgandodd.co.uk		53.486600	-1.015600	0	6857	12/4955
12	8721	Jefferies Contractors Ltd	Unit 5A	Cambrian Industrial Estate	Coed Cae Lane	Pontyclun	Mid Glamorgan	CF72 9EW	Wales	01443 858710			www.jefferiesltd.co.uk	dean.broughton@jefferiesltd.co.uk		51.527900	-3.399400	0	469	03/4058
12	8721	Jefferies Contractors Ltd	Unit 5A	Cambrian Industrial Estate	Coed Cae Lane	Pontyclun	Mid Glamorgan	CF72 9EW	Wales	01443 858710			www.jefferiesltd.co.uk	dean.broughton@jefferiesltd.co.uk		51.527900	-3.399400	0	5794	12/4918
12	8721	Jefferies Contractors Ltd	Unit 5A	Cambrian Industrial Estate	Coed Cae Lane	Pontyclun	Mid Glamorgan	CF72 9EW	Wales	01443 858710			www.jefferiesltd.co.uk	dean.broughton@jefferiesltd.co.uk		51.527900	-3.399400	0	10154	14/5101
12	8721	Jefferies Contractors Ltd	Unit 5A	Cambrian Industrial Estate	Coed Cae Lane	Pontyclun	Mid Glamorgan	CF72 9EW	Wales	01443 858710			www.jefferiesltd.co.uk	dean.broughton@jefferiesltd.co.uk		51.527900	-3.399400	0	10504	15/5207
12	8721	Jefferies Contractors Ltd	Unit 5A	Cambrian Industrial Estate	Coed Cae Lane	Pontyclun	Mid Glamorgan	CF72 9EW	Wales	01443 858710			www.jefferiesltd.co.uk	enquiries@jefferiesltd.co.uk		51.527900	-3.399400	0	469	03/4058
12	8721	Jefferies Contractors Ltd	Unit 5A	Cambrian Industrial Estate	Coed Cae Lane	Pontyclun	Mid Glamorgan	CF72 9EW	Wales	01443 858710			www.jefferiesltd.co.uk	enquiries@jefferiesltd.co.uk		51.527900	-3.399400	0	5794	12/4918
12	8721	Jefferies Contractors Ltd	Unit 5A	Cambrian Industrial Estate	Coed Cae Lane	Pontyclun	Mid Glamorgan	CF72 9EW	Wales	01443 858710			www.jefferiesltd.co.uk	enquiries@jefferiesltd.co.uk		51.527900	-3.399400	0	10154	14/5101
12	8721	Jefferies Contractors Ltd	Unit 5A	Cambrian Industrial Estate	Coed Cae Lane	Pontyclun	Mid Glamorgan	CF72 9EW	Wales	01443 858710			www.jefferiesltd.co.uk	enquiries@jefferiesltd.co.uk		51.527900	-3.399400	0	10504	15/5207
12	8754	Ser Contractor Ltd 	105-107 Dorset Road			London	Greater London	SW8 1AB	England	02078 400585			www.sercontractor.co.uk	contact@sercontractor.co.uk 		51.479100	-.118700	0	1165	09/4625
12	8754	Ser Contractor Ltd 	105-107 Dorset Road			London	Greater London	SW8 1AB	England	02078 400585			www.sercontractor.co.uk	contact@sercontractor.co.uk 		51.479100	-.118700	0	3988	91/2691
12	8754	Ser Contractor Ltd 	105-107 Dorset Road			London	Greater London	SW8 1AB	England	02078 400585			www.sercontractor.co.uk	contact@sercontractor.co.uk 		51.479100	-.118700	0	10154	14/5101
12	8775	MP Rendering Ltd	324 Drumoyne Road			Glasgow	City of Glasgow	G51 4DX	Scotland				www.mprendering.com	robert.mclarrie@mprendering.com		55.849600	-4.331400	0	433	03/4022
12	8775	MP Rendering Ltd	324 Drumoyne Road			Glasgow	City of Glasgow	G51 4DX	Scotland				www.mprendering.com	robert.mclarrie@mprendering.com		55.849600	-4.331400	0	1209	09/4670
12	8775	MP Rendering Ltd	324 Drumoyne Road			Glasgow	City of Glasgow	G51 4DX	Scotland				www.mprendering.com	robert.mclarrie@mprendering.com		55.849600	-4.331400	0	3988	91/2691
12	8775	MP Rendering Ltd	324 Drumoyne Road			Glasgow	City of Glasgow	G51 4DX	Scotland				www.mprendering.com	robert.mclarrie@mprendering.com		55.849600	-4.331400	0	4227	93/2914
12	8775	MP Rendering Ltd	324 Drumoyne Road			Glasgow	City of Glasgow	G51 4DX	Scotland				www.mprendering.com	robert.mclarrie@mprendering.com		55.849600	-4.331400	0	4581	96/3243
12	8775	MP Rendering Ltd	324 Drumoyne Road			Glasgow	City of Glasgow	G51 4DX	Scotland				www.mprendering.com	robert.mclarrie@mprendering.com		55.849600	-4.331400	0	4585	96/3247
12	8775	MP Rendering Ltd	324 Drumoyne Road			Glasgow	City of Glasgow	G51 4DX	Scotland				www.mprendering.com	robert.mclarrie@mprendering.com		55.849600	-4.331400	0	6853	12/4952
12	8775	MP Rendering Ltd	324 Drumoyne Road			Glasgow	City of Glasgow	G51 4DX	Scotland				www.mprendering.com	robert.mclarrie@mprendering.com		55.849600	-4.331400	0	6855	12/4953
12	8775	MP Rendering Ltd	324 Drumoyne Road			Glasgow	City of Glasgow	G51 4DX	Scotland				www.mprendering.com	robert.mclarrie@mprendering.com		55.849600	-4.331400	0	6888	13/4973
12	8775	MP Rendering Ltd	324 Drumoyne Road			Glasgow	City of Glasgow	G51 4DX	Scotland				www.mprendering.com	robert.mclarrie@mprendering.com		55.849600	-4.331400	0	9924	13/4997
12	8775	MP Rendering Ltd	324 Drumoyne Road			Glasgow	City of Glasgow	G51 4DX	Scotland				www.mprendering.com	robert.mclarrie@mprendering.com		55.849600	-4.331400	0	10504	15/5207
12	8775	MP Rendering Ltd	324 Drumoyne Road			Glasgow	City of Glasgow	G51 4DX	Scotland				www.mprendering.com	robert.mclarrie@mprendering.com		55.849600	-4.331400	0	10783	16/5319
12	8778	Insulated Render Systems (Scotland) Ltd	74 Glencraig Street			Airdrie	Lanarkshire	ML6 9AS	Scotland	01236 754500				irsscotland.richie@gmail.com		55.861300	-3.997400	0	469	03/4058
12	8778	Insulated Render Systems (Scotland) Ltd	74 Glencraig Street			Airdrie	Lanarkshire	ML6 9AS	Scotland	01236 754500				irsscotland.richie@gmail.com		55.861300	-3.997400	0	1165	09/4625
12	8778	Insulated Render Systems (Scotland) Ltd	74 Glencraig Street			Airdrie	Lanarkshire	ML6 9AS	Scotland	01236 754500				irsscotland.richie@gmail.com		55.861300	-3.997400	0	4576	96/3238
12	8778	Insulated Render Systems (Scotland) Ltd	74 Glencraig Street			Airdrie	Lanarkshire	ML6 9AS	Scotland	01236 754500				irsscotland.richie@gmail.com		55.861300	-3.997400	0	4581	96/3243
12	8778	Insulated Render Systems (Scotland) Ltd	74 Glencraig Street			Airdrie	Lanarkshire	ML6 9AS	Scotland	01236 754500				irsscotland.richie@gmail.com		55.861300	-3.997400	0	10078	13/5065
12	8869	ASW Property Services	ASW Property Services Ltd	58-59 Village Farm Industrial Estate	Pyle	Bridgend	Glamorgan	CF33 6BN	Wales	01656 7480020				carl.woodward@aswgroup.co.uk		51.524300	-3.684200	0	1165	09/4625
12	8918	British Gas Trading Ltd t/a ECL Contracts	Eleven Arches House	Leicester Road		Rugby	Warwickshire	CV21 1FD	England	01788 537878 			www.eclcontracts.co.uk	Kim.Dornan@bghn.co.uk 		52.384800	-1.265000	0	4576	96/3238
12	8918	British Gas Trading Ltd t/a ECL Contracts	Eleven Arches House	Leicester Road		Rugby	Warwickshire	CV21 1FD	England	01788 537878 			www.eclcontracts.co.uk	Kim.Dornan@bghn.co.uk 		52.384800	-1.265000	0	6865	12/4960
12	8918	British Gas Trading Ltd t/a ECL Contracts	Eleven Arches House	Leicester Road		Rugby	Warwickshire	CV21 1FD	England	01788 537878 			www.eclcontracts.co.uk	Kim.Dornan@bghn.co.uk 		52.384800	-1.265000	0	10504	15/5207
12	8925	EWIS UK Ltd	Energy House	Grandstand Road		Hereford	Herefordshire	HR4 9NH	England	07921 493292				p.jones@ewis-ukltd.co.uk		52.067100	-2.730600	0	1165	09/4625
12	8925	EWIS UK Ltd	Energy House	Grandstand Road		Hereford	Herefordshire	HR4 9NH	England	07921 493292				p.jones@ewis-ukltd.co.uk		52.067100	-2.730600	0	1209	09/4670
12	8925	EWIS UK Ltd	Energy House	Grandstand Road		Hereford	Herefordshire	HR4 9NH	England	07921 493292				p.jones@ewis-ukltd.co.uk		52.067100	-2.730600	0	3988	91/2691
12	8988	SERS Energy Solutions Ltd	Unit 3a	Gallagher Retail Park	Parc Pontypandy	Caerphilly	Gwent	CF83 3GX	Wales	01443 821349						51.590800	-3.214700	0	469	03/4058
12	8988	SERS Energy Solutions Ltd	Unit 3a	Gallagher Retail Park	Parc Pontypandy	Caerphilly	Gwent	CF83 3GX	Wales	01443 821349						51.590800	-3.214700	0	670	05/4206
12	8988	SERS Energy Solutions Ltd	Unit 3a	Gallagher Retail Park	Parc Pontypandy	Caerphilly	Gwent	CF83 3GX	Wales	01443 821349						51.590800	-3.214700	0	5832	12/4939
12	8988	SERS Energy Solutions Ltd	Unit 3a	Gallagher Retail Park	Parc Pontypandy	Caerphilly	Gwent	CF83 3GX	Wales	01443 821349						51.590800	-3.214700	0	10078	13/5065
12	8988	SERS Energy Solutions Ltd	Unit 3a	Gallagher Retail Park	Parc Pontypandy	Caerphilly	Gwent	CF83 3GX	Wales	01443 821349						51.590800	-3.214700	0	10264	14/5137
12	8988	SERS Energy Solutions Ltd	Unit 3a	Gallagher Retail Park	Parc Pontypandy	Caerphilly	Gwent	CF83 3GX	Wales	01443 821349						51.590800	-3.214700	0	10461	15/5192
12	8988	SERS Energy Solutions Ltd	Unit 3a	Gallagher Retail Park	Parc Pontypandy	Caerphilly	Gwent	CF83 3GX	Wales	01443 821349						51.590800	-3.214700	0	10818	16/5336
12	9006	The Eco Roof and Wall-Company Limited	Taylors Transport Building	5 Glaisdale Drive East		Nottingham	Nottinghamshire	NG8 4GU	England	01158 967542			www.theecoroofandwallcompany.co.uk	admin@theecoroofandwallcompany.co.uk		52.957800	-1.180500	0	9975	13/5019
12	9006	The Eco Roof and Wall-Company Limited	Taylors Transport Building	5 Glaisdale Drive East		Nottingham	Nottinghamshire	NG8 4GU	England	01158 967542			www.theecoroofandwallcompany.co.uk	admin@theecoroofandwallcompany.co.uk		52.957800	-1.180500	0	10154	14/5101
12	9034	Greenhus Ltd	10 Tavy Business Centre	Pitts Cleave Industrial Estate		Tavistock	Devon	PL19 0NU	England	01822 819911			www.greenhus.co.uk	info@greenhus.co.uk		50.564900	-4.122500	0	5376	10/4774
12	9035	Retrofit UK Ltd	Unit K	Broad Lane Industrial Estate		Cottenham	Cambridgeshire	CB24 8SW	England	01954 252177			www.retrofituk.co.uk	nick.stevens@retrofituk.co.uk		52.294000	.123900	0	1165	09/4625
12	9035	Retrofit UK Ltd	Unit K	Broad Lane Industrial Estate		Cottenham	Cambridgeshire	CB24 8SW	England	01954 252177			www.retrofituk.co.uk	nick.stevens@retrofituk.co.uk		52.294000	.123900	0	3988	91/2691
12	9035	Retrofit UK Ltd	Unit K	Broad Lane Industrial Estate		Cottenham	Cambridgeshire	CB24 8SW	England	01954 252177			www.retrofituk.co.uk	nick.stevens@retrofituk.co.uk		52.294000	.123900	0	15122	158/12
12	9039	Mario Insulation Ltd	2 Rushbury Close			Bilston	West Midlands	WV14 0UH	England	07831 551117			www.marioinsulation.com	mil.fasades@gmail.com		52.562400	-2.090800	0	9969	13/5018
12	9040	SMK Building and Maintenance Ltd	Unit 15 Palmersvale Business Park	Palmerston Road		Barry	Glamorgan	CF63 2XA	Wales	01446 741888			www.smkbuilding.com	d.baldock@smkbuilding.com		51.414100	-3.244000	0	10078	13/5065
12	9040	SMK Building and Maintenance Ltd	Unit 15 Palmersvale Business Park	Palmerston Road		Barry	Glamorgan	CF63 2XA	Wales	01446 741888			www.smkbuilding.com	d.baldock@smkbuilding.com		51.414100	-3.244000	0	10504	15/5207
12	9040	SMK Building and Maintenance Ltd	Unit 15 Palmersvale Business Park	Palmerston Road		Barry	Glamorgan	CF63 2XA	Wales	01446 741888			www.smkbuilding.com	d.baldock@smkbuilding.com		51.414100	-3.244000	0	10783	16/5319
12	9044	SPMS (Wales) Ltd	Unit 5 New Tarran Workshops	Dunrawen Business Parks		Bridgend	Glamorgan	CF31 3BG	Wales	01656 818881			www.spmswales.co.uk	spmswaleslimited@btconnect.com		51.502300	-3.568800	0	15122	ETA13/0927
12	9050	SERS Energy Solutions (Scotland) Ltd	12 Fairbairn Road	Kirkton North		Livingstone	Midlothian	EH54 6TS	Scotland	08455 199445			www.sersltd.co.uk	marion.gracie@sersltd.co.uk		55.870200	-3.043500	0	670	05/4206
12	9050	SERS Energy Solutions (Scotland) Ltd	12 Fairbairn Road	Kirkton North		Livingstone	Midlothian	EH54 6TS	Scotland	08455 199445			www.sersltd.co.uk	marion.gracie@sersltd.co.uk		55.870200	-3.043500	0	5832	12/4939
12	9050	SERS Energy Solutions (Scotland) Ltd	12 Fairbairn Road	Kirkton North		Livingstone	Midlothian	EH54 6TS	Scotland	08455 199445			www.sersltd.co.uk	marion.gracie@sersltd.co.uk		55.870200	-3.043500	0	10078	13/5065
12	9050	SERS Energy Solutions (Scotland) Ltd	12 Fairbairn Road	Kirkton North		Livingstone	Midlothian	EH54 6TS	Scotland	08455 199445			www.sersltd.co.uk	rob.allsopp@sersltd.co.uk		55.870200	-3.043500	0	670	05/4206
12	9050	SERS Energy Solutions (Scotland) Ltd	12 Fairbairn Road	Kirkton North		Livingstone	Midlothian	EH54 6TS	Scotland	08455 199445			www.sersltd.co.uk	rob.allsopp@sersltd.co.uk		55.870200	-3.043500	0	5832	12/4939
12	9050	SERS Energy Solutions (Scotland) Ltd	12 Fairbairn Road	Kirkton North		Livingstone	Midlothian	EH54 6TS	Scotland	08455 199445			www.sersltd.co.uk	rob.allsopp@sersltd.co.uk		55.870200	-3.043500	0	10078	13/5065
12	9070	EMC Bulding Services Ltd	Park Lane House	Suite 1/23	47 Broad Street	Glasgow	City of Glasgow	G40 2QW	Scotland	01236 870443			www.emcbuildingservices.co.uk	emcbuildingservicesltd@gmail.com		55.886200	-4.089600	0	469	03/4058
12	9077	AFS (Scotland) Ltd	Unit 20, 15 Borrowmeadow Road	Springkerse Industrial Estate		Stirling	Stirlingshire	FK7 7UW	Scotland	01786 450409			www.afs-scotland.co.uk	s.avery@afs-scotland.co.uk		56.117000	-3.916500	0	4227	93/2914
12	9082	Anglian Building Products	Unit 2	45 Hurricane Way		Norwich	Norfolk	NR6 6JB	England	01603 428451			www.anglian-building.co.uk			52.672300	1.291700	0		
12	9103	Insulation Solutions Scotland Ltd	Unit 7	Eastfield Farm Road Industrial Estate		Peniculk	Midlothian	EH26 8EZ	Scotland	01968 678870				gmdonaldson@hotmail.com		55.836600	-3.217400	0	670	05/4206
12	9103	Insulation Solutions Scotland Ltd	Unit 7	Eastfield Farm Road Industrial Estate		Peniculk	Midlothian	EH26 8EZ	Scotland	01968 678870				gmdonaldson@hotmail.com		55.836600	-3.217400	0	10078	13/5065
12	9129	Robertson Construction Group	1 George Buckman Drive	Camper Down Industrial Park		Dundee	City of Dundee	DD2 3SP	Scotland	01786 431600				craig.robertson@robertson.co.uk		57.644700	-3.293600	0	3988	91/2691
12	9129	Robertson Construction Group	1 George Buckman Drive	Camper Down Industrial Park		Dundee	City of Dundee	DD2 3SP	Scotland	01786 431600				craig.robertson@robertson.co.uk		57.644700	-3.293600	0	4581	96/3243
12	9154	I & N Watts Plastering Ltd	unit 7 windmill industrial estate	 Wimborne road		Barry	Glamorgan	CF63 8DH	Wales	07816 041717				Sebastian.lee@inwattsltd.co.uk		51.415700	-3.262000	0	1165	09/4625
12	9172	Edinhome	251/6 West Granton Road			Edinburgh	Midlothian	EH5 1HZ	Scotland	07821 718954			www.edinhome.com			55.977300	-3.238100	0	469	03/4058
12	9210	Thomas Niamh Contracting Ltd	Offices 21 & 23, RCM Business Centres	Sandbeds Trading Estate	Dewsbury Road	Ossett	North Yorkshire	WF5 9ND	England	01924 562251 			www.thomasniamh.com					0	3988	91/2691
13	4079	Polybead Insulation UK Ltd T/A Ecologic Energy	Unit 7, Sovereign Business Centre	Stockingsfield Lane		Enfield	Middlesex	EN3 7JX	England	02088 048151			www.ecologic-energy.co.uk	enquiries@ecologic-energy.co.uk		51.654900	-.026600	0		
13	4197	Shetland Heatwise	Stanley Hill Offices	North Road		Lerwick	Shetland	ZE1 0QW	Scotland	01595 696508			www.shetland-communities.org.uk/subsites/shwise/	shetlandheatwise@hotmail.com		60.162600	-1.162200	0		
13	8579	Andrew Shepherd Construction Ltd	Restenneth House	Old Brechin Road		Forfar	Angus	DD8 3DX	Scotland	01307 474510			www.shepherdgroup.co.uk	dshepherd@shepherdgroup.co.uk		56.651900	-2.868800	0		
13	9082	Anglian Building Products	Unit 2	45 Hurricane Way		Norwich	Norfolk	NR6 6JB	England	01603 428451			www.anglian-building.co.uk			52.672300	1.291700	0		
25	1243	Dyson Energy Services	Dyson House	Armytage Road		Brighouse	West Yorkshire	HD6 1PT	England	01484 406086			www.dysoninsulations.co.uk	marc.cohen@dysonenergyservices.co.uk		53.699800	-1.770600	0		
25	1249	InstaGroup Ltd	Insta House	Ivanhoe Road	Hogwood Business Park	Wokingham	Berkshire	RG40 4PZ	England	01189 328811			www.instagroup-homes.co.uk	clementine.littlejohn@instagroup.co.uk		51.375000	-.891400	0		
25	1249	InstaGroup Ltd	Insta House	Ivanhoe Road	Hogwood Business Park	Wokingham	Berkshire	RG40 4PZ	England	01189 328811			www.instagroup-homes.co.uk	mark.montgomery@instagroup.co.uk		51.375000	-.891400	0		
25	3487	Cosy Homes (NI) Ltd	Hillcrest	3 Gambles Road		Poyntzpass	Co Armagh	BT35 6TG	Northern Ireland	02838 318111			www.insulationireland.co.uk	cosyhomesni@btconnect.com		54.264900	-6.371400	0		
25	3548	Belfast Insulation Co Ltd	81 Whinney Hill			Holywood	County Down	BT16 1UA	Northern Ireland	02890 424411				info@belfastinsulation.com		54.623400	-5.780700	0		
25	3714	Aran Services Ltd	Units 1-6	The Old Station	Lower Green	Bury St Edmunds	Suffolk	IP28 6NL	England	01284 812520			www.aranservices.co.uk			52.265800	.558900	0		
25	4051	Warm Front Ltd	Unit 1	Kingston Mill	Manchester Road	Hyde	Cheshire	SK14 2BZ	England	01613 209255			www.warmfrontltd.com	andreww@warmfrontltd.com		53.470000	-2.102700	0		
25	4051	Warm Front Ltd	Unit 1	Kingston Mill	Manchester Road	Hyde	Cheshire	SK14 2BZ	England	01613 209255			www.warmfrontltd.com	andrewwebb@warmfrontltd.com		53.470000	-2.102700	0		
25	4198	Everwarm Group Ltd	3 Inchcorse Place	Whitehill Industrial Estate		Bathgate	West Lothian	EH48 2EE	Scotland	01506 638600			www.everwarmgroup.com	robert.srirling@everwarmgroup.com		55.880400	-3.625700	0		
25	4198	Everwarm Group Ltd	3 Inchcorse Place	Whitehill Industrial Estate		Bathgate	West Lothian	EH48 2EE	Scotland	01506 638600			www.everwarmgroup.com	scott.paton@everwarmgroup.com		55.880400	-3.625700	0		
25	4218	BlueBuild Energy Ltd	Unit 1  BlueBuild Business Park	210 Quarry Heights		Newtownards	County Down	BT23 7SZ	Northern Ireland	02891 468222			www.bluebuildenergy.com	info@bluebuildenergy.com		54.601400	-5.693300	0		
25	5343	Thomas CMS (Holdings) Ltd 	Fairleap House	Brecon Road	Hirwaun	Aberdare	Mid Glamorgan	CF44 9NS	Wales	01685 870505			www.tcs-Limited.co.uk	mark@tcs-limited.co.uk		51.736700	-3.508000	0		
25	8589	Thrift Energy Ltd	Kingsway House	Kingsway	Team Valley	Gateshead	Tyne and Wear	NE11 0HW	England	01912 842424			www.thriftenergy.co.uk	info@thriftenergy.co.uk		54.932200	-1.618100	0		
25	8721	Jefferies Contractors Ltd	Unit 5A	Cambrian Industrial Estate	Coed Cae Lane	Pontyclun	Mid Glamorgan	CF72 9EW	Wales	01443 858710			www.jefferiesltd.co.uk	dean.broughton@jefferiesltd.co.uk		51.527900	-3.399400	0		
25	8721	Jefferies Contractors Ltd	Unit 5A	Cambrian Industrial Estate	Coed Cae Lane	Pontyclun	Mid Glamorgan	CF72 9EW	Wales	01443 858710			www.jefferiesltd.co.uk	enquiries@jefferiesltd.co.uk		51.527900	-3.399400	0		
25	8920	Thermabead Ltd	Units 1 & 2 Shipston Close			Worcester	Worcestershire	WR4 9XN	England	01905 342308 			www.thermabead.co.uk	m.elsworth@thermabead.co.uk		52.216300	-2.194000	0		
25	9150	Cooney Insulations Ltd/CavExtract UK Ltd	Cooney Insulations Ltd	5 Peel Street	Failsworth	Manchester	Greater Manchester	M35 0UF	England	07886 348308			www.cooneyinsulations.com	enquiries@cooneyinsulation.com		53.504500	-2.173900	0		
25	9150	Cooney Insulations Ltd/CavExtract UK Ltd	Cooney Insulations Ltd	5 Peel Street	Failsworth	Manchester	Greater Manchester	M35 0UF	England	07886 348308			www.cooneyinsulations.com	enquiries@cooneyinsulations.com		53.504500	-2.173900	0		
25	9168	Evolve Home Energy Solutions	Wyastone Business Park	Wyastone		Leys	Monmouthshire	NP25 3SR	England	01600 887551				g.randle@evolvehes.co.uk		51.838300	-2.682100	0		
25	9168	Evolve Home Energy Solutions	Wyastone Business Park	Wyastone		Leys	Monmouthshire	NP25 3SR	England	01600 887551				j.white@evolvehes.co.uk		51.838300	-2.682100	0		
25	9197	Extract North East	3a chipchase court	Seaham grange industrial estate	Seaham	County Durham	Tyne and Wear	SR7 0PP	England	0191 5214333			www.extract-north-east.co.uk			54.926000	-1.608700	0		
25	9254	UK Carbon Care Ltd T/A Complete Remedial Solutions Ltd	Unit 15	Pencoed Technology Park	Pencoed	Bridgend	Mid Glamorgan	CF35 5HZ	England	01656 253181			www.completeremedialsolutions.co.uk	Keith.platt@completeremedialsolutions.co.uk				0		
25	9260	Pacifica Home Services Limited	Venter House	Rainton Bridge Business Park		Houghton Le Spring	County Durham	DH4 7TZ	England	07590 356347			www.0800repairgas.co.uk	brian.ireland@0800repair.com				0		
27	1157	Rockwarm Insulation Ltd	4 Trident Business Park	Holman Way		Nuneaton	Warwickshire	CV11 4PN	England	02476 345554			www.rockwarm.co.uk	info@rockwarm.co.uk		52.516500	-1.457600	0		
27	1249	InstaGroup Ltd	Insta House	Ivanhoe Road	Hogwood Business Park	Wokingham	Berkshire	RG40 4PZ	England	01189 328811			www.instagroup-homes.co.uk	clementine.littlejohn@instagroup.co.uk		51.375000	-.891400	0		
27	1249	InstaGroup Ltd	Insta House	Ivanhoe Road	Hogwood Business Park	Wokingham	Berkshire	RG40 4PZ	England	01189 328811			www.instagroup-homes.co.uk	mark.montgomery@instagroup.co.uk		51.375000	-.891400	0		
27	3714	Aran Services Ltd	Units 1-6	The Old Station	Lower Green	Bury St Edmunds	Suffolk	IP28 6NL	England	01284 812520			www.aranservices.co.uk			52.265800	.558900	0		
27	4058	Saving Energy Ltd	Unit 19	Oban Court		Wickford	Essex	SS11 8YB	England	08009 549689			www.savingenergyuk.co.uk	info@savingenergyuk.co.uk		51.600700	.546400	0		
27	4064	Foamseal Ltd	Market Square House	Market Square		Petworth	West Sussex	GU28 0AH	England	01798 345400			www.foamseal.co.uk	info@foamseal-insulation.co.uk		50.986000	-.609200	0		
27	4079	Polybead Insulation UK Ltd T/A Ecologic Energy	Unit 7, Sovereign Business Centre	Stockingsfield Lane		Enfield	Middlesex	EN3 7JX	England	02088 048151			www.ecologic-energy.co.uk	enquiries@ecologic-energy.co.uk		51.654900	-.026600	0		
27	4187	E.ON Energy Installation Services Ltd	Floor 3	Greenwood House	Westwood Business Park	Coventry	West Midlands	CV4 8TT	England	08000 546250			www.eon-uk.com/chn	ciara.taberner@eonenergy.com		52.499100	-2.160100	0		
27	4187	E.ON Energy Installation Services Ltd	Floor 3	Greenwood House	Westwood Business Park	Coventry	West Midlands	CV4 8TT	England	08000 546250			www.eon-uk.com/chn	oliver.moore@eoenergy.com 		52.499100	-2.160100	0		
27	4230	Viridian Energy Solutions Ltd	Unit 2B, Sandy Lane Farm	Sandy Lane	Great Chart	Ashford	Kent	TN26 1JN	England	01233 820868			www.viridianenergysolutions.co.uk	info@viridianenergysolutions.co.uk		51.135000	.801800	0		
27	4250	Pioneer Wall Cladding & Building Insulation Ltd	10 Oak Lodge Close	Hersham		Walton on Thames	Surrey	KT12 5JQ	England	01932 221209			www.pioneerinsulation.co.uk	office@pioneerinsulation.co.uk		51.365900	-.403600	0		
27	4256	Gaffney and Guinan Contractors Ltd 	Unit 7 Alpha Busness Park			Coventry	West Midlands	CV2 1EQ	England	0247 6449066			www.gaffneyandguinan.co.uk	info@ggcltd.co.uk		52.414300	-1.479500	0		
27	4258	Lawtech Group Ltd	Medwayyyy	Neptune Close	Medway City Estate	Rochester	Kent	ME2 4LT	England	01634 290500			www.lawtechltd.co.uk	reception@lawtechltd.co.uk		51.393900	.517800	0		
27	5279	Westdale Services Ltd	Doncaster Road		Askern	Doncaster	South Yorkshire	DN6 9JD	England	01302 700700			www.westdaleservices.co.uk	coleen@westdaleservices.co.uk		53.600900	-1.159100	0		
27	5318	Sykes Specialist Contracting Ltd 	216-218 Rothbury Terrace	Heaton	Newcastle upon Tyne	Tyne and Wear	Tyne and Wear	NE6 5DE	England	0191 4236200			www.sykessc.com	chris@sykessc.com		54.952700	-1.565000	0		
27	5334	Sustainable Building Services (UK) Ltd	2b, Maple Court	Maple View	White Moss Business Park	Skelmersdale	Lancashire	WN8 9TW	England	03452 571165			www.sustainablebuildinguk.com	enquiries@sustainablebuildinguk.com		53.537500	-2.792700	0		
27	5337	Cornerstone (East Anglia) Ltd	Unit 5	Fuller Road		Harleston	Norfolk	IP20 9EA	England	01379 853613			www.cornerstonelimited.co.uk	enquiries@cornerstonelimited.co.uk		52.397300	1.304400	0		
27	5365	Aspiration Group Holdings Ltd T/A Aspiration Energy	Aspiration Energy	Suite T	Diss Business Park, Hopper Way	Diss, Sandy Lane	Norfolk	IP22 4GT	England	01379 658959			www.aspirationenergy.co.uk	achrystal@aspirationenergy.co.uk		52.374200	1.127900	0		
27	5365	Aspiration Group Holdings Ltd T/A Aspiration Energy	Aspiration Energy	Suite T	Diss Business Park, Hopper Way	Diss, Sandy Lane	Norfolk	IP22 4GT	England	01379 658959			www.aspirationenergy.co.uk	jchrystal@aspirationenergy.co.uk 		52.374200	1.127900	0		
27	8524	SJ Donnelly Ltd	Park Farm	48-50 London Road	Stretton on Dunsmore	Rugby	Warwickshire	CV23 9JJ	England	01788 812757			www.sjdonnellyltd.co.uk	sam@sjdonnellyltd.co.uk		52.347900	-1.350400	0		
27	8539	WHS Contractors Limited 	Unit 17 Avon Business Park	Lodge Causeway	Fishponds	Bristol	Avon	BS16 3JP	England	01179 657971			www.whsexterior.co.uk	sharon.hood@whscontractors.co.uk		51.474900	-2.533000	0		
27	8691	Rateavon Ltd	11 Eagles Wood Business Park	Woodlands Lane	Bradley Stoke	Bristol	Avon	BS32 4EU	England	01179 820033			www.rateavon.co.uk	info@rateavon.co.uk		51.546800	-2.556600	0		
27	8716	Kelvik Ltd 	Oxford House	Sixth Avenue		Doncaster	South Yorkshire	DN9 3GG	England	01302 726775				carl.dodd@morgandodd.co.uk		53.486600	-1.015600	0		
27	8918	British Gas Trading Ltd t/a ECL Contracts	Eleven Arches House	Leicester Road		Rugby	Warwickshire	CV21 1FD	England	01788 537878 			www.eclcontracts.co.uk	Kim.Dornan@bghn.co.uk 		52.384800	-1.265000	0		
27	8925	EWIS UK Ltd	Energy House	Grandstand Road		Hereford	Herefordshire	HR4 9NH	England	07921 493292				p.jones@ewis-ukltd.co.uk		52.067100	-2.730600	0		
27	8988	SERS Energy Solutions Ltd	Unit 3a	Gallagher Retail Park	Parc Pontypandy	Caerphilly	Gwent	CF83 3GX	Wales	01443 821349						51.590800	-3.214700	0		
27	9006	The Eco Roof and Wall-Company Limited	Taylors Transport Building	5 Glaisdale Drive East		Nottingham	Nottinghamshire	NG8 4GU	England	01158 967542			www.theecoroofandwallcompany.co.uk	admin@theecoroofandwallcompany.co.uk		52.957800	-1.180500	0		
27	9035	Retrofit UK Ltd	Unit K	Broad Lane Industrial Estate		Cottenham	Cambridgeshire	CB24 8SW	England	01954 252177			www.retrofituk.co.uk	nick.stevens@retrofituk.co.uk		52.294000	.123900	0		
27	9039	Mario Insulation Ltd	2 Rushbury Close			Bilston	West Midlands	WV14 0UH	England	07831 551117			www.marioinsulation.com	mil.fasades@gmail.com		52.562400	-2.090800	0		
